station,datetime_utc,datetime_ph,synop_raw,wind_speed_ms,wind_direction_deg,wind_unit_code,missing_wind_flag
98747,2023-01-01T03:00:00+00:00,2023-01-01T11:00:00+08:00,AAXX 01031 98747 41470 70303 10282 20246 30033 40119 58007 70544 82138 333 82816 84358 85272==,3.000,30.0,1,0
98747,2023-01-01T06:00:00+00:00,2023-01-01T14:00:00+08:00,AAXX 01061 98747 41460 80305 10274 20242 30011 40097 57022 78044 8297/ 333 88358 82915==,5.000,30.0,1,0
98747,2023-01-01T09:00:00+00:00,2023-01-01T17:00:00+08:00,AAXX 01091 98747 41460 80406 10250 20242 30014 40100 53003 76166 8462/ 333 84715 88458==,6.000,40.0,1,0
98747,2023-01-01T15:00:00+00:00,2023-01-01T23:00:00+08:00,AAXX 01151 98747 41460 80202 10253 20240 30033 40119 53005 72586 8387/ 333 83616 88358==,2.000,20.0,1,0
98747,2023-01-01T18:00:00+00:00,2023-01-02T02:00:00+08:00,AAXX 01181 98747 12460 80503 10258 20236 30009 40095 58024 69991 8387/ 333 83816 88358==,3.000,50.0,1,0
98747,2023-01-01T21:00:00+00:00,2023-01-02T05:00:00+08:00,AAXX 01211 98747 42460 80604 10253 20234 30010 40096 55001 8387/ 333 83816 88358==,4.000,60.0,1,0
98747,2023-01-02T00:00:00+00:00,2023-01-02T08:00:00+08:00,AAXX 02001 98747 11470 50301 10267 20244 30023 40109 53013 69954 70544 82871 333 20245 58017 70005 82816 85358==,1.000,30.0,1,0
98747,2023-01-02T03:00:00+00:00,2023-01-02T11:00:00+08:00,AAXX 02031 98747 41470 80503 10273 20242 30016 40102 58007 70544 83808 333 83816 88272==,3.000,50.0,1,0
98747,2023-01-02T09:00:00+00:00,2023-01-02T17:00:00+08:00,AAXX 02091 98747 41470 60104 10263 20244 39998 40084 53005 70544 83870 333 83816 86358==,4.000,10.0,1,0
98747,2023-01-02T12:00:00+00:00,2023-01-02T20:00:00+08:00,AAXX 02121 98747 11458 81202 10256 20244 30017 40103 53019 60031 76086 8462/ 333 10279 59009 88457 84915==,2.000,120.0,1,0
98747,2023-01-02T18:00:00+00:00,2023-01-03T02:00:00+08:00,AAXX 02181 98747 11458 82201 10241 20232 30004 40090 58019 60101 76166 8462/ 333 84615 88457==,1.000,220.0,1,0
98747,2023-01-02T21:00:00+00:00,2023-01-03T05:00:00+08:00,AAXX 02211 98747 41458 80901 10234 20230 39999 40085 56005 76166 8462/ 333 84615 88457==,1.000,90.0,1,0
98747,2023-01-03T03:00:00+00:00,2023-01-03T11:00:00+08:00,AAXX 03031 98747 41470 70405 10275 20238 30008 40094 58007 70544 82170 333 82816 87358==,5.000,40.0,1,0
98747,2023-01-03T12:00:00+00:00,2023-01-03T20:00:00+08:00,AAXX 03121 98747 11460 80502 10265 20242 30001 40087 52017 60001 72584 8387/ 333 10290 59016 83616 88358==,2.000,50.0,1,0
98747,2023-01-04T03:00:00+00:00,2023-01-04T11:00:00+08:00,AAXX 04031 98747 41465 83303 10272 20244 30014 40100 50001 70544 82210 333 82816 88458==,3.000,330.0,1,0
98747,2023-01-05T03:00:00+00:00,2023-01-05T11:00:00+08:00,AAXX 05031 98747 41470 50202 10282 20255 30025 40111 58003 70544 82870 333 82816 85358==,2.000,20.0,1,0
98747,2023-01-07T03:00:00+00:00,2023-01-07T11:00:00+08:00,AAXX 07031 98747 41470 81001 10271 20229 30022 40108 58009 70566 8287/ 333 82816 88358==,1.000,100.0,1,0
98747,2023-01-07T06:00:00+00:00,2023-01-07T14:00:00+08:00,AAXX 07061 98747 11470 80304 10281 20226 30001 40087 56021 69941 70566 8287/ 333 82816 88358==,4.000,30.0,1,0
98747,2023-01-07T09:00:00+00:00,2023-01-07T17:00:00+08:00,AAXX 07091 98747 41470 80406 10267 20237 30002 40088 53001 70544 8287/ 333 82816 88358==,6.000,40.0,1,0
98747,2023-01-07T15:00:00+00:00,2023-01-07T23:00:00+08:00,AAXX 07151 98747 42460 83602 10262 20235 30028 40114 51011 8287/ 333 82816 88358==,2.000,360.0,1,0
98747,2023-01-08T00:00:00+00:00,2023-01-08T08:00:00+08:00,AAXX 08001 98747 11450 83603 10220 20205 30057 40143 52032 60164 76166 8362/ 333 20234 58026 70160 83715 88457==,3.000,360.0,1,0
98747,2023-01-08T03:00:00+00:00,2023-01-08T11:00:00+08:00,AAXX 08031 98747 41450 83605 10240 20226 30057 40137 58006 76166 8362/ 333 83715 88457==,5.000,360.0,1,0
98747,2023-01-08T06:00:00+00:00,2023-01-08T14:00:00+08:00,AAXX 08061 98747 11460 82102 10247 20227 30029 40115 57002 60081 72566 8387/ 333 83816 88358==,2.000,210.0,1,0
98747,2023-01-08T09:00:00+00:00,2023-01-08T17:00:00+08:00,AAXX 08091 98747 41465 80102 10251 20230 30024 40110 55005 70544 8387/ 333 83816 88358==,2.000,10.0,1,0
98747,2023-01-08T15:00:00+00:00,2023-01-08T23:00:00+08:00,AAXX 08151 98747 42460 80302 10254 20229 30042 40128 50000 8387/ 333 83816 88358==,2.000,30.0,1,0
98747,2023-01-08T18:00:00+00:00,2023-01-09T02:00:00+08:00,AAXX 08181 98747 42460 80502 10250 20236 30026 40112 58016 8387/ 333 83816 88358==,2.000,50.0,1,0
98747,2023-01-09T03:00:00+00:00,2023-01-09T11:00:00+08:00,AAXX 09031 98747 41470 83402 10266 20241 30033 40119 58004 70544 8288/ 333 82816 88272==,2.000,340.0,1,0
98747,2023-01-09T06:00:00+00:00,2023-01-09T14:00:00+08:00,AAXX 0906/ 98747 31470 80305 10269 20240 30010 40096 57023 70544 8387/ 333 56990 83816 88358=,5.000,30.0,/,0
98747,2023-01-09T09:00:00+00:00,2023-01-09T17:00:00+08:00,AAXX 09091 98747 41470 83402 10262 20239 30014 40100 53004 70544 8388/ 333 83816 88272==,2.000,340.0,1,0
98747,2023-01-09T12:00:00+00:00,2023-01-09T20:00:00+08:00,AAXX 09121 98747 42460 83101 10254 20237 30025 40111 53011 8387/ 333 10269 59017 83816 88358==,1.000,310.0,1,0
98747,2023-01-09T15:00:00+00:00,2023-01-09T23:00:00+08:00,AAXX 09151 98747 42460 82201 10247 20240 30024 40110 56001 8497/ 333 82816 88358 82915==,1.000,220.0,1,0
98747,2023-01-09T18:00:00+00:00,2023-01-10T02:00:00+08:00,AAXX 09181 98747 11460 82201 10240 20231 30005 40091 58019 69941 76086 8362/ 333 83716 88458==,1.000,220.0,1,0
98747,2023-01-10T03:00:00+00:00,2023-01-10T11:00:00+08:00,AAXX 10031 98747 41465 81101 10255 20240 30015 40101 58010 76066 8382/ 333 83616 88458==,1.000,110.0,1,0
98747,2023-01-10T06:00:00+00:00,2023-01-10T14:00:00+08:00,AAXX 10061 98747 11465 83502 10264 20241 39987 40073 57028 60011 70566 8387/ 333 83616 88358==,2.000,350.0,1,0
98747,2023-01-10T09:00:00+00:00,2023-01-10T17:00:00+08:00,AAXX 10091 98747 41465 80101 10250 20239 39993 40079 53006 72584 8387/ 333 83816 88358==,1.000,10.0,1,0
98747,2023-01-10T12:00:00+00:00,2023-01-10T20:00:00+08:00,AAXX 10121 98747 11460 80505 10252 20235 30013 40099 52020 69981 78084 8397/ 333 10265 59012 88358 83915==,5.000,50.0,1,0
98747,2023-01-10T15:00:00+00:00,2023-01-10T23:00:00+08:00,AAXX 10151 98747 42460 81002 10247 20237 30013 40099 50000 8497/ 333 83816 88358 81915==,2.000,100.0,1,0
98747,2023-01-10T18:00:00+00:00,2023-01-11T02:00:00+08:00,AAXX 10181 98747 11450 81001 10239 20233 39994 40080 58019 60041 76186 8462/ 333 84715 88457==,1.000,100.0,1,0
98747,2023-01-14T15:00:00+00:00,2023-01-14T23:00:00+08:00,AAXX 14151 98747 41460 82101 10242 20232 39989 40075 51002 70282 8287/ 333 82816 88358==,1.000,210.0,1,0
98747,2023-01-14T18:00:00+00:00,2023-01-15T02:00:00+08:00,AAXX 14181 98747 11460 81801 10240 20229 39964 40050 58025 60001 70282 8287/ 333 82816 88358==,1.000,180.0,1,0
98747,2023-01-14T21:00:00+00:00,2023-01-15T05:00:00+08:00,AAXX 14211 98747 42460 51201 10240 20226 39974 40060 53010 82870 333 82816 85358==,1.000,120.0,1,0
98747,2023-01-15T03:00:00+00:00,2023-01-15T11:00:00+08:00,AAXX 15031 98747 41470 53602 10285 20243 39990 40076 58004 70544 82870 333 82816 85358==,2.000,360.0,1,0
98747,2023-01-15T18:00:00+00:00,2023-01-16T02:00:00+08:00,AAXX 15181 98747 42460 82201 10250 20240 39987 40073 58009 8287/ 333 82816 88358==,1.000,220.0,1,0
98747,2023-01-16T03:00:00+00:00,2023-01-16T11:00:00+08:00,AAXX 16031 98747 41475 33502 10287 20254 30009 40095 58002 70544 82201 333 82816==,2.000,350.0,1,0
98747,2023-01-16T15:00:00+00:00,2023-01-16T23:00:00+08:00,AAXX 16151 98747 42460 81801 10258 20244 30015 40101 50006 8287/ 333 82816 88358==,1.000,180.0,1,0
98747,2023-01-17T03:00:00+00:00,2023-01-17T11:00:00+08:00,AAXX 17031 98747 41465 63302 10294 20254 30027 40113 50000 70544 83278 333 85272==,2.000,330.0,1,0
98747,2023-01-17T06:00:00+00:00,2023-01-17T14:00:00+08:00,AAXX 17061 98747 41465 73302 10301 20254 39997 40083 57030 70544 83908 333 82816 86272 81915==,2.000,330.0,1,0
98747,2023-01-17T09:00:00+00:00,2023-01-17T17:00:00+08:00,AAXX 17091 98747 41460 82501 10277 20250 30013 40099 52016 78094 8397/ 333 88358 83915==,1.000,250.0,1,0
98747,2023-01-17T12:00:00+00:00,2023-01-17T20:00:00+08:00,AAXX 17121 98747 41460 82202 10268 20254 30023 40109 51010 72594 8387/ 333 10301 58014 83616 88358==,2.000,220.0,1,0
98747,2023-01-17T15:00:00+00:00,2023-01-17T23:00:00+08:00,AAXX 17151 98747 42460 52202 10248 20240 30024 40110 53001 82808 333 82616 85272==,2.000,220.0,1,0
98747,2023-01-17T21:00:00+00:00,2023-01-18T05:00:00+08:00,AAXX 17211 98747 32460 42801 10240 20234 30016 40102 55002 82801 333 56909 82616 84075=,1.000,280.0,1,0
98747,2023-01-18T06:00:00+00:00,2023-01-18T14:00:00+08:00,AAXX 18061 98747 41470 43402 10290 20243 30001 40087 57035 70544 82231 333 82816 83075==,2.000,340.0,1,0
98747,2023-01-18T12:00:00+00:00,2023-01-18T20:00:00+08:00,AAXX 18121 98747 41460 40303 10273 20258 30023 40109 51017 71322 84970 333 10312 58000 84358 81915==,3.000,30.0,1,0
98747,2023-01-18T15:00:00+00:00,2023-01-18T23:00:00+08:00,AAXX 18151 98747 42460 41001 10257 20240 30026 40112 52003 82870 333 82816 84358==,1.000,100.0,1,0
98747,2023-01-18T18:00:00+00:00,2023-01-19T02:00:00+08:00,AAXX 18181 98747 42460 21901 10250 20243 30011 40097 58015 82801 333 82816==,1.000,190.0,1,0
98747,2023-01-19T03:00:00+00:00,2023-01-19T11:00:00+08:00,AAXX 19031 98747 41475 20203 10287 20247 30022 40108 55000 70544 82201 333 82816==,3.000,20.0,1,0
98747,2023-01-19T06:00:00+00:00,2023-01-19T14:00:00+08:00,AAXX 19061 98747 41475 33202 10291 20259 39996 40082 58026 70544 83901 333 83075 81915==,2.000,320.0,1,0
98747,2023-01-19T09:00:00+00:00,2023-01-19T17:00:00+08:00,AAXX 19091 98747 41475 63101 10282 20249 39994 40080 53002 70544 83971 333 82816 86358 81915==,1.000,310.0,1,0
98747,2023-01-19T12:00:00+00:00,2023-01-19T20:00:00+08:00,AAXX 19121 98747 42460 30305 10274 20247 30014 40100 53020 83970 333 10306 59009 83358 81915==,5.000,30.0,1,0
98747,2023-01-19T15:00:00+00:00,2023-01-19T23:00:00+08:00,AAXX 19151 98747 41460 70306 10265 20243 30014 40101 54000 71322 83970 333 82816 87358 81915==,6.000,30.0,1,0
98747,2023-01-19T18:00:00+00:00,2023-01-20T02:00:00+08:00,AAXX 19181 98747 42460 52401 10254 20251 39999 40085 58015 83970 333 82816 85358 81915==,1.000,240.0,1,0
98747,2023-01-20T15:00:00+00:00,2023-01-20T23:00:00+08:00,AAXX 20151 98747 42460 30303 10260 20236 30004 40090 51002 82871 333 82816 83358==,3.000,30.0,1,0
98747,2023-01-20T18:00:00+00:00,2023-01-21T02:00:00+08:00,AAXX 20181 98747 42460 83301 10240 20226 39994 40080 58010 8287/ 333 82816 88358==,1.000,330.0,1,0
98747,2023-01-21T00:00:00+00:00,2023-01-21T08:00:00+08:00,AAXX 21001 98747 11470 61901 10260 20247 30008 40094 52014 60004 72584 82870 333 20240 59006 70000 82816 86358==,1.000,190.0,1,0
98747,2023-01-23T03:00:00+00:00,2023-01-23T11:00:00+08:00,AAXX 23031 98747 31460 60304 10270 20246 30005 40091 58001 70544 82970 333 56990 82915 86358=,4.000,30.0,1,0
98747,2023-01-23T12:00:00+00:00,2023-01-23T20:00:00+08:00,AAXX 23121 98747 11460 80601 10252 20238 39985 40071 52015 69951 76166 8362/ 333 10279 59012 83615 88357==,1.000,60.0,1,0
98747,2023-01-23T15:00:00+00:00,2023-01-23T23:00:00+08:00,AAXX 23151 98747 41460 82301 10245 20241 39991 40077 51006 70262 8387/ 333 83816 88358==,1.000,230.0,1,0
98747,2023-01-24T03:00:00+00:00,2023-01-24T11:00:00+08:00,AAXX 24031 98747 41465 70303 10279 20245 39995 40081 56006 70584 82238 333 82816 84358 85272==,3.000,30.0,1,0
98747,2023-01-24T06:00:00+00:00,2023-01-24T14:00:00+08:00,AAXX 24061 98747 11468 80309 10280 20242 39969 40060 57021 60001 71684 8397/ 333 81816 88358 82915==,9.000,30.0,1,0
98747,2023-01-24T12:00:00+00:00,2023-01-24T20:00:00+08:00,AAXX 24121 98747 11460 80405 10250 20239 30003 40089 58029 60011 76184 8462/ 333 10284 58018 84615 88357==,5.000,40.0,1,0
98747,2023-01-26T18:00:00+00:00,2023-01-27T02:00:00+08:00,AAXX 26181 98747 12460 62301 10238 20231 39985 40071 58017 60001 82870 333 82816 86358==,1.000,230.0,1,0
98747,2023-01-28T15:00:00+00:00,2023-01-28T23:00:00+08:00,AAXX 28151 98747 41460 80304 10260 20246 39998 40084 51003 78082 8397/ 333 82816 88358 83915==,4.000,30.0,1,0
98747,2023-01-29T00:00:00+00:00,2023-01-29T08:00:00+08:00,AAXX 29001 98747 11460 83603 10260 20246 30006 40092 52019 60004 71544 8397/ 333 20246 58004 70000 88358 83915==,3.000,360.0,1,0
98747,2023-01-29T03:00:00+00:00,2023-01-29T11:00:00+08:00,AAXX 29031 98747 41460 60304 10270 20246 30005 40091 58001 70544 82970 333 86358 82915==,4.000,30.0,1,0
98747,2023-01-29T18:00:00+00:00,2023-01-30T02:00:00+08:00,AAXX 29181 98747 42460 83602 10250 20236 39997 40083 58014 8287/ 333 82816 88358==,2.000,360.0,1,0
98747,2023-01-29T21:00:00+00:00,2023-01-30T05:00:00+08:00,AAXX 29211 98747 32460 81201 10248 20231 30000 40086 53003 8287/ 333 56999 82816 88358=,1.000,120.0,1,0
98747,2023-01-30T18:00:00+00:00,2023-01-31T02:00:00+08:00,AAXX 30181 98747 42460 41601 10246 20240 30000 40086 58013 82870 333 82816 84358==,1.000,160.0,1,0
98747,2023-02-01T00:00:00+00:00,2023-02-01T08:00:00+08:00,AAXX 01001 98747 11465 71601 10252 20242 30028 40114 52022 60094 71644 83970 333 20240 58008 70090 82816 86358 81915==,1.000,160.0,1,0
98747,2023-02-01T03:00:00+00:00,2023-02-01T11:00:00+08:00,AAXX 01031 98747 41470 70802 10277 20229 30015 40101 58013 70544 81271 333 81816 86358==,2.000,80.0,1,0
98747,2023-02-01T06:00:00+00:00,2023-02-01T14:00:00+08:00,AAXX 01061 98747 31475 43104 10294 20245 39988 40074 57027 70544 81239 333 56999 81816 83358=,4.000,310.0,1,0
98747,2023-02-04T12:00:00+00:00,2023-02-04T20:00:00+08:00,AAXX 04121 98747 11460 83602 10246 20229 30010 40096 52016 60001 78022 8297/ 333 10284 58007 88358 82915==,2.000,360.0,1,0
98747,2023-02-05T00:00:00+00:00,2023-02-05T08:00:00+08:00,AAXX 05001 98747 11470 52101 10250 20244 30013 40099 52017 69974 70544 82271 333 20232 58000 70007 82816 85358==,1.000,210.0,1,0
98747,2023-02-05T18:00:00+00:00,2023-02-06T02:00:00+08:00,AAXX 05181 98747 42460 62101 10240 20234 30000 40086 58015 82870 333 82816 86358==,1.000,210.0,1,0
98747,2023-02-10T12:00:00+00:00,2023-02-10T20:00:00+08:00,AAXX 10121 98747 42460 43607 10268 20244 30001 40097 52006 82870 333 10298 58004 82816 84358==,7.000,360.0,1,0
98747,2023-02-10T18:00:00+00:00,2023-02-11T02:00:00+08:00,AAXX 10181 98747 42460 30901 10252 20235 30006 40092 58017 82270 333 82816 83358==,1.000,90.0,1,0
98747,2023-02-11T00:00:00+00:00,2023-02-11T08:00:00+08:00,AAXX 11001 98747 41475 41501 10254 20243 30027 40113 52019 70544 82230 333 20232 58002 82816 84358==,1.000,150.0,1,0
98747,2023-02-11T18:00:00+00:00,2023-02-12T02:00:00+08:00,AAXX 11181 98747 42460 31201 10240 20226 30011 40097 58012 82201 333 82816 83075==,1.000,120.0,1,0
98747,2023-02-14T09:00:00+00:00,2023-02-14T17:00:00+08:00,AAXX 14091 98747 41430 81801 10239 20235 39989 40075 51008 76166 8462/ 333 84715 88457==,1.000,180.0,1,0
98747,2023-02-14T12:00:00+00:00,2023-02-14T20:00:00+08:00,AAXX 14121 98747 11420 81602 10235 20234 30009 40095 52020 60421 76166 8462/ 333 10267 84715 88457==,2.000,160.0,1,0
98747,2023-02-18T12:00:00+00:00,2023-02-18T20:00:00+08:00,AAXX 18121 98747 11460 82101 10238 20224 39990 40076 52013 60001 71582 8297/ 333 10262 58022 88358 83915==,1.000,210.0,1,0
98747,2023-02-18T18:00:00+00:00,2023-02-19T02:00:00+08:00,AAXX 18181 98747 42460 51801 10232 20226 39985 40071 58015 82870 333 82816 85358==,1.000,180.0,1,0
98747,2023-02-19T00:00:00+00:00,2023-02-19T08:00:00+08:00,AAXX 19001 98747 11470 52701 10260 20232 30001 40087 52015 60124 70544 82231 333 20224 58013 70120 82816 84358==,1.000,270.0,1,0
98747,2023-02-19T18:00:00+00:00,2023-02-20T02:00:00+08:00,AAXX 19181 98747 42460 51801 10248 20223 39994 40080 58013 82870 333 82816 85358==,1.000,180.0,1,0
98747,2023-02-20T12:00:00+00:00,2023-02-20T20:00:00+08:00,AAXX 20121 98747 41460 81902 10264 20245 30009 40095 52018 70242 8487/ 333 10299 58020 84616 88358==,2.000,190.0,1,0
98747,2023-02-20T18:00:00+00:00,2023-02-21T02:00:00+08:00,AAXX 20181 98747 11460 72002 10247 20237 30004 40090 58009 60011 70182 82878 333 82816 83358 86272==,2.000,200.0,1,0
98747,2023-02-21T09:00:00+00:00,2023-02-21T17:00:00+08:00,AAXX 21091 98747 41470 72901 10276 20250 30006 40092 51003 70544 83938 333 81816 84358 82915==,1.000,290.0,1,0
98747,2023-02-21T12:00:00+00:00,2023-02-21T20:00:00+08:00,AAXX 21121 98747 41460 82601 10262 20252 30019 40105 52013 70242 8287/ 333 10300 58010 82616 88358==,1.000,260.0,1,0
98747,2023-02-24T09:00:00+00:00,2023-02-24T17:00:00+08:00,AAXX 24091 98747 41470 70201 10282 20246 39992 40078 53008 78044 84970 333 87358 82915==,1.000,20.0,1,0
98747,2023-02-25T03:00:00+00:00,2023-02-25T11:00:00+08:00,AAXX 25031 98747 41475 20102 10290 20252 30027 40113 58004 70544 82202 333 82816==,2.000,10.0,1,0
98747,2023-02-26T00:00:00+00:00,2023-02-26T08:00:00+08:00,AAXX 26001 98747 12470 33605 10264 20234 30046 40132 52016 69924 82871 333 20256 58015 70002 82816 83358==,5.000,360.0,1,0
98747,2023-02-26T15:00:00+00:00,2023-02-26T23:00:00+08:00,AAXX 26151 98747 42470 50404 10256 20242 30030 40116 58001 82870 333 82816 85358==,4.000,40.0,1,0
98747,2023-02-26T18:00:00+00:00,2023-02-27T02:00:00+08:00,AAXX 26181 98747 42460 50802 10255 20237 30021 40107 58009 82870 333 82816 85358==,2.000,80.0,1,0
98747,2023-02-27T06:00:00+00:00,2023-02-27T14:00:00+08:00,AAXX 27061 98747 11475 43606 10297 20238 30018 40104 58021 60001 70544 82271 333 82816 83358==,6.000,360.0,1,0
98747,2023-02-27T09:00:00+00:00,2023-02-27T17:00:00+08:00,AAXX 27091 98747 31475 70409 10286 20245 30018 40104 55000 70544 83972 333 56999 81915 82816 85075=,9.000,40.0,1,0
98747,2023-03-01T03:00:00+00:00,2023-03-01T11:00:00+08:00,AAXX 01031 98747 41475 53203 10288 20237 30033 40119 50001 70544 81231 333 81816 84075==,3.000,320.0,1,0
98747,2023-03-12T12:00:00+00:00,2023-03-12T20:00:00+08:00,AAXX 12121 98747 42460 60205 10274 20213 30024 40110 52018 82270 333 10294 59011 82816 85358==,5.000,20.0,1,0
98747,2023-03-12T21:00:00+00:00,2023-03-13T05:00:00+08:00,AAXX 12211 98747 32465 20503 10252 20227 30006 40092 51006 82830 333 56990 82816=,3.000,50.0,1,0
98747,2023-03-13T03:00:00+00:00,2023-03-13T11:00:00+08:00,AAXX 13031 98747 41470 40407 10285 20229 30013 40099 58007 70544 82132 333 82816 83358==,7.000,40.0,1,0
98747,2023-03-13T06:00:00+00:00,2023-03-13T14:00:00+08:00,AAXX 13061 98747 41470 70403 10290 20229 39992 40078 57021 70544 82270 333 82816 87358==,3.000,40.0,1,0
98747,2023-03-13T15:00:00+00:00,2023-03-13T23:00:00+08:00,AAXX 13151 98747 42460 80102 10241 20228 30021 40107 51005 8387/ 333 83816 88358==,2.000,10.0,1,0
98747,2023-03-14T18:00:00+00:00,2023-03-15T02:00:00+08:00,AAXX 14181 98747 42460 81701 10241 20228 30010 40096 57007 8287/ 333 82816 88358==,1.000,170.0,1,0
98747,2023-03-17T18:00:00+00:00,2023-03-18T02:00:00+08:00,AAXX 17181 98747 42460 32201 10250 20243 30015 40101 58012 82871 333 82816 83358==,1.000,220.0,1,0
98747,2023-03-21T12:00:00+00:00,2023-03-21T20:00:00+08:00,AAXX 21121 98747 41465 63304 10270 20240 30006 40092 52015 70242 82208 333 10300 82816 85272==,4.000,330.0,1,0
98747,2023-03-21T18:00:00+00:00,2023-03-22T02:00:00+08:00,AAXX 21181 98747 42460 41201 10254 20244 30003 40089 58013 82201 333 82816 83075==,1.000,120.0,1,0
98747,2023-03-22T03:00:00+00:00,2023-03-22T11:00:00+08:00,AAXX 22031 98747 41475 13603 10292 20231 30013 40099 58004 70544 81200 333 81816==,3.000,360.0,1,0
98747,2023-03-23T18:00:00+00:00,2023-03-24T02:00:00+08:00,AAXX 23181 98747 42460 51801 10255 20234 30001 40087 58016 82870 333 82816 85358==,1.000,180.0,1,0
98747,2023-03-26T09:00:00+00:00,2023-03-26T17:00:00+08:00,AAXX 26091 98747 41475 73504 10298 20239 39984 40070 55000 70544 81208 333 81815 87272==,4.000,350.0,1,0
98747,2023-03-26T18:00:00+00:00,2023-03-27T02:00:00+08:00,AAXX 26181 98747 42460 51501 10255 20240 39992 40078 58015 81208 333 81816 85272==,1.000,150.0,1,0
98747,2023-03-26T21:00:00+00:00,2023-03-27T05:00:00+08:00,AAXX 26211 98747 42460 31501 10252 20233 39996 40082 53003 81208 333 81816 83272==,1.000,150.0,1,0
98747,2023-03-27T15:00:00+00:00,2023-03-27T23:00:00+08:00,AAXX 27151 98747 41460 30901 10270 20246 30020 40106 52017 71322 82970 333 83358 82915==,1.000,90.0,1,0
98747,2023-03-30T00:00:00+00:00,2023-03-30T08:00:00+08:00,AAXX 30001 98747 11470 43601 10270 20246 30014 40100 52021 69914 70544 82271 333 20240 59009 70001 82816 83358==,1.000,360.0,1,0
98747,2023-03-30T09:00:00+00:00,2023-03-30T17:00:00+08:00,AAXX 30091 98747 41460 83301 10270 20256 39985 40071 53006 78098 8297/ 333 82816 88358 81915==,1.000,330.0,1,0
98747,2023-03-30T18:00:00+00:00,2023-03-31T02:00:00+08:00,AAXX 30181 98747 42460 81801 10250 20236 39998 40084 58011 8287/ 333 82816 88358==,1.000,180.0,1,0
98747,2023-03-31T03:00:00+00:00,2023-03-31T11:00:00+08:00,AAXX 31031 98747 41475 33303 10300 20247 30014 40100 58006 70544 82201 333 82816 83075==,3.000,330.0,1,0
98747,2023-03-31T12:00:00+00:00,2023-03-31T20:00:00+08:00,AAXX 31121 98747 11460 81601 10263 20249 30006 40092 51016 60031 78096 8397/ 333 10302 58005 82816 88358 81915==,1.000,160.0,1,0
98747,2023-04-01T03:00:00+00:00,2023-04-01T11:00:00+08:00,AAXX 01031 98747 41470 80203 10293 20238 30013 40099 58003 70544 82877 333 82816 83358 88272==,3.000,20.0,1,0
98747,2023-04-01T15:00:00+00:00,2023-04-01T23:00:00+08:00,AAXX 01151 98747 42460 80701 10267 20248 30008 40094 50004 82807 333 82816 88272==,1.000,70.0,1,0
98747,2023-04-01T18:00:00+00:00,2023-04-02T02:00:00+08:00,AAXX 01181 98747 42460 52501 10253 20242 39990 40076 58018 82870 333 82816 85358==,1.000,250.0,1,0
98747,2023-04-01T21:00:00+00:00,2023-04-02T05:00:00+08:00,AAXX 01211 98747 42460 53001 10260 20248 39998 40084 53008 82870 333 82816 85358==,1.000,300.0,1,0
98747,2023-04-04T09:00:00+00:00,2023-04-04T17:00:00+08:00,AAXX 04091 98747 41475 23201 10298 20436 39989 40075 55001 70544 82206 333 82816==,1.000,320.0,1,0
98747,2023-04-08T15:00:00+00:00,2023-04-08T23:00:00+08:00,AAXX 08151 98747 42460 50302 10267 20241 30034 40120 51006 82870 333 82816 85358==,2.000,30.0,1,0
98747,2023-04-08T18:00:00+00:00,2023-04-09T02:00:00+08:00,AAXX 08181 98747 42460 80303 10270 20243 30009 40095 58025 8287/ 333 82816 88358==,3.000,30.0,1,0
98747,2023-04-08T21:00:00+00:00,2023-04-09T05:00:00+08:00,AAXX 08211 98747 42460 50501 10268 20238 30011 40097 53002 82870 333 82816 85358==,1.000,50.0,1,0
98747,2023-04-09T00:00:00+00:00,2023-04-09T08:00:00+08:00,AAXX 09001 98747 41470 60504 10282 20253 30021 40107 52010 70544 82971 333 20242 59010 82816 85358 81915==,4.000,50.0,1,0
98747,2023-04-09T09:00:00+00:00,2023-04-09T17:00:00+08:00,AAXX 09091 98747 41468 73406 10285 20245 39999 40085 53003 70544 82938 333 81816 87272 81915==,6.000,340.0,1,0
98747,2023-04-09T12:00:00+00:00,2023-04-09T20:00:00+08:00,AAXX 09121 98747 41460 70206 10278 20219 30016 40102 52017 70142 82870 333 10303 59012 82616 87358==,6.000,20.0,1,0
98747,2023-04-09T18:00:00+00:00,2023-04-10T02:00:00+08:00,AAXX 09181 98747 42465 30602 10261 20253 30009 40095 58017 81801 333 81616 83075==,2.000,60.0,1,0
98747,2023-04-11T09:00:00+00:00,2023-04-11T17:00:00+08:00,AAXX 11091 98747 41460 73101 10298 20226 39989 40075 55001 70544 81208 333 81816 87272==,1.000,310.0,1,0
98747,2023-04-12T21:00:00+00:00,2023-04-13T05:00:00+08:00,AAXX 12211 98747 42460 12101 10233 20222 39997 40083 53002 81100 333 81816==,1.000,210.0,1,0
98747,2023-04-14T15:00:00+00:00,2023-04-14T23:00:00+08:00,AAXX 14151 98747 42460 82101 10260 20232 30016 40102 51005 8287/ 333 82816 88358==,1.000,210.0,1,0
98747,2023-04-14T18:00:00+00:00,2023-04-15T02:00:00+08:00,AAXX 14181 98747 42460 81801 10260 20227 39997 40083 58019 8287/ 333 82816 88358==,1.000,180.0,1,0
98747,2023-04-14T21:00:00+00:00,2023-04-15T05:00:00+08:00,AAXX 14211 98747 42460 31801 10256 20228 30008 40094 53011 82870 333 82816 83358==,1.000,180.0,1,0
98747,2023-04-15T00:00:00+00:00,2023-04-15T08:00:00+08:00,AAXX 15001 98747 41470 51801 10290 20256 30022 40108 52014 70544 82271 333 20256 59009 82816 85358==,1.000,180.0,1,0
98747,2023-04-15T03:00:00+00:00,2023-04-15T11:00:00+08:00,AAXX 15031 98747 41470 33001 10310 20263 30015 40101 58007 70544 82801 333 82816 83075==,1.000,300.0,1,0
98747,2023-04-16T00:00:00+00:00,2023-04-16T08:00:00+08:00,AAXX 16001 98747 41465 42902 10295 20242 30013 40099 52018 70544 82208 333 20248 59009 82816 84272==,2.000,290.0,1,0
98747,2023-04-16T12:00:00+00:00,2023-04-16T20:00:00+08:00,AAXX 16121 98747 41460 72501 10284 20245 30009 40095 52024 70244 82231 333 10325 58009 82816 86075==,1.000,250.0,1,0
98747,2023-04-16T18:00:00+00:00,2023-04-17T02:00:00+08:00,AAXX 16181 98747 42460 71701 10259 20249 39995 40099 58008 82808 333 82816 87272==,1.000,170.0,1,0
98747,2023-04-19T03:00:00+00:00,2023-04-19T11:00:00+08:00,AAXX 19031 98747 41470 23504 10313 20248 30010 40096 58004 70544 82201 333 82816==,4.000,350.0,1,0
98747,2023-04-20T06:00:00+00:00,2023-04-20T14:00:00+08:00,AAXX 20061 98747 41470 53004 10318 20252 39975 40049 57028 70544 82901 333 84075 82915==,4.000,300.0,1,0
98747,2023-04-20T09:00:00+00:00,2023-04-20T17:00:00+08:00,AAXX 20091 98747 41470 43602 10301 20254 39963 40049 55000 71794 82901 333 81816 83075 81915==,2.000,360.0,1,0
98747,2023-04-20T18:00:00+00:00,2023-04-21T02:00:00+08:00,AAXX 20181 98747 42460 72202 10262 20252 39980 40066 58013 81870 333 81816 87358==,2.000,220.0,1,0
98747,2023-04-21T03:00:00+00:00,2023-04-21T11:00:00+08:00,AAXX 21031 98747 41475 62901 10317 20251 30005 40091 58002 70544 82202 333 82816 85075==,1.000,290.0,1,0
98747,2023-04-21T12:00:00+00:00,2023-04-21T20:00:00+08:00,AAXX 21121 98747 11460 82101 10278 20248 30001 40087 52014 60001 71794 8297/ 333 10329 58020 88258 82915==,1.000,210.0,1,0
98747,2023-04-21T18:00:00+00:00,2023-04-22T02:00:00+08:00,AAXX 21181 98747 42460 51801 10258 20243 39997 40083 58011 82870 333 82816 85358==,1.000,180.0,1,0
98747,2023-04-22T00:00:00+00:00,2023-04-22T08:00:00+08:00,AAXX 22001 98747 11475 33001 10290 20253 30008 40094 52013 60004 70544 82801 333 20250 59005 70000 82816 83075==,1.000,300.0,1,0
98747,2023-04-22T18:00:00+00:00,2023-04-23T02:00:00+08:00,AAXX 22181 98747 42460 31801 10260 20232 30002 40088 58011 82870 333 82816 83358==,1.000,180.0,1,0
98747,2023-04-23T03:00:00+00:00,2023-04-23T11:00:00+08:00,AAXX 23031 98747 41470 22902 10317 20251 30013 40099 58001 70544 82201 333 82816==,2.000,290.0,1,0
98747,2023-04-23T15:00:00+00:00,2023-04-23T23:00:00+08:00,AAXX 23151 98747 42460 51201 10277 20250 30012 40098 50011 82870 333 82816 85358==,1.000,120.0,1,0
98747,2023-04-23T18:00:00+00:00,2023-04-24T02:00:00+08:00,AAXX 23181 98747 42460 21401 10260 20242 39994 40080 57018 82870 333 82816==,1.000,140.0,1,0
98747,2023-04-28T15:00:00+00:00,2023-04-28T23:00:00+08:00,AAXX 28151 98747 42460 33602 10280 20253 30003 40089 51005 82870 333 82816 83358==,2.000,360.0,1,0
98747,2023-04-28T18:00:00+00:00,2023-04-29T02:00:00+08:00,AAXX 28181 98747 42460 31601 10264 20245 39987 40073 58016 82870 333 82816 83358==,1.000,160.0,1,0
98747,2023-04-28T21:00:00+00:00,2023-04-29T05:00:00+08:00,AAXX 28211 98747 42470 20901 10260 20232 39990 40076 53003 82800 333 82816==,1.000,90.0,1,0
98747,2023-04-29T12:00:00+00:00,2023-04-29T20:00:00+08:00,AAXX 29121 98747 01460 81601 10260 20239 39990 40076 52016 72598 8287/ 333 10311 59008 70000 82816 87358==,1.000,160.0,1,0
98747,2023-04-29T18:00:00+00:00,2023-04-30T02:00:00+08:00,AAXX 29181 98747 42460 82101 10260 20218 39974 40060 58023 8287/ 333 82816 88358==,1.000,210.0,1,0
98747,2023-04-30T00:00:00+00:00,2023-04-30T08:00:00+08:00,AAXX 30001 98747 11475 80301 10288 20240 30001 40087 52020 60004 70544 8227/ 333 20260 59002 70000 82816 88358==,1.000,30.0,1,0
98747,2023-04-30T03:00:00+00:00,2023-04-30T11:00:00+08:00,AAXX 30031 98747 41475 53503 10314 20242 39994 40080 58007 70544 82231 333 82816 83358 85075==,3.000,350.0,1,0
98747,2023-04-30T06:00:00+00:00,2023-04-30T14:00:00+08:00,AAXX 30061 98747 41475 82903 10306 20245 39976 40062 57022 70544 8297/ 333 81816 88358 81915==,3.000,290.0,1,0
98747,2023-04-30T12:00:00+00:00,2023-04-30T20:00:00+08:00,AAXX 30121 98747 41465 30502 10280 20249 39997 40083 52019 70544 82801 333 10314 58007 82816 83075==,2.000,50.0,1,0
98747,2023-07-07T03:00:00+00:00,2023-07-07T11:00:00+08:00,AAXX 07031 98747 41470 23102 10301 20262 30030 40116 58002 70544 82201 333 82816==,2.000,310.0,1,0
98747,2023-07-07T06:00:00+00:00,2023-07-07T14:00:00+08:00,AAXX 07061 98747 41470 33402 10307 20263 30009 40095 57021 70544 83902 333 81915==,2.000,340.0,1,0
98747,2023-07-07T09:00:00+00:00,2023-07-07T17:00:00+08:00,AAXX 07091 98747 41470 33301 10295 20258 30009 40094 55001 70544 82871 333 82816 83358==,1.000,330.0,1,0
98747,2023-07-07T15:00:00+00:00,2023-07-07T23:00:00+08:00,AAXX 07151 98747 41460 82101 10273 20262 30035 40121 50005 71782 8397/ 333 88358 81915==,1.000,210.0,1,0
98747,2023-07-07T18:00:00+00:00,2023-07-08T02:00:00+08:00,AAXX 07181 98747 11460 51901 10247 20237 30021 40107 58014 60151 71398 83970 333 85358 81915==,1.000,190.0,1,0
98747,2023-07-08T03:00:00+00:00,2023-07-08T11:00:00+08:00,AAXX 08031 98747 41465 73303 10300 20254 30028 40114 58003 70544 82272 333 82816 83358 86075==,3.000,330.0,1,0
98747,2023-07-08T06:00:00+00:00,2023-07-08T14:00:00+08:00,AAXX 08061 98747 41475 53504 10310 20246 30004 40090 57024 70544 82932 333 81816 84075 81915==,4.000,350.0,1,0
98747,2023-07-08T09:00:00+00:00,2023-07-08T17:00:00+08:00,AAXX 08091 98747 41470 73202 10300 20247 30004 40090 55000 70544 83932 333 85358 83915==,2.000,320.0,1,0
98747,2023-07-08T12:00:00+00:00,2023-07-08T20:00:00+08:00,AAXX 08121 98747 11460 80104 10282 20255 30011 40105 52015 60001 78044 8397/ 333 10310 59011 81816 88358 82915==,4.000,10.0,1,0
98747,2023-07-08T15:00:00+00:00,2023-07-08T23:00:00+08:00,AAXX 08151 98747 41460 43601 10255 20248 30028 40114 51009 71398 82970 333 81816 84358 81915==,1.000,360.0,1,0
98747,2023-07-08T18:00:00+00:00,2023-07-09T02:00:00+08:00,AAXX 08181 98747 11460 52201 10250 20243 30014 40100 58014 60021 70398 81878 333 81816 83358==,1.000,220.0,1,0
98747,2023-07-08T21:00:00+00:00,2023-07-09T05:00:00+08:00,AAXX 08211 98747 42460 81702 10255 20245 30007 40093 55007 8297/ 333 81816 88358 81915==,2.000,170.0,1,0
98747,2023-07-09T03:00:00+00:00,2023-07-09T11:00:00+08:00,AAXX 09031 98747 41460 82602 10262 20248 30020 40106 58009 72598 8497/ 333 82816 88358 82915==,2.000,260.0,1,0
98747,2023-07-09T06:00:00+00:00,2023-07-09T14:00:00+08:00,AAXX 09061 98747 11470 72903 10292 20250 30001 40087 57019 60091 70598 83271 333 83816 85358==,3.000,290.0,1,0
98747,2023-07-09T09:00:00+00:00,2023-07-09T17:00:00+08:00,AAXX 09091 98747 41465 72702 10277 20250 30000 40086 55001 70544 82970 333 87358 82915==,2.000,270.0,1,0
98747,2023-07-09T12:00:00+00:00,2023-07-09T20:00:00+08:00,AAXX 09121 98747 11460 82602 10265 20247 30022 40108 52022 69951 79598 8397/ 333 10292 58003 81816 88358 82915==,2.000,260.0,1,0
98747,2023-07-10T18:00:00+00:00,2023-07-11T02:00:00+08:00,AAXX 10181 98747 11460 81801 10260 20238 39991 40077 58016 60001 78022 8297/ 333 88358 82915==,1.000,180.0,1,0
98747,2023-07-10T21:00:00+00:00,2023-07-11T05:00:00+08:00,AAXX 10211 98747 42460 81801 10258 20233 39983 40069 56008 88358==,1.000,180.0,1,0
98747,2023-07-11T09:00:00+00:00,2023-07-11T17:00:00+08:00,AAXX 11091 98747 41460 62703 10290 20250 39983 40069 58002 71544 83970 333 82816 86358 82915==,3.000,270.0,1,0
98747,2023-07-11T12:00:00+00:00,2023-07-11T20:00:00+08:00,AAXX 11121 98747 41460 81501 10274 20252 30004 40090 52021 71794 8297/ 333 10319 59003 88358 82915==,1.000,150.0,1,0
98747,2023-07-11T15:00:00+00:00,2023-07-11T23:00:00+08:00,AAXX 11151 98747 41460 82101 10262 20248 39999 40085 55005 78098 8297/ 333 88358 82915==,1.000,210.0,1,0
98747,2023-07-11T21:00:00+00:00,2023-07-12T05:00:00+08:00,AAXX 11211 98747 42460 51501 10258 20236 39991 40077 53006 82870 333 82816 85358==,1.000,150.0,1,0
98747,2023-07-12T03:00:00+00:00,2023-07-12T11:00:00+08:00,AAXX 12031 98747 41470 82702 10310 20258 39996 40082 58008 70544 8287/ 333 82816 88358==,2.000,270.0,1,0
98747,2023-07-12T06:00:00+00:00,2023-07-12T14:00:00+08:00,AAXX 12061 98747 41470 52101 10320 20246 39973 40059 58023 70544 83970 333 82816 85358 82915==,1.000,210.0,1,0
98747,2023-07-12T09:00:00+00:00,2023-07-12T17:00:00+08:00,AAXX 12091 98747 41460 82601 10297 20258 39983 40069 53010 71544 84970 333 81816 88358 83915==,1.000,260.0,1,0
98747,2023-07-12T12:00:00+00:00,2023-07-12T20:00:00+08:00,AAXX 12121 98747 11460 81801 10277 20245 39999 40085 53016 60001 78098 8497/ 333 10327 59005 82816 88358 82915==,1.000,180.0,1,0
98747,2023-07-12T15:00:00+00:00,2023-07-12T23:00:00+08:00,AAXX 12151 98747 41460 81501 10262 20241 30007 40093 50008 70282 8497/ 333 81816 88358 82915==,1.000,150.0,1,0
98747,2023-07-12T21:00:00+00:00,2023-07-13T05:00:00+08:00,AAXX 12211 98747 42460 51601 10249 20231 39982 40068 55009 82870 333 82816 85358==,1.000,160.0,1,0
98747,2023-07-13T03:00:00+00:00,2023-07-13T11:00:00+08:00,AAXX 13031 98747 41465 83501 10303 20253 39997 40083 58003 70544 8387/ 333 83816 88358==,1.000,350.0,1,0
98747,2023-07-13T09:00:00+00:00,2023-07-13T17:00:00+08:00,AAXX 13091 98747 41465 81701 10282 20233 39986 40072 53008 78084 8497/ 333 82816 88358 82915==,1.000,170.0,1,0
98747,2023-07-13T12:00:00+00:00,2023-07-13T20:00:00+08:00,AAXX 13121 98747 11460 81901 10255 20220 30002 40089 53016 60001 78084 8497/ 333 10311 58003 82816 88358 82915==,1.000,190.0,1,0
98747,2023-07-13T15:00:00+00:00,2023-07-13T23:00:00+08:00,AAXX 13151 98747 41460 82402 10251 20233 30011 40097 51008 70282 8397/ 333 88358 81915==,2.000,240.0,1,0
98747,2023-07-13T21:00:00+00:00,2023-07-14T05:00:00+08:00,AAXX 13211 98747 42460 43001 10250 20223 39994 40080 55000 82870 333 82816 84358==,1.000,300.0,1,0
98747,2023-07-14T03:00:00+00:00,2023-07-14T11:00:00+08:00,AAXX 14031 98747 41470 32503 10317 20242 39998 40084 58006 70544 82271 333 82816==,3.000,250.0,1,0
98747,2023-07-14T09:00:00+00:00,2023-07-14T17:00:00+08:00,AAXX 14091 98747 41468 82801 10300 20231 39979 40065 53008 70544 8227/ 333 82816 88358==,1.000,280.0,1,0
98747,2023-07-14T12:00:00+00:00,2023-07-14T20:00:00+08:00,AAXX 14121 98747 42460 82101 10280 20219 39998 40084 51019 8287/ 333 10329 59005 82816 88358==,1.000,210.0,1,0
98747,2023-07-14T15:00:00+00:00,2023-07-14T23:00:00+08:00,AAXX 14151 98747 42460 51801 10258 20229 30008 40094 51010 82870 333 82816 85358==,1.000,180.0,1,0
98747,2023-07-14T18:00:00+00:00,2023-07-15T02:00:00+08:00,AAXX 14181 98747 42460 31001 10251 20226 30000 40086 56008 81801 333 81816 83075==,1.000,100.0,1,0
98747,2023-07-14T21:00:00+00:00,2023-07-15T05:00:00+08:00,AAXX 14211 98747 41465 61302 10255 20222 39990 40075 55010 70512 81870 333 81816 86358==,2.000,130.0,1,0
98747,2023-07-15T03:00:00+00:00,2023-07-15T11:00:00+08:00,AAXX 15031 98747 41470 72405 10318 20255 39991 40077 58008 70544 82231 333 82816 86358==,5.000,240.0,1,0
98747,2023-07-15T06:00:00+00:00,2023-07-15T14:00:00+08:00,AAXX 15061 98747 41470 72306 10332 20230 39974 40060 57017 70544 83970 333 82816 85358 81915==,6.000,230.0,1,0
98747,2023-07-15T09:00:00+00:00,2023-07-15T17:00:00+08:00,AAXX 15091 98747 41470 72302 10313 20227 39972 40058 55002 70544 83970 333 87358 81915==,2.000,230.0,1,0
98747,2023-07-15T12:00:00+00:00,2023-07-15T20:00:00+08:00,AAXX 15121 98747 41470 72202 10283 20251 39998 40084 51026 70244 8287/ 333 10332 58000 82816 88358==,2.000,220.0,1,0
98747,2023-07-15T15:00:00+00:00,2023-07-15T23:00:00+08:00,AAXX 15151 98747 41460 81802 10262 20247 30006 40092 51008 72582 8397/ 333 82816 88358 81915==,2.000,180.0,1,0
98747,2023-07-15T18:00:00+00:00,2023-07-16T02:00:00+08:00,AAXX 15181 98747 12460 82401 10254 20235 39988 40074 58018 69941 8387/ 333 83816 88358==,1.000,240.0,1,0
98747,2023-07-15T21:00:00+00:00,2023-07-16T05:00:00+08:00,AAXX 15211 98747 41465 51901 10245 20231 39984 40070 55004 70522 82830 333 82816 85358==,1.000,190.0,1,0
98747,2023-07-16T03:00:00+00:00,2023-07-16T11:00:00+08:00,AAXX 16031 98747 41470 82205 10311 20236 30005 40091 50006 70544 8287/ 333 82816 88358==,5.000,220.0,1,0
98747,2023-07-16T09:00:00+00:00,2023-07-16T17:00:00+08:00,AAXX 16091 98747 41470 70901 10293 20249 39978 40064 56008 70544 82870 333 82816 87358==,1.000,90.0,1,0
98747,2023-07-16T12:00:00+00:00,2023-07-16T20:00:00+08:00,AAXX 16121 98747 41460 81601 10277 20256 30005 40091 53027 70344 8287/ 333 10311 58007 82816 88358==,1.000,160.0,1,0
98747,2023-07-17T15:00:00+00:00,2023-07-17T23:00:00+08:00,AAXX 17151 98747 42460 81201 10262 20246 30021 40107 51008 8287/ 333 82816 88358==,1.000,120.0,1,0
98747,2023-07-17T18:00:00+00:00,2023-07-18T02:00:00+08:00,AAXX 17181 98747 42460 81801 10260 20232 30011 40097 58010 8287/ 333 82816 88358==,1.000,180.0,1,0
98747,2023-07-17T21:00:00+00:00,2023-07-18T05:00:00+08:00,AAXX 17211 98747 42460 82101 10260 20230 30008 40095 56002 8287/ 333 82816 88358==,1.000,210.0,1,0
98747,2023-07-18T09:00:00+00:00,2023-07-18T17:00:00+08:00,AAXX 18091 98747 41460 83001 10288 20234 30002 40088 58004 70544 8287/ 333 82816 88358==,1.000,300.0,1,0
98747,2023-07-18T12:00:00+00:00,2023-07-18T20:00:00+08:00,AAXX 18121 98747 11460 82101 10260 20246 30007 40093 52005 60001 78082 8297/ 333 10303 59006 88358 82915==,1.000,210.0,1,0
98747,2023-07-18T15:00:00+00:00,2023-07-18T23:00:00+08:00,AAXX 18151 98747 41460 81901 10250 20236 30014 40100 51007 78082 8297/ 333 88358 82915==,1.000,190.0,1,0
98747,2023-07-18T18:00:00+00:00,2023-07-19T02:00:00+08:00,AAXX 18181 98747 11460 81501 10240 20226 39999 40085 58015 60101 72586 8287/ 333 82816 88358==,1.000,150.0,1,0
98747,2023-07-18T21:00:00+00:00,2023-07-19T05:00:00+08:00,AAXX 18211 98747 42460 81501 10248 20231 30000 40086 56001 8287/ 333 82816 88358==,1.000,150.0,1,0
98747,2023-07-19T03:00:00+00:00,2023-07-19T11:00:00+08:00,AAXX 19031 98747 41460 81801 10256 20241 30010 40086 58008 76166 8262/ 333 82715 88457==,1.000,180.0,1,0
98747,2023-07-19T06:00:00+00:00,2023-07-19T14:00:00+08:00,AAXX 19061 98747 11450 81201 10274 20250 39991 40077 58019 60021 76166 8262/ 333 82715 88457==,1.000,120.0,1,0
98747,2023-07-19T09:00:00+00:00,2023-07-19T17:00:00+08:00,AAXX 19091 98747 41450 72701 10276 20242 39990 40076 55001 78086 82920 333 87457 82915==,1.000,270.0,1,0
98747,2023-07-19T12:00:00+00:00,2023-07-19T20:00:00+08:00,AAXX 19121 98747 11450 72101 10258 20244 30001 40087 50000 60001 70286 82870 333 10280 59006 87358 82915==,1.000,210.0,1,0
98747,2023-07-19T15:00:00+00:00,2023-07-19T23:00:00+08:00,AAXX 19151 98747 42460 62602 10253 20234 30005 40091 53004 82870 333 82816 86358==,2.000,260.0,1,0
98747,2023-07-19T21:00:00+00:00,2023-07-20T05:00:00+08:00,AAXX 19211 98747 42460 51701 10245 20228 39987 40073 53001 82870 333 82816 85358==,1.000,170.0,1,0
98747,2023-07-20T03:00:00+00:00,2023-07-20T11:00:00+08:00,AAXX 20031 98747 41470 33102 10300 20253 39993 40079 58006 70544 82271 333 82816 83358==,2.000,310.0,1,0
98747,2023-07-20T06:00:00+00:00,2023-07-20T14:00:00+08:00,AAXX 20061 98747 41470 33005 10309 20245 39975 40061 56018 70544 82271 333 82816==,5.000,300.0,1,0
98747,2023-07-20T09:00:00+00:00,2023-07-20T17:00:00+08:00,AAXX 20091 98747 41470 62702 10288 20253 39982 40068 53007 70544 83971 333 82816 86358 81915==,2.000,270.0,1,0
98747,2023-07-20T12:00:00+00:00,2023-07-20T20:00:00+08:00,AAXX 20121 98747 41460 72301 10277 20236 30001 40087 52019 70244 83970 333 10312 58000 82816 87358 81915==,1.000,230.0,1,0
98747,2023-07-20T15:00:00+00:00,2023-07-20T23:00:00+08:00,AAXX 20151 98747 42460 51501 10265 20247 30011 40097 52010 82870 333 82816 85358==,1.000,150.0,1,0
98747,2023-07-20T18:00:00+00:00,2023-07-21T02:00:00+08:00,AAXX 20181 98747 42460 81801 10257 20238 30004 40090 55007 8287/ 333 82816 88358==,1.000,180.0,1,0
98747,2023-07-21T03:00:00+00:00,2023-07-21T11:00:00+08:00,AAXX 21031 98747 01470 83402 10297 20244 30014 40100 50001 70544 82807 333 10280 20240 40103 58004 70222 82816 88272 83358 86080==,2.000,340.0,1,0
98747,2023-07-21T06:00:00+00:00,2023-07-21T14:00:00+08:00,AAXX 21061 98747 41470 23102 10313 20242 39992 40079 57021 70544 82201 333 82816==,2.000,310.0,1,0
98747,2023-07-21T09:00:00+00:00,2023-07-21T17:00:00+08:00,AAXX 21091 98747 41470 53003 10294 20249 39999 40085 53006 70544 83970 333 81816 84358 82915==,3.000,300.0,1,0
98747,2023-07-21T12:00:00+00:00,2023-07-21T20:00:00+08:00,AAXX 21121 98747 11460 83101 10264 20246 30023 40109 53024 60031 78022 8497/ 333 10316 58022 88358 82915==,1.000,310.0,1,0
98747,2023-07-21T15:00:00+00:00,2023-07-21T23:00:00+08:00,AAXX 21151 98747 41460 82201 10244 20236 30034 40120 51011 79598 8392/ 333 83815 88458==,1.000,220.0,1,0
98747,2023-07-21T18:00:00+00:00,2023-07-22T02:00:00+08:00,AAXX 21181 98747 11460 61402 10245 20239 30021 40107 58013 60361 70198 82978 333 81816 85272 81915==,2.000,140.0,1,0
98747,2023-07-21T21:00:00+00:00,2023-07-22T05:00:00+08:00,AAXX 21211 98747 41465 51801 10242 20236 30020 40106 55001 70522 82871 333 82816 84358==,1.000,180.0,1,0
98747,2023-07-22T06:00:00+00:00,2023-07-22T14:00:00+08:00,AAXX 22061 98747 11470 62704 10297 20251 30015 40079 57021 69981 70584 82932 333 83358 85075 82915==,4.000,270.0,1,0
98747,2023-07-22T09:00:00+00:00,2023-07-22T17:00:00+08:00,AAXX 22091 98747 41470 42703 10290 20250 30012 40098 55003 70544 82932 333 83075 81915==,3.000,270.0,1,0
98747,2023-07-22T12:00:00+00:00,2023-07-22T20:00:00+08:00,AAXX 22121 98747 41460 62101 10267 20242 30031 40117 51019 70344 82879 333 10303 58008 82816 86358==,1.000,210.0,1,0
98747,2023-07-22T15:00:00+00:00,2023-07-22T23:00:00+08:00,AAXX 22151 98747 42460 83601 10262 20246 30035 40121 53004 8287/ 333 82815 88358==,1.000,360.0,1,0
98747,2023-07-22T18:00:00+00:00,2023-07-23T02:00:00+08:00,AAXX 22181 98747 42460 61802 10257 20239 30016 40102 58019 82870 333 82816 85358==,2.000,180.0,1,0
98747,2023-07-22T21:00:00+00:00,2023-07-23T05:00:00+08:00,AAXX 22211 98747 41465 81702 10254 20230 30008 40094 55008 70522 8287/ 333 82816 88358==,2.000,170.0,1,0
98747,2023-07-23T03:00:00+00:00,2023-07-23T11:00:00+08:00,AAXX 23031 98747 41470 82302 10300 20245 30009 40095 58006 70544 8287/ 333 82816 88358==,2.000,230.0,1,0
98747,2023-07-23T06:00:00+00:00,2023-07-23T14:00:00+08:00,AAXX 23061 98747 41470 82403 10297 20248 39990 40076 58019 70544 8287/ 333 82816 88358==,3.000,240.0,1,0
98747,2023-07-23T09:00:00+00:00,2023-07-23T17:00:00+08:00,AAXX 23091 98747 41470 82201 10287 20247 39991 40077 53001 70584 8287/ 333 82816 88358==,1.000,220.0,1,0
98747,2023-07-23T12:00:00+00:00,2023-07-23T20:00:00+08:00,AAXX 23121 98747 11460 82001 10270 20250 39995 40081 53004 69911 71384 8397/ 333 10303 59036 88358 81915==,1.000,200.0,1,0
98747,2023-07-24T15:00:00+00:00,2023-07-24T23:00:00+08:00,AAXX 24151 98747 42460 81901 10280 20225 39995 40081 51004 8287/ 333 82816 88358==,1.000,190.0,1,0
98747,2023-07-25T09:00:00+00:00,2023-07-25T17:00:00+08:00,AAXX 25091 98747 41460 52101 10290 20236 39984 40070 53005 70544 82870 333 82816 85358==,1.000,210.0,1,0
98747,2023-07-25T12:00:00+00:00,2023-07-25T20:00:00+08:00,AAXX 25121 98747 42460 41801 10280 20234 30003 40089 52019 82870 333 10330 59012 82816 84358==,1.000,180.0,1,0
98747,2023-07-25T15:00:00+00:00,2023-07-25T23:00:00+08:00,AAXX 25151 98747 42460 81501 10260 20224 30011 40097 51008 8287/ 333 82816 88358==,1.000,150.0,1,0
98747,2023-07-25T18:00:00+00:00,2023-07-26T02:00:00+08:00,AAXX 25181 98747 42460 81401 10260 20224 39997 40083 58014 8287/ 333 82816 88358==,1.000,140.0,1,0
98747,2023-07-25T21:00:00+00:00,2023-07-26T05:00:00+08:00,AAXX 25211 98747 42460 41401 10246 20221 30001 40087 53004 82870 333 82816 84358==,1.000,140.0,1,0
98747,2023-07-26T00:00:00+00:00,2023-07-26T08:00:00+08:00,AAXX 26001 98747 41475 32201 10290 20239 30009 40095 52008 70544 82201 333 20242 58013 82816==,1.000,220.0,1,0
98747,2023-07-26T03:00:00+00:00,2023-07-26T11:00:00+08:00,AAXX 26031 98747 41470 52201 10330 20226 30001 40087 58008 70544 82231 333 82816 84358==,1.000,220.0,1,0
98747,2023-07-26T06:00:00+00:00,2023-07-26T14:00:00+08:00,AAXX 26061 98747 41470 61901 10326 20240 39986 40072 58015 70544 82870 333 82816 86358==,1.000,190.0,1,0
98747,2023-07-26T12:00:00+00:00,2023-07-26T20:00:00+08:00,AAXX 26121 98747 11460 72201 10275 20245 30015 40101 53019 60001 70384 83970 333 10342 58012 82816 87358 81915==,1.000,220.0,1,0
98747,2023-07-26T15:00:00+00:00,2023-07-26T23:00:00+08:00,AAXX 26151 98747 42460 61702 10273 20253 30019 40105 50004 82870 333 82816 86358==,2.000,170.0,1,0
98747,2023-07-26T18:00:00+00:00,2023-07-27T02:00:00+08:00,AAXX 26181 98747 42460 51501 10267 20234 39999 40085 58020 82870 333 82816 85358==,1.000,150.0,1,0
98747,2023-07-26T21:00:00+00:00,2023-07-27T05:00:00+08:00,AAXX 26211 98747 42460 33401 10251 20233 30004 40090 53005 82870 333 82816 83358==,1.000,340.0,1,0
98747,2023-07-27T03:00:00+00:00,2023-07-27T11:00:00+08:00,AAXX 27031 98747 41470 31003 10323 20245 30005 40091 58016 70544 82250 333 82816 83075==,3.000,100.0,1,0
98747,2023-07-27T09:00:00+00:00,2023-07-27T17:00:00+08:00,AAXX 27091 98747 41470 72302 10313 20229 39987 40073 55001 70544 83970 333 82816 87358 81915==,2.000,230.0,1,0
98747,2023-07-27T12:00:00+00:00,2023-07-27T20:00:00+08:00,AAXX 27121 98747 41460 82201 10297 20229 30012 40098 51025 70244 8397/ 333 10335 58003 82816 88358 81915==,1.000,220.0,1,0
98747,2023-07-27T15:00:00+00:00,2023-07-27T23:00:00+08:00,AAXX 27151 98747 42460 81601 10274 20237 30016 40102 50004 8397/ 333 82816 88358 81915==,1.000,160.0,1,0
98747,2023-07-27T18:00:00+00:00,2023-07-28T02:00:00+08:00,AAXX 27181 98747 42460 81601 10265 20235 30001 40087 58015 8287/ 333 82816 88358==,1.000,160.0,1,0
98747,2023-07-27T21:00:00+00:00,2023-07-28T05:00:00+08:00,AAXX 27211 98747 42460 80101 10257 20242 30001 40087 54000 8287/ 333 82816 88358==,1.000,10.0,1,0
98747,2023-07-28T03:00:00+00:00,2023-07-28T11:00:00+08:00,AAXX 28031 98747 41470 82802 10305 20252 30005 40091 56010 70584 8287/ 333 82816 88358==,2.000,280.0,1,0
98747,2023-07-28T06:00:00+00:00,2023-07-28T14:00:00+08:00,AAXX 28061 98747 11470 82501 10307 20260 39989 40075 56016 60001 70584 8287/ 333 82816 88358==,1.000,250.0,1,0
98747,2023-07-28T09:00:00+00:00,2023-07-28T17:00:00+08:00,AAXX 28091 98747 41470 82502 10283 20231 39995 40081 53006 70544 8287/ 333 82816 88358==,2.000,250.0,1,0
98747,2023-07-28T12:00:00+00:00,2023-07-28T20:00:00+08:00,AAXX 28121 98747 11460 82001 10267 20240 30016 40102 53006 60001 70284 8287/ 333 10316 58004 82816 88358==,1.000,200.0,1,0
98747,2023-07-28T15:00:00+00:00,2023-07-28T23:00:00+08:00,AAXX 28151 98747 42460 81501 10265 20226 30013 40099 58003 8287/ 333 82816 88358==,1.000,150.0,1,0
98747,2023-07-28T18:00:00+00:00,2023-07-29T02:00:00+08:00,AAXX 28181 98747 42460 81701 10257 20235 30000 40086 57013 8287/ 333 82816 88358==,1.000,170.0,1,0
98747,2023-07-28T21:00:00+00:00,2023-07-29T05:00:00+08:00,AAXX 28211 98747 42460 82201 10250 20232 30002 40088 53002 8287/ 333 82816 88358==,1.000,220.0,1,0
98747,2023-07-29T03:00:00+00:00,2023-07-29T11:00:00+08:00,AAXX 29031 98747 41470 63003 10307 20245 30007 40093 58009 70544 82238 333 82816 86272==,3.000,300.0,1,0
98747,2023-07-29T06:00:00+00:00,2023-07-29T14:00:00+08:00,AAXX 29061 98747 41470 82102 10313 20247 39998 40084 57009 70544 8227/ 333 82816 86272==,2.000,210.0,1,0
98747,2023-07-29T09:00:00+00:00,2023-07-29T17:00:00+08:00,AAXX 29091 98747 41468 82403 10294 20240 39992 40078 56006 70544 8221/ 333 82816 88458==,3.000,240.0,1,0
98747,2023-07-29T12:00:00+00:00,2023-07-29T20:00:00+08:00,AAXX 29121 98747 41460 82302 10277 20241 30013 40099 52021 70244 82878 333 10324 59003 82816 83358 88272==,2.000,230.0,1,0
98747,2023-07-29T15:00:00+00:00,2023-07-29T23:00:00+08:00,AAXX 29151 98747 42460 81802 10270 20240 30012 40098 58001 82877 333 82816 88272==,2.000,180.0,1,0
98747,2023-07-29T21:00:00+00:00,2023-07-30T05:00:00+08:00,AAXX 29211 98747 41460 62602 10257 20225 30006 40092 53006 70522 81838 333 81816 83358 85272==,2.000,260.0,1,0
98747,2023-07-30T03:00:00+00:00,2023-07-30T11:00:00+08:00,AAXX 30031 98747 41470 43402 10313 20254 30013 40099 58010 70544 82271 333 82816 84358==,2.000,340.0,1,0
98747,2023-07-30T09:00:00+00:00,2023-07-30T17:00:00+08:00,AAXX 30091 98747 41470 62702 10302 20253 39995 40081 55001 70544 82878 333 82816 86358==,2.000,270.0,1,0
98747,2023-07-30T18:00:00+00:00,2023-07-31T02:00:00+08:00,AAXX 30181 98747 42460 31601 10250 20230 30007 40093 58018 82801 333 82816 83075==,1.000,160.0,1,0
98747,2023-07-30T21:00:00+00:00,2023-07-31T05:00:00+08:00,AAXX 30211 98747 42460 31401 10239 20223 30007 40093 55000 82870 333 82816 83358==,1.000,140.0,1,0
98747,2023-07-31T00:00:00+00:00,2023-07-31T08:00:00+08:00,AAXX 31001 98747 41470 33301 10286 20240 30020 40106 52013 70544 82201 333 20238 59003 82816 83075==,1.000,330.0,1,0
98747,2023-07-31T03:00:00+00:00,2023-07-31T11:00:00+08:00,AAXX 31031 98747 41475 22101 10310 20258 30019 40105 58001 70544 81201 333 81816==,1.000,210.0,1,0
98747,2023-07-31T06:00:00+00:00,2023-07-31T14:00:00+08:00,AAXX 31061 98747 41470 32704 10324 20253 39999 40085 58020 70544 82901 333 83075 81915==,4.000,270.0,1,0
98747,2023-07-31T09:00:00+00:00,2023-07-31T17:00:00+08:00,AAXX 31091 98747 41470 32102 10320 20243 39996 40082 56003 70544 82201 333 82816 83075==,2.000,210.0,1,0
98747,2023-07-31T12:00:00+00:00,2023-07-31T20:00:00+08:00,AAXX 31121 98747 42460 42201 10282 20261 30012 40098 52016 82870 333 10330 59004 82816 84358==,1.000,220.0,1,0
98747,2023-07-31T15:00:00+00:00,2023-07-31T23:00:00+08:00,AAXX 31151 98747 42460 32201 10270 20246 30021 40107 51009 82201 333 82816 83075==,1.000,220.0,1,0
98747,2023-07-31T18:00:00+00:00,2023-08-01T02:00:00+08:00,AAXX 31181 98747 42460 22101 10250 20230 30006 40092 58015 81201 333 81816==,1.000,210.0,1,0
98747,2023-07-31T21:00:00+00:00,2023-08-01T05:00:00+08:00,AAXX 31211 98747 42460 22101 10242 20225 30003 40089 56003 81201 333 81816==,1.000,210.0,1,0
