98741,2023,01,01,00,00,AAXX 01001 98741 11464 61801 10262 20246 30121 40125 52014 60394 70162 82270 333 20240 59003 70390 82818 86358==
98741,2023,01,01,03,00,AAXX 01031 98741 42464 70703 10296 20249 30112 40116 58009 82270 333 82818 87358==
98741,2023,01,01,06,00,AAXX 01061 98741 42464 80703 10320 20246 30088 40092 57024 8227/ 333 82818 88458==
98741,2023,01,01,09,00,AAXX 01091 98741 41462 80902 10274 20253 30099 40103 53011 72522 8327/ 333 83815 88458==
98741,2023,01,01,12,00,AAXX 01121 98741 11459 80402 10265 20237 30111 40115 51012 69911 76086 8252/ 333 10324 59002 82615 88458==
98741,2023,01,01,15,00,AAXX 01151 98741 41460 80702 10263 20239 30112 40116 50001 70262 8251/ 333 82615 88458==
98741,2023,01,01,18,00,AAXX 01181 98741 11460 80703 10268 20236 30100 40104 58012 60001 70362 8621/ 333 86816 88458==
98741,2023,01,01,21,00,AAXX 01211 98741 42460 40702 10261 20233 30093 40097 55007 81530 333 81615 84360==
98741,2023,01,02,00,00,AAXX 02001 98741 12464 70702 10276 20244 30106 40110 52013 69914 82270 333 20254 59015 70001 82818 87358==
98741,2023,01,02,03,00,AAXX 02031 98741 42464 70403 10290 20242 30105 40109 58001 82270 333 82818 87358==
98741,2023,01,02,06,00,AAXX 02061 98741 32464 60703 10310 20235 30079 40083 57026 82270 333 56190 82818 86358=
98741,2023,01,02,09,00,AAXX 02091 98741 21459 70702 10272 20245 30079 40083 55000 76086 84370 333 56190 69997 81917 83818 87457=
98741,2023,01,02,12,00,AAXX 02121 98741 11460 81801 10260 20247 30101 40105 52022 60011 72186 8227/ 333 10312 59010 82818 88457==
98741,2023,01,02,15,00,AAXX 02151 98741 21458 81601 10253 20245 30105 40109 55004 76162 8392/ 333 56999 60067 81915 83617 88457=
98741,2023,01,02,18,00,AAXX 02181 98741 11457 80000 10239 20234 30091 40095 58014 60161 76362 8352/ 333 83617 88457==
98741,2023,01,02,21,00,AAXX 02211 98741 21457 80000 10235 20231 30083 40087 55008 76166 8352/ 333 56199 60067 83617 88457=
98741,2023,01,03,00,00,AAXX 03001 98741 11462 70701 10260 20241 30095 40099 52012 60234 70562 82270 333 20232 59011 70230 82818 87358==
98741,2023,01,03,03,00,AAXX 03031 98741 41462 70402 10274 20242 30096 40100 51001 72582 82270 333 82818 87358==
98741,2023,01,03,06,00,AAXX 03061 98741 11440 80401 10276 20241 30069 40073 58027 60111 76586 8352/ 333 56999 83617 88457=
98741,2023,01,03,12,00,AAXX 03121 98741 11420 80902 10250 20246 30091 40095 52021 60941 76566 8322/ 333 10292 59010 83817 88457==
98741,2023,01,03,15,00,AAXX 03151 98741 41440 80000 10247 20245 30095 40099 50004 76366 8352/ 333 83617 88457==
98741,2023,01,03,18,00,AAXX 03181 98741 11456 80201 10247 20243 30081 40085 58014 60381 79596 8392/ 333 83617 88457 81915==
98741,2023,01,03,21,00,AAXX 03211 98741 21460 81101 10246 20244 30078 40082 55003 70262 8361/ 333 56999 69927 83615 88457=
98741,2023,01,04,00,00,AAXX 04001 98741 11457 80000 10254 20246 30097 40101 52019 61494 76066 8352/ 333 20242 58002 71490 83617 88457==
98741,2023,01,04,03,00,AAXX 04031 98741 41459 80703 10284 20244 30095 40099 58002 76066 8352/ 333 83617 88457==
98741,2023,01,04,06,00,AAXX 04061 98741 11458 80902 10277 20252 30078 40082 57017 69981 76066 8352/ 333 83617 88457==
98741,2023,01,04,12,00,AAXX 04121 98741 11457 83601 10251 20243 30100 40104 53014 60071 76166 8252/ 333 10285 58009 82615 88457==
98741,2023,01,04,18,00,AAXX 04181 98741 11462 50000 10241 20236 30084 40088 57015 60001 70162 81570 333 81617 85359==
98741,2023,01,05,00,00,AAXX 05001 98741 11462 71601 10250 20242 30114 40118 52027 60074 70522 82270 333 20232 58017 70070 82818 87358==
98741,2023,01,05,03,00,AAXX 05031 98741 41462 60403 10304 20246 30110 40114 58004 70522 82270 333 82818 85358==
98741,2023,01,05,06,00,AAXX 05061 98741 31462 50402 10302 20250 30087 40091 57023 71792 83970 333 56990 83917 84358=
98741,2023,01,05,12,00,AAXX 05121 98741 11459 71401 10258 20239 30114 40118 52021 69911 78098 82970 333 10302 58014 87358 82917==
98741,2023,01,05,15,00,AAXX 05151 98741 41458 82201 10254 20241 30120 40124 50006 79198 8552/ 333 85617 88458==
98741,2023,01,05,18,00,AAXX 05181 98741 11462 70000 10242 20238 30099 40103 56021 60021 70198 81530 333 56990 81617 87359=
98741,2023,01,05,21,00,AAXX 05211 98741 32462 70000 10241 20236 30103 40107 53004 81570 333 56990 81617 87458=
98741,2023,01,06,00,00,AAXX 06001 98741 11459 61601 10262 20252 30119 40123 52016 60024 78082 82270 333 20235 58005 70020 82818 86358==
98741,2023,01,06,03,00,AAXX 06031 98741 41462 30403 10300 20253 30115 40119 58004 70582 82270 333 82818==
98741,2023,01,06,06,00,AAXX 06061 98741 11462 50403 10312 20258 30089 40093 57026 60001 70582 82270 333 82818 84358==
98741,2023,01,06,12,00,AAXX 06121 98741 42462 72001 10272 20252 30118 40122 52024 82270 333 10318 58004 82818 87358==
98741,2023,01,06,15,00,AAXX 06151 98741 42462 80901 10266 20258 30123 40127 50005 84207 333 84818 88275==
98741,2023,01,06,18,00,AAXX 06181 98741 11462 80703 10269 20267 30104 40108 57019 60001 70382 8521/ 333 85818 88459==
98741,2023,01,07,03,00,AAXX 07031 98741 41464 80902 10287 20254 30112 40116 58001 70282 8327/ 333 83818 88458==
98741,2023,01,07,06,00,AAXX 07061 98741 11464 80703 10296 20254 30095 40099 57017 60001 70282 8327/ 333 83818 88458==
98741,2023,01,07,12,00,AAXX 07121 98741 11462 80701 10269 20233 30107 40111 53016 60001 70262 8351/ 333 10304 59011 83618 88458==
98741,2023,01,07,15,00,AAXX 07151 98741 41462 80701 10254 20243 30118 40122 51011 72122 8551/ 333 85618 88458==
98741,2023,01,08,00,00,AAXX 08001 98741 11440 80704 10236 20216 30141 40145 52035 60084 76366 8352/ 333 20230 58028 70080 83617 88457==
98741,2023,01,08,03,00,AAXX 08031 98741 41462 80702 10250 20217 30141 40145 50000 72166 8227/ 333 82818 88458==
98741,2023,01,08,06,00,AAXX 08061 98741 11464 70703 10282 20228 30110 40114 57031 60061 70162 82270 333 82818 87358==
98741,2023,01,08,12,00,AAXX 08121 98741 11462 81101 10250 20220 30125 40129 53018 60001 76062 8251/ 333 10285 58018 82618 88458==
98741,2023,01,08,15,00,AAXX 08151 98741 41462 80901 10249 20223 30129 40133 50004 70262 8351/ 333 83617 88458==
98741,2023,01,08,18,00,AAXX 08181 98741 11462 81101 10250 20232 30113 40117 58016 60001 70262 8251/ 333 82617 88458==
98741,2023,01,09,00,00,AAXX 09001 98741 11460 80901 10258 20245 30119 40123 52006 60074 72586 8327/ 333 20235 59022 70070 83818 88458==
98741,2023,01,09,03,00,AAXX 09031 98741 41462 80403 10288 20242 30120 40124 51001 70522 8227/ 333 82818 88458==
98741,2023,01,09,06,00,AAXX 09061 98741 11462 80701 10286 20260 30096 40100 57024 69921 70582 8227/ 333 82818 88458==
98741,2023,01,09,12,00,AAXX 09121 98741 11464 80000 10253 20242 30113 40117 52016 60031 72582 8257/ 333 10295 59012 82618 88458==
98741,2023,01,09,15,00,AAXX 09151 98741 41457 81401 10251 20246 30109 40113 58004 76066 8352/ 333 83617 88458==
98741,2023,01,09,18,00,AAXX 09181 98741 11459 81801 10249 20242 30091 40095 57018 60041 76166 8352/ 333 83617 88458==
98741,2023,01,09,21,00,AAXX 09211 98741 41458 80000 10248 20241 30095 40099 53004 76166 8352/ 333 83617 88458==
98741,2023,01,10,00,00,AAXX 10001 98741 11458 80702 10256 20240 30106 40110 52011 60114 76166 8352/ 333 20244 59013 70110 83617 88457==
98741,2023,01,10,03,00,AAXX 10031 98741 41460 80702 10280 20243 30098 40102 58008 70562 8327/ 333 83818 88458==
98741,2023,01,10,06,00,AAXX 10061 98741 11460 80202 10288 20243 30071 40075 57027 60021 70286 8227/ 333 56999 82818 88458=
98741,2023,01,10,12,00,AAXX 10121 98741 11458 80701 10250 20241 30101 40105 52024 60081 76186 8352/ 333 10299 59012 83617 88458==
98741,2023,01,10,15,00,AAXX 10151 98741 41458 80901 10252 20243 30100 40104 58001 76166 8452/ 333 84615 88457==
98741,2023,01,10,18,00,AAXX 10181 98741 11457 80000 10242 20238 30082 40086 57018 60061 76366 8552/ 333 85617 88457==
98741,2023,01,11,00,00,AAXX 11001 98741 11459 80203 10262 20240 30097 40101 52017 60234 72162 8327/ 333 20238 59009 70230 83818 88458==
98741,2023,01,11,03,00,AAXX 11031 98741 41458 80203 10258 20239 30097 40101 50000 76086 8352/ 333 83617 88457==
98741,2023,01,11,06,00,AAXX 11061 98741 11459 80202 10258 20239 30070 40074 57027 60061 76186 8352/ 333 56999 83617 88457 91109=
98741,2023,01,11,12,00,AAXX 11121 98741 11420 80207 10241 20236 30093 40097 52017 60471 76566 8552/ 333 10269 59008 85616 88457==
98741,2023,01,11,15,00,AAXX 11151 98741 21415 83606 10238 20236 30098 40102 50005 76566 8652/ 333 56999 60507 86615 88557 91009 91111=
98741,2023,01,11,18,00,AAXX 11181 98741 11430 80202 10242 20234 30081 40085 58017 61051 76366 8652/ 333 86615 88557==
98741,2023,01,11,21,00,AAXX 11211 98741 21430 83601 10239 20235 30088 40092 53007 76366 8652/ 333 56999 60167 86615 88557=
98741,2023,01,12,00,00,AAXX 12001 98741 11430 80705 10246 20235 30109 40113 52021 61854 76366 8652/ 333 20230 58012 71850 86615 88557==
98741,2023,01,12,03,00,AAXX 12031 98741 41457 80203 10248 20240 30104 40108 58005 76166 8652/ 333 86615 88557==
98741,2023,01,12,06,00,AAXX 12061 98741 11460 80402 10272 20243 30073 40077 57031 60051 72162 8357/ 333 83617 88458==
98741,2023,01,12,12,00,AAXX 12121 98741 11460 80402 10256 20240 30090 40094 52014 60021 72582 8227/ 333 10276 59003 82818 88458==
98741,2023,01,12,15,00,AAXX 12151 98741 41458 80203 10258 20253 30087 40091 58003 70262 8252/ 333 82618 88458==
98741,2023,01,12,18,00,AAXX 12181 98741 11460 80402 10257 20250 30072 40076 58015 69911 70262 8351/ 333 83618 88458==
98741,2023,01,13,00,00,AAXX 13001 98741 11459 82201 10252 20247 30088 40092 52015 60084 78086 8327/ 333 20245 59021 70080 83818 88458==
98741,2023,01,13,03,00,AAXX 13031 98741 41458 82501 10265 20253 30085 40089 58003 76066 8352/ 333 83617 88457==
98741,2023,01,13,06,00,AAXX 13061 98741 11459 80201 10267 20247 30063 40067 57022 60051 76062 8457/ 333 84618 88458==
98741,2023,01,13,12,00,AAXX 13121 98741 11462 82201 10249 20241 30081 40085 52018 60001 70262 8257/ 333 10272 59009 82618 88458==
98741,2023,01,13,15,00,AAXX 13151 98741 42462 80401 10251 20238 30078 40082 58003 8521/ 333 85816 88460==
98741,2023,01,14,00,00,AAXX 14001 98741 11457 81401 10250 20238 30072 40076 52015 60064 76186 8352/ 333 20240 59016 70060 83617 88457==
98741,2023,01,14,03,00,AAXX 14031 98741 41462 82501 10271 20248 30072 40076 50000 70562 8327/ 333 83818 88458==
98741,2023,01,14,06,00,AAXX 14061 98741 11462 80204 10284 20247 30048 40052 57024 69961 70562 8327/ 333 83818 88458==
98741,2023,01,14,12,00,AAXX 14121 98741 11458 81401 10252 20237 30072 40076 51015 60031 76086 8352/ 333 10287 59009 83617 88457==
98741,2023,01,14,15,00,AAXX 14151 98741 41460 81101 10243 20238 30072 40076 50000 70262 8271/ 333 82712 88458==
98741,2023,01,14,18,00,AAXX 14181 98741 11458 81401 10241 20238 30059 40063 55013 60031 76162 8552/ 333 85616 88458==
98741,2023,01,15,03,00,AAXX 15031 98741 42464 63402 10304 20240 30074 40078 58004 82230 333 82818 86358==
98741,2023,01,15,12,00,AAXX 15121 98741 42464 60000 10264 20252 30075 40079 52026 83270 333 10320 58003 83818 85359==
98741,2023,01,15,15,00,AAXX 15151 98741 41462 82201 10261 20249 30083 40087 52008 72992 8297/ 333 88458 82917==
98741,2023,01,15,18,00,AAXX 15181 98741 11460 80000 10246 20237 30070 40074 58013 60041 72198 8351/ 333 83617 88458==
98741,2023,01,16,00,00,AAXX 16001 98741 11462 31601 10254 20241 30093 40097 52024 60044 70511 81270 333 20235 58015 70040 81818==
98741,2023,01,16,03,00,AAXX 16031 98741 42464 43601 10310 20255 30093 40097 50000 82271 333 82818==
98741,2023,01,16,06,00,AAXX 16061 98741 11459 71401 10280 20248 30070 40074 57023 69921 79198 82970 333 87358 82917==
98741,2023,01,16,12,00,AAXX 16121 98741 11464 70000 10259 20248 30099 40103 52024 60001 70298 8127/ 333 10318 58024 81818 87358==
98741,2023,01,16,15,00,AAXX 16151 98741 42462 81401 10252 20243 30101 40105 50002 8227/ 333 82818 88458==
98741,2023,01,16,18,00,AAXX 16181 98741 42462 70000 10248 20239 30090 40094 56011 81270 333 81818 87358==
98741,2023,01,17,00,00,AAXX 17001 98741 11462 81402 10258 20245 30111 40115 52020 69924 70522 8227/ 333 20240 58018 70002 82818 88458==
98741,2023,01,17,03,00,AAXX 17031 98741 41462 73601 10298 20256 30108 40112 58003 70522 82270 333 82818 87358==
98741,2023,01,17,06,00,AAXX 17061 98741 41462 60202 10322 20263 30077 40081 57031 70522 82978 333 86275 82917==
98741,2023,01,17,12,00,AAXX 17121 98741 41464 80000 10266 20249 30106 40110 51010 70292 8127/ 333 10323 58007 81818 88458==
98741,2023,01,17,15,00,AAXX 17151 98741 42464 21801 10251 20242 30113 40117 50007 82201 333 82818==
98741,2023,01,17,18,00,AAXX 17181 98741 42464 20000 10247 20239 30099 40103 58014 81201 333 81818==
98741,2023,01,17,21,00,AAXX 17211 98741 21459 80901 10246 20242 30102 40106 53003 79198 8227/ 333 56999 69957 82818 88457=
98741,2023,01,18,00,00,AAXX 18001 98741 11459 61601 10258 20247 30127 40131 52025 60014 78098 82270 333 20240 58016 70010 82818 86358==
98741,2023,01,18,03,00,AAXX 18031 98741 41462 70402 10294 20258 30119 40123 58008 70586 82270 333 82818 87358==
98741,2023,01,18,06,00,AAXX 18061 98741 11462 40402 10320 20255 30085 40089 57034 60011 70586 82271 333 82818 83358==
98741,2023,01,18,12,00,AAXX 18121 98741 42462 61401 10272 20244 30107 40111 51020 82271 333 10325 58001 82818 86358==
98741,2023,01,18,15,00,AAXX 18151 98741 41459 40402 10261 20246 30111 40115 50004 79111 84200 333 84818==
98741,2023,01,18,18,00,AAXX 18181 98741 11462 61401 10246 20241 30094 40098 58017 60221 72598 86500 333 86615==
98741,2023,01,19,00,00,AAXX 19001 98741 11462 30702 10269 20246 30106 40110 52017 60264 72161 82201 333 20242 59021 70260 82818==
98741,2023,01,19,03,00,AAXX 19031 98741 41462 30703 10304 20249 30106 40110 50000 70500 82270 333 82818==
98741,2023,01,19,06,00,AAXX 19061 98741 11462 60701 10288 20258 30081 40085 57025 69941 72581 82270 333 56190 82818 85358=
98741,2023,01,19,15,00,AAXX 19151 98741 42462 50000 10258 20249 30100 40104 58002 82201 333 82818 84080==
98741,2023,01,19,18,00,AAXX 19181 98741 11462 71401 10255 20248 30084 40088 58016 69911 70382 83570 333 83618 86459==
98741,2023,01,20,03,00,AAXX 20031 98741 41462 60704 10314 20245 30096 40100 50000 70511 82270 333 82818 85358==
98741,2023,01,20,06,00,AAXX 20061 98741 11462 70902 10288 20246 30075 40079 57021 60011 72598 82270 333 82818 87358==
98741,2023,01,20,12,00,AAXX 20121 98741 42464 40702 10278 20224 30090 40094 52015 82271 333 10322 59012 82818 83358==
98741,2023,01,20,15,00,AAXX 20151 98741 41462 60703 10271 20238 30091 40095 51001 78081 86200 333 86817==
98741,2023,01,20,18,00,AAXX 20181 98741 11462 70703 10271 20243 30079 40083 58012 69951 70281 83208 333 83815 86275==
98741,2023,01,21,00,00,AAXX 21001 98741 11459 71801 10276 20247 30098 40102 52016 60024 78081 82270 333 20258 58002 70020 82818 87358==
98741,2023,01,21,03,00,AAXX 21031 98741 41462 70203 10296 20243 30096 40100 58002 70582 82270 333 82818 87358==
98741,2023,01,21,06,00,AAXX 21061 98741 11459 70203 10296 20244 30071 40075 57025 69961 78082 82270 333 82818 87358==
98741,2023,01,21,12,00,AAXX 21121 98741 11462 60401 10268 20247 30092 40096 53019 60001 70182 81271 333 10307 58002 81818 85358==
98741,2023,01,21,15,00,AAXX 21151 98741 42462 30000 10257 20248 30097 40101 50005 83200 333 83816==
98741,2023,01,21,18,00,AAXX 21181 98741 11460 70902 10258 20235 30084 40088 56013 60021 70381 85508 333 85615 87275==
98741,2023,01,22,00,00,AAXX 22001 98741 11459 80902 10266 20236 30097 40101 52019 60044 78086 8327/ 333 20243 59001 70040 83818 88458==
98741,2023,01,22,03,00,AAXX 22031 98741 41459 80702 10278 20242 30097 40101 50000 78082 8227/ 333 82818 88458==
98741,2023,01,22,06,00,AAXX 22061 98741 11459 80703 10266 20247 30076 40080 57021 69981 76086 8352/ 333 83617 88457==
98741,2023,01,22,09,00,AAXX 22091 98741 41459 80903 10258 20239 30071 40075 55005 76066 8352/ 333 83617 88457==
98741,2023,01,22,12,00,AAXX 22121 98741 11459 80703 10254 20245 30084 40088 52013 60031 72162 8552/ 333 10282 59008 85615 88458==
98741,2023,01,22,15,00,AAXX 22151 98741 41458 80402 10251 20240 30077 40081 58007 76162 8352/ 333 83617 88457==
98741,2023,01,22,18,00,AAXX 22181 98741 11459 80901 10249 20238 30066 40070 58011 60051 72162 8552/ 333 85615 88458==
98741,2023,01,23,00,00,AAXX 23001 98741 11459 70703 10264 20245 30076 40080 53015 60104 78086 83270 333 20244 59021 70100 83818 87358==
98741,2023,01,23,03,00,AAXX 23031 98741 41462 70403 10294 20254 30079 40083 50003 70582 82270 333 82818 87358==
98741,2023,01,23,06,00,AAXX 23061 98741 11462 80404 10288 20240 30052 40056 57027 69911 70582 8351/ 333 83618 88458==
98741,2023,01,23,12,00,AAXX 23121 98741 11462 80203 10262 20252 30070 40074 52018 60021 72162 8257/ 333 10295 59007 82618 88458==
98741,2023,01,23,15,00,AAXX 23151 98741 42462 80404 10262 20250 30079 40083 51009 8257/ 333 82617 88458==
98741,2023,01,23,18,00,AAXX 23181 98741 11459 80902 10258 20246 30062 40066 58017 60001 76062 8352/ 333 83617 88457==
98741,2023,01,23,21,00,AAXX 23211 98741 21459 80902 10256 20244 30063 40067 55001 76062 8352/ 333 56999 69947 83617 88457=
98741,2023,01,24,00,00,AAXX 24001 98741 11459 70702 10264 20248 30084 40088 52021 60034 70262 82270 333 20250 58008 70030 82818 87358==
98741,2023,01,24,03,00,AAXX 24031 98741 41460 70703 10274 20253 30080 40084 58004 72186 83270 333 83818 87358==
98741,2023,01,24,06,00,AAXX 24061 98741 11462 70703 10288 20257 30059 40063 57021 60011 70586 82270 333 82818 87358==
98741,2023,01,24,12,00,AAXX 24121 98741 11457 80703 10263 20252 30081 40085 52019 60021 76062 8557/ 333 10302 58011 85617 88457==
98741,2023,01,24,18,00,AAXX 24181 98741 11462 50404 10266 20224 30073 40077 58010 69921 70162 82271 333 82818 84358==
98741,2023,01,25,00,00,AAXX 25001 98741 11462 70703 10270 20221 30092 40096 52018 60034 70522 82270 333 20251 58008 70030 82818 87358==
98741,2023,01,25,03,00,AAXX 25031 98741 41462 60703 10296 20234 30092 40096 50000 70522 82270 333 82818 85358==
98741,2023,01,25,06,00,AAXX 25061 98741 41462 60702 10298 20234 30066 40070 57026 70522 82270 333 82818 86358==
98741,2023,01,25,12,00,AAXX 25121 98741 42462 60402 10270 20227 30081 40085 52015 81271 333 10308 58000 81818 85358==
98741,2023,01,25,15,00,AAXX 25151 98741 42462 80404 10268 20222 30084 40088 50003 8227/ 333 82818 88458==
98741,2023,01,25,18,00,AAXX 25181 98741 42462 80401 10263 20218 30074 40078 57010 8227/ 333 82818 88458==
98741,2023,01,26,00,00,AAXX 26001 98741 11458 80702 10248 20232 30096 40100 52023 60024 76186 8352/ 333 20244 58004 70020 83617 88457==
98741,2023,01,26,03,00,AAXX 26031 98741 41458 82701 10260 20244 30090 40094 58006 76166 8352/ 333 83617 88457==
98741,2023,01,26,06,00,AAXX 26061 98741 11460 70202 10282 20242 30063 40067 57027 60031 70162 82270 333 82818 87358==
98741,2023,01,26,09,00,AAXX 26091 98741 21458 80402 10256 20243 30068 40072 53005 76166 8352/ 333 56999 60057 83617 88457=
98741,2023,01,26,12,00,AAXX 26121 98741 11459 80401 10256 20243 30085 40089 52017 60051 76162 8352/ 333 10290 58004 83617 88457==
98741,2023,01,26,15,00,AAXX 26151 98741 41462 81401 10251 20242 30085 40089 50000 70262 8327/ 333 83818 88458==
98741,2023,01,26,18,00,AAXX 26181 98741 11462 60901 10250 20238 30069 40073 58016 69921 70162 82271 333 82818 85358==
98741,2023,01,27,00,00,AAXX 27001 98741 11462 72001 10256 20243 30093 40097 52021 60084 70582 82270 333 20245 59003 70080 82818 87358==
98741,2023,01,27,03,00,AAXX 27031 98741 41462 53202 10290 20259 30085 40089 58008 70522 82270 333 82818 84358==
98741,2023,01,27,06,00,AAXX 27061 98741 41462 50203 10318 20256 30051 40055 57034 70522 82270 333 82818 84358==
98741,2023,01,27,12,00,AAXX 27121 98741 42462 41401 10253 20227 30077 40081 52015 82271 333 10319 59008 82818 83358==
98741,2023,01,27,15,00,AAXX 27151 98741 42462 80901 10248 20233 30078 40082 50001 8227/ 333 82818 88458==
98741,2023,01,27,18,00,AAXX 27181 98741 11460 81801 10248 20239 30059 40063 58019 60081 72186 8351/ 333 83618 88458==
98741,2023,01,28,00,00,AAXX 28001 98741 11459 71801 10258 20245 30083 40087 52022 60094 78082 83270 333 20240 59010 70090 83818 87358==
98741,2023,01,28,03,00,AAXX 28031 98741 41464 70402 10292 20250 30076 40080 58007 70386 82278 333 82818 87275==
98741,2023,01,28,06,00,AAXX 28061 98741 11464 50404 10314 20244 30051 40055 57025 60021 70186 82278 333 82818 84275==
98741,2023,01,28,09,00,AAXX 28091 98741 32464 30402 10304 20233 30053 40057 53002 82271 333 56999 82818=
98741,2023,01,28,12,00,AAXX 28121 98741 42462 70000 10265 20244 30083 40087 51030 82270 333 10316 58006 82818 87358==
98741,2023,01,28,15,00,AAXX 28151 98741 42462 70401 10260 20244 30083 40087 50000 82270 333 82818 87358==
98741,2023,01,28,18,00,AAXX 28181 98741 11460 80402 10262 20242 30067 40071 58016 69911 72582 8227/ 333 82818 88458==
98741,2023,01,29,00,00,AAXX 29001 98741 11462 70401 10268 20230 30091 40095 52020 60024 70511 82270 333 20253 58008 70020 82818 87358==
98741,2023,01,29,03,00,AAXX 29031 98741 41462 70402 10290 20231 30094 40098 50003 70522 82270 333 82818 87358==
98741,2023,01,29,06,00,AAXX 29061 98741 41462 80403 10298 20235 30070 40074 57024 70522 8227/ 333 82818 88458==
98741,2023,01,29,12,00,AAXX 29121 98741 11462 70403 10263 20233 30096 40100 53021 60001 70182 82277 333 10308 58013 82818 84358 86275==
98741,2023,01,29,15,00,AAXX 29151 98741 42462 70402 10263 20233 30095 40099 50001 83270 333 83818 87358==
98741,2023,01,29,18,00,AAXX 29181 98741 42462 80402 10261 20231 30082 40086 58013 8227/ 333 82818 88458==
98741,2023,01,29,21,00,AAXX 29211 98741 32462 70402 10262 20232 30082 40086 55000 82278 333 56999 82818 84358 86275=
98741,2023,01,30,00,00,AAXX 30001 98741 11462 80702 10274 20239 30101 40105 52019 60004 70522 8227/ 333 20255 58010 70000 82818 88458==
98741,2023,01,30,03,00,AAXX 30031 98741 41462 80401 10280 20251 30096 40100 58005 70582 8327/ 333 83818 88458==
98741,2023,01,30,06,00,AAXX 30061 98741 11459 80702 10286 20249 30071 40075 57025 69991 78082 8327/ 333 83818 88458==
98741,2023,01,30,12,00,AAXX 30121 98741 11459 70403 10271 20244 30099 40103 52020 60001 76086 8227/ 333 10295 58003 82818 87457==
98741,2023,01,30,15,00,AAXX 30151 98741 41462 70402 10261 20237 30099 40103 50000 70262 82270 333 83818 87358==
98741,2023,01,30,18,00,AAXX 30181 98741 11459 80402 10258 20243 30084 40088 58015 60011 76062 8351/ 333 83617 88457==
98741,2023,01,31,00,00,AAXX 31001 98741 11462 40703 10274 20239 30104 40108 52019 60084 70561 82270 333 20250 58003 70080 82818 83358==
98741,2023,01,31,03,00,AAXX 31031 98741 31462 40703 10308 20250 30105 40109 51001 70500 82270 333 56190 82818 83358=
98741,2023,01,31,06,00,AAXX 31061 98741 11462 50403 10300 20242 30084 40088 57021 69901 70581 82270 333 56990 82818 84358=
98741,2023,01,31,12,00,AAXX 31121 98741 11462 83601 10254 20241 30106 40110 52020 60021 70262 8257/ 333 10320 59007 82618 88458==
98741,2023,01,31,15,00,AAXX 31151 98741 32462 83601 10253 20241 30104 40108 58002 8227/ 333 56999 82818 88458=
98741,2023,01,31,18,00,AAXX 31181 98741 11459 80901 10258 20242 30087 40091 58017 69911 78082 8227/ 333 82818 88458==
98746,2023,01,01,00,00,AAXX 01001 98746 11465 51802 10266 20239 40109 52017 60334 70544 82272 333 20229 59010 70330 82818 83358 85075==
98746,2023,01,01,03,00,AAXX 01031 98746 41462 81802 10285 20241 40101 58009 70544 82978 333 85358 88275 82918==
98746,2023,01,01,06,00,AAXX 01061 98746 41462 81502 10314 20242 40071 56030 70544 82978 333 85358 88275 82918==
98746,2023,01,01,09,00,AAXX 01091 98746 41462 81802 10294 20242 40078 53007 70544 82978 333 85358 88275 82918==
98746,2023,01,01,12,00,AAXX 01121 98746 41462 62202 10278 20241 40090 51012 70544 82236 333 10320 59017 82818 83358 86075==
98746,2023,01,01,15,00,AAXX 01151 98746 41462 52502 10254 20238 40099 53009 70544 82206 333 82818 85075==
98746,2023,01,01,18,00,AAXX 01181 98746 41462 51802 10252 20234 40084 50015 70544 82202 333 82818 85075==
98746,2023,01,01,21,00,AAXX 01211 98746 41462 50000 10247 20235 40082 55002 70544 82206 333 82818 85075==
98746,2023,01,02,00,00,AAXX 02001 98746 41465 52002 10271 20246 40090 53008 70544 82202 333 20320 59019 82818 85075==
98746,2023,01,02,03,00,AAXX 02031 98746 41465 71502 10301 20238 40089 58001 70544 82978 333 85358 87275 82918==
98746,2023,01,02,06,00,AAXX 02061 98746 41462 81502 10304 20239 40065 57024 70544 83978 333 85358 88275 83918==
98746,2023,01,02,09,00,AAXX 02091 98746 21462 81802 10250 20243 40069 53004 70584 83978 333 56999 69947 83918 85358 88275=
98746,2023,01,02,12,00,AAXX 02121 98746 11458 81502 10250 20230 40090 53021 60061 78084 8497/ 333 10314 58000 88358 84918==
98746,2023,01,02,15,00,AAXX 02151 98746 21458 81802 10248 20234 40100 50010 70584 83978 333 56999 60027 83918 85358 88275=
98746,2023,01,02,18,00,AAXX 02181 98746 11460 80000 10245 20227 40079 57021 60021 70584 82978 333 85358 88275 82918==
98746,2023,01,02,21,00,AAXX 02211 98746 31462 71802 10240 20229 40071 56008 70544 82278 333 56999 82818 84358 87275=
98746,2023,01,03,00,00,AAXX 03001 98746 11462 72002 10252 20236 40079 53008 60084 70544 82278 333 20228 59011 70080 82818 84358 87275==
98746,2023,01,03,03,00,AAXX 03031 98746 41465 61802 10288 20242 40088 50009 70544 82378 333 82817 84358 86075==
98746,2023,01,03,06,00,AAXX 03061 98746 41462 71502 10302 20240 40056 56032 70544 82978 333 85358 87275 82918==
98746,2023,01,03,12,00,AAXX 03121 98746 11460 80000 10254 20243 40086 53027 60091 71596 83978 333 10312 59004 85358 88275 83918==
98746,2023,01,03,15,00,AAXX 03151 98746 41462 71801 10250 20239 40089 50003 70544 82978 333 85358 87275 82918==
98746,2023,01,03,21,00,AAXX 03211 98746 31462 81802 10246 20230 40073 53005 70544 82278 333 56999 82818 84358 88275=
98746,2023,01,04,00,00,AAXX 04001 98746 11465 71502 10267 20236 40094 53021 60094 70544 82278 333 20234 58015 70090 82818 85358 87275==
98746,2023,01,04,03,00,AAXX 04031 98746 41462 71803 10302 20238 40091 58003 70544 82272 333 82818 85358 87075==
98746,2023,01,04,06,00,AAXX 04061 98746 41462 61202 10314 20242 40060 57031 70544 82972 333 83358 86075 82918==
98746,2023,01,04,12,00,AAXX 04121 98746 11458 82503 10242 20231 40102 51032 60221 79096 8497/ 333 10324 58016 88358 84918==
98746,2023,01,05,00,00,AAXX 05001 98746 11465 71502 10269 20238 40106 53025 60254 70544 81172 333 20230 58012 70250 81818 83358 87075==
98746,2023,01,05,03,00,AAXX 05031 98746 41462 71502 10308 20236 40103 58003 70544 82272 333 82818 83358 87075==
98746,2023,01,05,06,00,AAXX 05061 98746 41462 60903 10316 20236 40076 58027 70544 82976 333 84358 86075 82918==
98746,2023,01,05,15,00,AAXX 05151 98746 41460 82202 10240 20236 40114 50005 78084 8497/ 333 88358 84918==
98746,2023,01,05,18,00,AAXX 05181 98746 11462 60000 10250 20232 40090 56024 60021 70584 82232 333 82818 83358 86075==
98746,2023,01,05,21,00,AAXX 05211 98746 31465 61801 10246 20232 40091 53001 70544 81272 333 56999 81818 83358 86075=
98746,2023,01,06,00,00,AAXX 06001 98746 11465 41801 10266 20234 40109 53016 60024 70544 81102 333 20236 58003 70020 81818 84075==
98746,2023,01,06,03,00,AAXX 06031 98746 41465 52501 10318 20247 40105 58004 70544 82202 333 82818 85075==
98746,2023,01,06,06,00,AAXX 06061 98746 31465 61202 10324 20249 40074 57031 70544 82372 333 56999 82818 84358 86075=
98746,2023,01,06,15,00,AAXX 06151 98746 41460 80000 10254 20232 40109 50005 70544 8497/ 333 88358 84918==
98746,2023,01,07,00,00,AAXX 07001 98746 11460 81202 10260 20233 40104 53017 60004 78084 8497/ 333 20234 59005 70000 88358 84918==
98746,2023,01,07,03,00,AAXX 07031 98746 41462 81502 10276 20233 40094 58010 70584 83978 333 85358 88275 83918==
98746,2023,01,07,06,00,AAXX 07061 98746 11460 80902 10282 20234 40076 57018 60001 78084 8497/ 333 88358 84918==
98746,2023,01,07,15,00,AAXX 07151 98746 41462 72002 10254 20231 40109 50016 70544 82278 333 82818 84358 87275==
98746,2023,01,07,18,00,AAXX 07181 98746 41462 80000 10246 20230 40091 58018 70544 82978 333 84358 88275 82918==
98746,2023,01,08,00,00,AAXX 08001 98746 11462 71801 10256 20237 40114 53018 60004 70544 82278 333 20226 58010 70000 82818 84358 87275==
98746,2023,01,08,03,00,AAXX 08031 98746 41462 71501 10294 20232 40103 58011 70544 82278 333 82818 84358 87275==
98746,2023,01,08,06,00,AAXX 08061 98746 41462 80903 10296 20240 40080 57023 70544 82278 333 82818 84358 88275==
98746,2023,01,08,12,00,AAXX 08121 98746 41462 81902 10274 20232 40103 53025 70544 82278 333 10306 58010 82818 84358 88275==
98746,2023,01,08,15,00,AAXX 08151 98746 41462 60000 10260 20227 40106 50006 70544 82272 333 82818 84358 86075==
98746,2023,01,08,18,00,AAXX 08181 98746 41462 71901 10250 20225 40094 57012 70544 82272 333 82818 85358 87075==
98746,2023,01,09,03,00,AAXX 09031 98746 41462 70903 10293 20241 40103 58002 70544 82278 333 82818 84358 87275==
98746,2023,01,09,06,00,AAXX 09061 98746 41462 73501 10305 20240 40076 56027 70544 82978 333 84358 87275 82918==
98746,2023,01,09,12,00,AAXX 09121 98746 31460 70000 10270 20243 40097 51016 71544 82978 333 10315 56999 59006 82918 84358 87275=
98746,2023,01,09,15,00,AAXX 09151 98746 41462 71802 10260 20233 40093 58004 70544 82978 333 84358 87275 82918==
98746,2023,01,09,18,00,AAXX 09181 98746 31462 80000 10250 20231 40073 57020 70544 82276 333 56999 82818 85358 88075=
98746,2023,01,09,21,00,AAXX 09211 98746 41462 81801 10242 20228 40079 53006 70544 82276 333 82818 85358 88075==
98746,2023,01,10,00,00,AAXX 10001 98746 41462 70902 10262 20243 40091 52012 70544 82976 333 20232 59014 84358 87075 82918==
98746,2023,01,10,03,00,AAXX 10031 98746 41462 80903 10294 20244 40079 58012 70544 82208 333 82818 88275==
98746,2023,01,10,06,00,AAXX 10061 98746 41462 70903 10308 20242 40049 58030 70544 82908 333 87275 82918==
98746,2023,01,10,12,00,AAXX 10121 98746 11462 82202 10250 20240 40082 53018 60081 70586 82978 333 10318 59015 85358 88275 82918==
98746,2023,01,10,15,00,AAXX 10151 98746 41458 80000 10248 20232 40085 50003 78084 8497/ 333 88275 84918==
98746,2023,01,10,18,00,AAXX 10181 98746 11462 60000 10245 20229 40067 58018 60031 70544 82236 333 82818 83358 86075==
98746,2023,01,11,00,00,AAXX 11001 98746 11462 81502 10256 20234 40087 52020 60114 70544 82978 333 20225 56999 59004 70110 82918 85358 88275=
98746,2023,01,11,03,00,AAXX 11031 98746 41460 80902 10264 20226 40083 58004 70584 82978 333 85358 88275 82918==
98746,2023,01,11,06,00,AAXX 11061 98746 11460 82202 10270 20232 40056 57027 69951 70584 83978 333 85358 88275 83918==
98746,2023,01,11,12,00,AAXX 11121 98746 11460 82502 10258 20239 40060 55005 69921 70584 83978 333 10282 59022 85358 88275 83918==
98746,2023,01,11,15,00,AAXX 11151 98746 21458 82502 10244 20225 40076 58016 78084 8497/ 333 56999 60047 84918 88275=
98746,2023,01,11,18,00,AAXX 11181 98746 11460 82202 10242 20224 40059 57017 60041 70584 82978 333 85358 88275 82918==
98746,2023,01,11,21,00,AAXX 11211 98746 31462 80000 10240 20216 40065 53004 70544 82978 333 56999 82918 85358 88275=
98746,2023,01,12,00,00,AAXX 12001 98746 11458 81502 10250 20215 40061 55004 60044 70544 82978 333 20224 56999 59026 70042 82918 85358 88275=
98746,2023,01,12,03,00,AAXX 12031 98746 41460 82002 10274 20226 40075 58014 70544 83978 333 85358 88275 83918==
98746,2023,01,12,06,00,AAXX 12061 98746 41462 73502 10290 20234 40048 56027 70544 82978 333 84358 87275 82918==
98746,2023,01,12,15,00,AAXX 12151 98746 41460 82502 10264 20229 40073 50012 70544 82978 333 85358 88275 82918==
98746,2023,01,12,18,00,AAXX 12181 98746 41460 80000 10254 20227 40060 58013 70544 82978 333 85358 88275 82918==
98746,2023,01,13,00,00,AAXX 13001 98746 11462 81201 10260 20234 40079 53015 60024 70544 82978 333 20227 58018 70020 85358 88275 82918==
98746,2023,01,13,03,00,AAXX 13031 98746 41462 73502 10290 20229 40067 58012 70544 82978 333 84358 87275 82918==
98746,2023,01,13,12,00,AAXX 13121 98746 41462 82201 10266 20231 40060 53010 70544 82978 333 10306 59001 88358 88275 82918==
98746,2023,01,13,15,00,AAXX 13151 98746 41460 80000 10254 20232 40062 57002 70544 82978 333 85358 88275 82918==
98746,2023,01,13,18,00,AAXX 13181 98746 11460 81501 10250 20231 40049 58013 60021 70584 83978 333 85358 88275 83918==
98746,2023,01,14,00,00,AAXX 14001 98746 11460 81802 10260 20230 40053 53002 60034 70544 82978 333 20228 58026 70030 85358 88275 82918==
98746,2023,01,14,03,00,AAXX 14031 98746 41462 82801 10284 20232 40063 50010 70544 82978 333 84358 87275 82918==
98746,2023,01,14,12,00,AAXX 14121 98746 11462 80901 10268 20229 40074 53022 60151 76196 8497/ 333 10296 58014 88358 84918==
98746,2023,01,14,15,00,AAXX 14151 98746 41460 82201 10252 20232 40060 58014 70584 83978 333 85358 88275 83918==
98746,2023,01,14,18,00,AAXX 14181 98746 11460 80000 10248 20229 40046 57014 60031 70584 82978 333 85358 88275 82918==
98746,2023,01,15,00,00,AAXX 15001 98746 11460 81601 10259 20225 40076 52025 60184 78084 8497/ 333 20232 58024 70180 88358 84918==
98746,2023,01,15,03,00,AAXX 15031 98746 41460 82802 10292 20227 40068 58008 78084 8497/ 333 88358 84918==
98746,2023,01,15,06,00,AAXX 15061 98746 11462 72501 10295 20235 40041 57027 60001 70584 82978 333 84358 87275 84918==
98746,2023,01,15,12,00,AAXX 15121 98746 41462 72002 10258 20240 40064 53021 70544 82378 333 10300 59010 82817 84358 87275==
98746,2023,01,15,15,00,AAXX 15151 98746 41462 62002 10255 20232 40077 51013 70544 82378 333 82817 84358 87275==
98746,2023,01,15,18,00,AAXX 15181 98746 41462 70000 10250 20230 40062 57015 70544 82278 333 82818 84358 87275==
98746,2023,01,16,00,00,AAXX 16001 98746 11462 62002 10258 20239 40084 53016 60004 70544 82202 333 20233 58008 70000 82818 86075==
98746,2023,01,16,03,00,AAXX 16031 98746 41465 62702 10302 20240 40085 58001 70544 82976 333 83358 86075 82918==
98746,2023,01,16,12,00,AAXX 16121 98746 41462 72002 10268 20233 40066 53003 70544 82978 333 10300 58002 84358 87275 82918==
98746,2023,01,16,15,00,AAXX 16151 98746 41462 50000 10262 20240 40095 50029 70544 82306 333 82817 85075==
98746,2023,01,16,18,00,AAXX 16181 98746 41462 60000 10254 20241 40082 56013 70544 82206 333 82818 86075==
98746,2023,01,16,21,00,AAXX 16211 98746 41462 50000 10250 20235 40088 53006 70544 82206 333 82818 85075==
98746,2023,01,17,00,00,AAXX 17001 98746 11462 71802 10262 20235 40099 52011 60004 70544 82378 333 20235 58015 70000 82817 84358 87275==
98746,2023,01,17,03,00,AAXX 17031 98746 41465 61202 10300 20242 40099 58000 70544 82376 333 82817 83358 86075==
98746,2023,01,17,06,00,AAXX 17061 98746 41462 73502 10313 20243 40075 58024 70544 82978 333 84358 87275 82918==
98746,2023,01,17,12,00,AAXX 17121 98746 41462 62001 10272 20243 40100 51017 70544 82202 333 10320 58034 82818 86075==
98746,2023,01,17,15,00,AAXX 17151 98746 41462 41801 10258 20239 40100 50000 70544 82202 333 82818 84075==
98746,2023,01,17,21,00,AAXX 17211 98746 31462 70000 10248 20237 40095 53005 70544 82206 333 56999 82818 87075=
98746,2023,01,18,00,00,AAXX 18001 98746 41462 51202 10274 20242 40120 52025 70544 82202 333 20240 58021 82818 85075==
98746,2023,01,18,03,00,AAXX 18031 98746 41462 50502 10318 20247 40102 58018 70544 82302 333 82817 85075==
98746,2023,01,18,06,00,AAXX 18061 98746 41460 63503 10328 20249 40072 56030 70544 82902 333 86075 82918==
98746,2023,01,18,12,00,AAXX 18121 98746 11462 60000 10254 20241 40105 53027 60221 71596 83972 333 10338 58005 83358 86075 83918==
98746,2023,01,18,15,00,AAXX 18151 98746 41462 41801 10247 20238 40102 58002 70544 82202 333 82818 84075==
98746,2023,01,18,18,00,AAXX 18181 98746 41462 41801 10245 20236 40087 56016 70544 82202 333 82818 84075==
98746,2023,01,19,00,00,AAXX 19001 98746 11462 51802 10264 20240 40101 51019 60224 70544 82202 333 20228 59019 70220 82818 85075==
98746,2023,01,19,03,00,AAXX 19031 98746 41462 51803 10312 20237 40091 58010 70544 82202 333 82818 85075==
98746,2023,01,19,06,00,AAXX 19061 98746 41462 63202 10326 20238 40067 58024 70544 82972 333 83358 86075 82918==
98746,2023,01,19,12,00,AAXX 19121 98746 41462 61801 10274 20239 40088 53020 70594 82932 333 10336 59017 83358 86075 82918==
98746,2023,01,19,15,00,AAXX 19151 98746 41462 40000 10265 20240 40089 52001 70544 82202 333 82818 84075==
98746,2023,01,19,18,00,AAXX 19181 98746 41462 60000 10256 20237 40075 58014 70544 82206 333 82818 86075==
98746,2023,01,20,00,00,AAXX 20001 98746 41465 50902 10267 20242 40086 52015 70544 82202 333 20232 59015 82818 85075==
98746,2023,01,20,03,00,AAXX 20031 98746 41465 60903 10305 20241 40082 58004 70544 82372 333 82817 83358 86275==
98746,2023,01,20,15,00,AAXX 20151 98746 41462 60000 10255 20240 40079 50003 70544 82272 333 82818 84358 86075==
98746,2023,01,20,18,00,AAXX 20181 98746 41462 61601 10246 20237 40069 58010 70544 82276 333 82818 84358 86075==
98746,2023,01,21,00,00,AAXX 21001 98746 11465 71602 10268 20243 40090 52017 60074 70544 82276 333 20228 58004 70070 82818 84358 87075==
98746,2023,01,21,03,00,AAXX 21031 98746 41462 81802 10302 20240 40083 58007 70544 82978 333 84358 88275 82918==
98746,2023,01,21,06,00,AAXX 21061 98746 41462 80903 10306 20241 40061 58022 70544 82978 333 84358 88275 82918==
98746,2023,01,21,12,00,AAXX 21121 98746 11460 80901 10263 20235 40085 53021 60001 78084 8497/ 333 10316 58009 88358 88918==
98746,2023,01,21,15,00,AAXX 21151 98746 41460 81802 10248 20232 40088 50003 79598 8497/ 333 88358 84918==
98746,2023,01,21,18,00,AAXX 21181 98746 11460 80000 10245 20230 40073 58015 69931 70598 83978 333 85358 88275 83918==
98746,2023,01,22,00,00,AAXX 22001 98746 11462 81602 10262 20243 40088 52020 69934 70544 82978 333 20226 59002 70003 84358 88275 82918==
98746,2023,01,22,03,00,AAXX 22031 98746 41460 81502 10284 20244 40078 58010 78084 8497/ 333 88358 84918==
98746,2023,01,22,06,00,AAXX 22061 98746 11460 81802 10286 20232 40055 58023 60001 78084 8497/ 333 88358 84918==
98746,2023,01,22,09,00,AAXX 22091 98746 41460 81601 10272 20234 40051 56004 70544 83978 333 85358 88275 83918==
98746,2023,01,22,15,00,AAXX 22151 98746 41462 61802 10253 20226 40064 58016 70544 82978 333 83358 86275 82918==
98746,2023,01,22,18,00,AAXX 22181 98746 31462 61503 10244 20225 40051 57013 70544 82978 333 56999 82918 83358 86275=
98746,2023,01,23,00,00,AAXX 23001 98746 11462 81802 10268 20233 40066 53014 60004 70544 82978 333 20224 59022 70000 85358 88275 82918==
98746,2023,01,23,03,00,AAXX 23031 98746 41462 80902 10292 20247 40066 58000 70544 82978 333 85358 88275 82918==
98746,2023,01,23,12,00,AAXX 23121 98746 11460 81502 10256 20237 40046 51002 60101 78086 8497/ 333 10296 59034 88358 84918==
98746,2023,01,23,15,00,AAXX 23151 98746 41458 82002 10245 20224 40071 52025 78084 8497/ 333 88358 84918==
98746,2023,01,23,21,00,AAXX 23211 98746 31460 80000 10240 20219 40056 53006 70544 82978 333 56999 82918 85358 88275=
98746,2023,01,24,00,00,AAXX 24001 98746 11462 61201 10255 20235 40071 51015 60154 70544 82276 333 20224 58005 70150 82818 84358 80675==
98746,2023,01,24,03,00,AAXX 24031 98746 41465 60902 10302 20240 40064 58007 70544 82376 333 82817 84358 86075==
98746,2023,01,24,06,00,AAXX 24061 98746 41465 61802 10304 20240 40043 58021 70544 82376 333 82817 84358 86075==
98746,2023,01,25,00,00,AAXX 25001 98746 11465 71802 10266 20231 40077 53019 60364 70544 82276 333 20229 58006 70360 82818 83358 87075==
98746,2023,01,25,03,00,AAXX 25031 98746 41465 71603 10300 20227 40071 58006 70544 82272 333 82818 83358 87075==
98746,2023,01,25,06,00,AAXX 25061 98746 31462 81802 10298 20225 40049 57022 70544 82976 333 56999 82918 83358 88075=
98746,2023,01,25,12,00,AAXX 25121 98746 41462 61902 10262 20232 40066 53015 70544 82206 333 10308 59009 82818 86075==
98746,2023,01,25,15,00,AAXX 25151 98746 41462 71801 10260 20230 40066 50000 70544 82276 333 82818 84358 87075==
98746,2023,01,25,18,00,AAXX 25181 98746 41462 71801 10255 20226 40059 57007 70544 82276 333 82818 84358 87075==
98746,2023,01,26,00,00,AAXX 26001 98746 31465 72201 10268 20233 40081 53016 70544 82238 333 20230 56999 58004 82818 84358 87075=
98746,2023,01,26,03,00,AAXX 26031 98746 41462 70903 10284 20230 40078 57003 70544 82238 333 82818 84358 87275==
98746,2023,01,26,06,00,AAXX 26061 98746 41462 70901 10302 20232 40045 56033 70544 82278 333 82818 83358 87275==
98746,2023,01,26,09,00,AAXX 26091 98746 31460 72501 10280 20229 40054 53009 70544 82978 333 56999 82918 84358 87275=
98746,2023,01,26,15,00,AAXX 26151 98746 41462 61801 10260 20233 40075 50001 70544 82272 333 82818 84358 86075==
98746,2023,01,26,18,00,AAXX 26181 98746 41462 61801 10250 20234 40059 58016 70544 82206 333 82818 86075==
98746,2023,01,27,00,00,AAXX 27001 98746 41465 61602 10267 20232 40088 53021 70544 82236 333 20232 58005 82818 84358 86075==
98746,2023,01,27,03,00,AAXX 27031 98746 41465 61204 10303 20226 40073 58013 70544 82376 333 82817 84358 86075==
98746,2023,01,27,06,00,AAXX 27061 98746 31465 63504 10316 20239 40042 56031 70544 82376 333 56999 82817 84358 86075=
98746,2023,01,27,12,00,AAXX 27121 98746 41462 81601 10266 20231 40068 53020 70594 82978 333 10326 59008 85358 88275 82918==
98746,2023,01,27,15,00,AAXX 27151 98746 41460 82501 10250 20230 40072 50004 78098 8497/ 333 88358 84918==
98746,2023,01,27,18,00,AAXX 27181 98746 11460 80000 10248 20234 40054 57018 69931 70598 83978 333 85358 88275 83918==
98746,2023,01,28,00,00,AAXX 28001 98746 NIL=
98746,2023,01,28,03,00,AAXX 28031 98746 41462 73602 10300 20230 40061 58013 70544 82376 333 82817 84358 87075==
98746,2023,01,28,09,00,AAXX 28091 98746 21460 80803 10291 20242 40049 53016 78084 8497/ 333 56999 69907 84918 88358=
98746,2023,01,28,15,00,AAXX 28151 98746 41462 61602 10254 20239 40074 50002 70544 82276 333 82818 84358 86075==
98746,2023,01,29,00,00,AAXX 29001 98746 11462 71502 10274 20232 40077 53019 60014 70544 82378 333 20236 58003 70010 82817 84358 87275==
98746,2023,01,29,03,00,AAXX 29031 98746 41462 81702 10285 20244 40079 55002 70544 83978 333 85358 88275 82918==
98746,2023,01,29,12,00,AAXX 29121 98746 31462 81802 10270 20244 40076 53018 70544 82206 333 10304 56999 58008 82817 85075=
98746,2023,01,29,15,00,AAXX 29151 98746 41462 71802 10258 20234 40081 50005 70544 82978 333 84358 87275 82918==
98746,2023,01,29,18,00,AAXX 29181 98746 31462 71702 10250 20234 40069 57012 70544 82378 333 56999 82817 84358 87275=
98746,2023,01,29,21,00,AAXX 29211 98746 31462 60000 10248 20226 40072 53003 70544 82378 333 56999 82817 83358 86275=
98746,2023,01,30,00,00,AAXX 30001 98746 11462 81702 10268 20230 40090 53018 60004 70544 82278 333 20233 59013 70000 82818 85358 88275==
98746,2023,01,30,03,00,AAXX 30031 98746 41462 71501 10286 20235 40085 57005 70544 82176 333 84358 87075 82916==
98746,2023,01,30,12,00,AAXX 30121 98746 11458 82002 10264 20234 40081 51023 60111 78096 8497/ 333 10314 56999 58005 84918 88358=
98746,2023,01,30,15,00,AAXX 30151 98746 41458 81502 10255 20229 40096 51015 70586 83978 333 85358 88275 83918==
98746,2023,01,31,03,00,AAXX 31031 98746 31465 51203 10306 20235 40090 58008 70544 82202 333 56999 82818 85075=
98746,2023,01,31,15,00,AAXX 31151 98746 21462 62202 10255 20236 40094 50001 70596 83972 333 56999 60047 83918 84358 86075=
98747,2023,01,01,00,00,AAXX 01001 98747 NIL=
98747,2023,01,01,03,00,AAXX 01031 98747 41470 70303 10282 20246 30033 40119 58007 70544 82138 333 82816 84358 85272==
98747,2023,01,01,06,00,AAXX 01061 98747 41460 80305 10274 20242 30011 40097 57022 78044 8297/ 333 88358 82915==
98747,2023,01,01,09,00,AAXX 01091 98747 41460 80406 10250 20242 30014 40100 53003 76166 8462/ 333 84715 88458==
98747,2023,01,01,12,00,AAXX 01121 98747 NIL=
98747,2023,01,01,15,00,AAXX 01151 98747 41460 80202 10253 20240 30033 40119 53005 72586 8387/ 333 83616 88358==
98747,2023,01,01,18,00,AAXX 01181 98747 12460 80503 10258 20236 30009 40095 58024 69991 8387/ 333 83816 88358==
98747,2023,01,01,21,00,AAXX 01211 98747 42460 80604 10253 20234 30010 40096 55001 8387/ 333 83816 88358==
98747,2023,01,02,00,00,AAXX 02001 98747 11470 50301 10267 20244 30023 40109 53013 69954 70544 82871 333 20245 58017 70005 82816 85358==
98747,2023,01,02,03,00,AAXX 02031 98747 41470 80503 10273 20242 30016 40102 58007 70544 83808 333 83816 88272==
98747,2023,01,02,06,00,AAXX 02061 98747 NIL=
98747,2023,01,02,09,00,AAXX 02091 98747 41470 60104 10263 20244 39998 40084 53005 70544 83870 333 83816 86358==
98747,2023,01,02,12,00,AAXX 02121 98747 11458 81202 10256 20244 30017 40103 53019 60031 76086 8462/ 333 10279 59009 88457 84915==
98747,2023,01,02,15,00,AAXX 02151 98747 NIL=
98747,2023,01,02,18,00,AAXX 02181 98747 11458 82201 10241 20232 30004 40090 58019 60101 76166 8462/ 333 84615 88457==
98747,2023,01,02,21,00,AAXX 02211 98747 41458 80901 10234 20230 39999 40085 56005 76166 8462/ 333 84615 88457==
98747,2023,01,03,00,00,AAXX 03001 98747 NIL=
98747,2023,01,03,03,00,AAXX 03031 98747 41470 70405 10275 20238 30008 40094 58007 70544 82170 333 82816 87358==
98747,2023,01,03,06,00,AAXX 03061 98747 NIL=
98747,2023,01,03,12,00,AAXX 03121 98747 11460 80502 10265 20242 30001 40087 52017 60001 72584 8387/ 333 10290 59016 83616 88358==
98747,2023,01,03,15,00,AAXX 03151 98747 NIL=
98747,2023,01,03,18,00,AAXX 03181 98747 NIL=
98747,2023,01,03,21,00,AAXX 03211 98747 NIL=
98747,2023,01,04,00,00,AAXX 04001 98747 NIL=
98747,2023,01,04,03,00,AAXX 04031 98747 41465 83303 10272 20244 30014 40100 50001 70544 82210 333 82816 88458==
98747,2023,01,04,06,00,AAXX 04061 98747 NIL=
98747,2023,01,04,12,00,AAXX 04121 98747 NIL=
98747,2023,01,04,18,00,AAXX 04181 98747 NIL=
98747,2023,01,05,00,00,AAXX 05001 98747 NIL=
98747,2023,01,05,03,00,AAXX 05031 98747 41470 50202 10282 20255 30025 40111 58003 70544 82870 333 82816 85358==
98747,2023,01,05,06,00,AAXX 05061 98747 NIL=
98747,2023,01,05,12,00,AAXX 05121 98747 NIL=
98747,2023,01,05,15,00,AAXX 05151 98747 NIL=
98747,2023,01,05,18,00,AAXX 05181 98747 NIL=
98747,2023,01,05,21,00,AAXX 05211 98747 NIL=
98747,2023,01,06,00,00,AAXX 06001 98747 NIL=
98747,2023,01,06,03,00,AAXX 06031 98747 NIL=
98747,2023,01,06,06,00,AAXX 06061 98747 NIL=
98747,2023,01,06,12,00,AAXX 06121 98747 NIL=
98747,2023,01,06,15,00,AAXX 06151 98747 NIL=
98747,2023,01,06,18,00,AAXX 06181 98747 NIL=
98747,2023,01,07,03,00,AAXX 07031 98747 41470 81001 10271 20229 30022 40108 58009 70566 8287/ 333 82816 88358==
98747,2023,01,07,06,00,AAXX 07061 98747 11470 80304 10281 20226 30001 40087 56021 69941 70566 8287/ 333 82816 88358==
98747,2023,01,07,09,00,AAXX 07091 98747 41470 80406 10267 20237 30002 40088 53001 70544 8287/ 333 82816 88358==
98747,2023,01,07,12,00,AAXX 07121 98747 NIL=
98747,2023,01,07,15,00,AAXX 07151 98747 42460 83602 10262 20235 30028 40114 51011 8287/ 333 82816 88358==
98747,2023,01,08,00,00,AAXX 08001 98747 11450 83603 10220 20205 30057 40143 52032 60164 76166 8362/ 333 20234 58026 70160 83715 88457==
98747,2023,01,08,03,00,AAXX 08031 98747 41450 83605 10240 20226 30057 40137 58006 76166 8362/ 333 83715 88457==
98747,2023,01,08,06,00,AAXX 08061 98747 11460 82102 10247 20227 30029 40115 57002 60081 72566 8387/ 333 83816 88358==
98747,2023,01,08,09,00,AAXX 08091 98747 41465 80102 10251 20230 30024 40110 55005 70544 8387/ 333 83816 88358==
98747,2023,01,08,12,00,AAXX 08121 98747 NIL=
98747,2023,01,08,15,00,AAXX 08151 98747 42460 80302 10254 20229 30042 40128 50000 8387/ 333 83816 88358==
98747,2023,01,08,18,00,AAXX 08181 98747 42460 80502 10250 20236 30026 40112 58016 8387/ 333 83816 88358==
98747,2023,01,09,00,00,AAXX 09001 98747 NIL=
98747,2023,01,09,03,00,AAXX 09031 98747 41470 83402 10266 20241 30033 40119 58004 70544 8288/ 333 82816 88272==
98747,2023,01,09,06,00,AAXX 0906/ 98747 31470 80305 10269 20240 30010 40096 57023 70544 8387/ 333 56990 83816 88358=
98747,2023,01,09,09,00,AAXX 09091 98747 41470 83402 10262 20239 30014 40100 53004 70544 8388/ 333 83816 88272==
98747,2023,01,09,12,00,AAXX 09121 98747 42460 83101 10254 20237 30025 40111 53011 8387/ 333 10269 59017 83816 88358==
98747,2023,01,09,15,00,AAXX 09151 98747 42460 82201 10247 20240 30024 40110 56001 8497/ 333 82816 88358 82915==
98747,2023,01,09,18,00,AAXX 09181 98747 11460 82201 10240 20231 30005 40091 58019 69941 76086 8362/ 333 83716 88458==
98747,2023,01,09,21,00,AAXX 09211 98747 NIL=
98747,2023,01,10,00,00,AAXX 10001 98747 NIL=
98747,2023,01,10,03,00,AAXX 10031 98747 41465 81101 10255 20240 30015 40101 58010 76066 8382/ 333 83616 88458==
98747,2023,01,10,06,00,AAXX 10061 98747 11465 83502 10264 20241 39987 40073 57028 60011 70566 8387/ 333 83616 88358==
98747,2023,01,10,09,00,AAXX 10091 98747 41465 80101 10250 20239 39993 40079 53006 72584 8387/ 333 83816 88358==
98747,2023,01,10,12,00,AAXX 10121 98747 11460 80505 10252 20235 30013 40099 52020 69981 78084 8397/ 333 10265 59012 88358 83915==
98747,2023,01,10,15,00,AAXX 10151 98747 42460 81002 10247 20237 30013 40099 50000 8497/ 333 83816 88358 81915==
98747,2023,01,10,18,00,AAXX 10181 98747 11450 81001 10239 20233 39994 40080 58019 60041 76186 8462/ 333 84715 88457==
98747,2023,01,11,00,00,AAXX 11001 98747 NIL=
98747,2023,01,11,03,00,AAXX 11031 98747 NIL=
98747,2023,01,11,06,00,AAXX 11061 98747 NIL=
98747,2023,01,11,12,00,AAXX 11121 98747 NIL=
98747,2023,01,11,15,00,AAXX 11151 98747 NIL=
98747,2023,01,11,18,00,AAXX 11181 98747 NIL=
98747,2023,01,11,21,00,AAXX 11211 98747 NIL=
98747,2023,01,12,00,00,AAXX 12001 98747 NIL=
98747,2023,01,12,03,00,AAXX 12031 98747 NIL=
98747,2023,01,12,06,00,AAXX 12061 98747 NIL=
98747,2023,01,12,12,00,AAXX 12121 98747 NIL=
98747,2023,01,12,15,00,AAXX 12151 98747 NIL=
98747,2023,01,12,18,00,AAXX 12181 98747 NIL=
98747,2023,01,13,00,00,AAXX 13001 98747 NIL=
98747,2023,01,13,03,00,AAXX 13031 98747 NIL=
98747,2023,01,13,06,00,AAXX 13061 98747 NIL=
98747,2023,01,13,15,00,AAXX 13151 98747 NIL=
98747,2023,01,14,00,00,AAXX 14001 98747 NIL=
98747,2023,01,14,03,00,AAXX 14031 98747 NIL=
98747,2023,01,14,06,00,AAXX 14061 98747 NIL=
98747,2023,01,14,12,00,AAXX 14121 98747 NIL=
98747,2023,01,14,15,00,AAXX 14151 98747 41460 82101 10242 20232 39989 40075 51002 70282 8287/ 333 82816 88358==
98747,2023,01,14,18,00,AAXX 14181 98747 11460 81801 10240 20229 39964 40050 58025 60001 70282 8287/ 333 82816 88358==
98747,2023,01,14,21,00,AAXX 14211 98747 42460 51201 10240 20226 39974 40060 53010 82870 333 82816 85358==
98747,2023,01,15,03,00,AAXX 15031 98747 41470 53602 10285 20243 39990 40076 58004 70544 82870 333 82816 85358==
98747,2023,01,15,12,00,AAXX 15121 98747 NIL=
98747,2023,01,15,15,00,AAXX 15151 98747 NIL=
98747,2023,01,15,18,00,AAXX 15181 98747 42460 82201 10250 20240 39987 40073 58009 8287/ 333 82816 88358==
98747,2023,01,16,00,00,AAXX 16001 98747 NIL=
98747,2023,01,16,03,00,AAXX 16031 98747 41475 33502 10287 20254 30009 40095 58002 70544 82201 333 82816==
98747,2023,01,16,06,00,AAXX 16061 98747 NIL=
98747,2023,01,16,12,00,AAXX 16121 98747 NIL=
98747,2023,01,16,15,00,AAXX 16151 98747 42460 81801 10258 20244 30015 40101 50006 8287/ 333 82816 88358==
98747,2023,01,16,18,00,AAXX 16181 98747 NIL=
98747,2023,01,17,00,00,AAXX 17001 98747 NIL=
98747,2023,01,17,03,00,AAXX 17031 98747 41465 63302 10294 20254 30027 40113 50000 70544 83278 333 85272==
98747,2023,01,17,06,00,AAXX 17061 98747 41465 73302 10301 20254 39997 40083 57030 70544 83908 333 82816 86272 81915==
98747,2023,01,17,09,00,AAXX 17091 98747 41460 82501 10277 20250 30013 40099 52016 78094 8397/ 333 88358 83915==
98747,2023,01,17,12,00,AAXX 17121 98747 41460 82202 10268 20254 30023 40109 51010 72594 8387/ 333 10301 58014 83616 88358==
98747,2023,01,17,15,00,AAXX 17151 98747 42460 52202 10248 20240 30024 40110 53001 82808 333 82616 85272==
98747,2023,01,17,18,00,AAXX 17181 98747 NIL=
98747,2023,01,17,21,00,AAXX 17211 98747 32460 42801 10240 20234 30016 40102 55002 82801 333 56909 82616 84075=
98747,2023,01,18,00,00,AAXX 18001 98747 NIL=
98747,2023,01,18,03,00,AAXX 18031 98747 NIL=
98747,2023,01,18,06,00,AAXX 18061 98747 41470 43402 10290 20243 30001 40087 57035 70544 82231 333 82816 83075==
98747,2023,01,18,12,00,AAXX 18121 98747 41460 40303 10273 20258 30023 40109 51017 71322 84970 333 10312 58000 84358 81915==
98747,2023,01,18,15,00,AAXX 18151 98747 42460 41001 10257 20240 30026 40112 52003 82870 333 82816 84358==
98747,2023,01,18,18,00,AAXX 18181 98747 42460 21901 10250 20243 30011 40097 58015 82801 333 82816==
98747,2023,01,19,00,00,AAXX 19001 98747 NIL=
98747,2023,01,19,03,00,AAXX 19031 98747 41475 20203 10287 20247 30022 40108 55000 70544 82201 333 82816==
98747,2023,01,19,06,00,AAXX 19061 98747 41475 33202 10291 20259 39996 40082 58026 70544 83901 333 83075 81915==
98747,2023,01,19,09,00,AAXX 19091 98747 41475 63101 10282 20249 39994 40080 53002 70544 83971 333 82816 86358 81915==
98747,2023,01,19,12,00,AAXX 19121 98747 42460 30305 10274 20247 30014 40100 53020 83970 333 10306 59009 83358 81915==
98747,2023,01,19,15,00,AAXX 19151 98747 41460 70306 10265 20243 30014 40101 54000 71322 83970 333 82816 87358 81915==
98747,2023,01,19,18,00,AAXX 19181 98747 42460 52401 10254 20251 39999 40085 58015 83970 333 82816 85358 81915==
98747,2023,01,20,03,00,AAXX 20031 98747 NIL=
98747,2023,01,20,06,00,AAXX 20061 98747 NIL=
98747,2023,01,20,12,00,AAXX 20121 98747 NIL=
98747,2023,01,20,15,00,AAXX 20151 98747 42460 30303 10260 20236 30004 40090 51002 82871 333 82816 83358==
98747,2023,01,20,18,00,AAXX 20181 98747 42460 83301 10240 20226 39994 40080 58010 8287/ 333 82816 88358==
98747,2023,01,21,00,00,AAXX 21001 98747 11470 61901 10260 20247 30008 40094 52014 60004 72584 82870 333 20240 59006 70000 82816 86358==
98747,2023,01,21,03,00,AAXX 21031 98747 NIL=
98747,2023,01,21,06,00,AAXX 21061 98747 NIL=
98747,2023,01,21,12,00,AAXX 21121 98747 NIL=
98747,2023,01,21,15,00,AAXX 21151 98747 NIL=
98747,2023,01,21,18,00,AAXX 21181 98747 NIL=
98747,2023,01,22,00,00,AAXX 22001 98747 NIL=
98747,2023,01,22,03,00,AAXX 22031 98747 NIL=
98747,2023,01,22,06,00,AAXX 22061 98747 NIL=
98747,2023,01,22,09,00,AAXX 22091 98747 NIL=
98747,2023,01,22,12,00,AAXX 22121 98747 NIL=
98747,2023,01,22,15,00,AAXX 22151 98747 NIL=
98747,2023,01,22,18,00,AAXX 22181 98747 NIL=
98747,2023,01,23,00,00,AAXX 23001 98747 NIL=
98747,2023,01,23,03,00,AAXX 23031 98747 31460 60304 10270 20246 30005 40091 58001 70544 82970 333 56990 82915 86358=
98747,2023,01,23,06,00,AAXX 23061 98747 NIL=
98747,2023,01,23,12,00,AAXX 23121 98747 11460 80601 10252 20238 39985 40071 52015 69951 76166 8362/ 333 10279 59012 83615 88357==
98747,2023,01,23,15,00,AAXX 23151 98747 41460 82301 10245 20241 39991 40077 51006 70262 8387/ 333 83816 88358==
98747,2023,01,23,18,00,AAXX 23181 98747 NIL=
98747,2023,01,23,21,00,AAXX 23211 98747 NIL=
98747,2023,01,24,00,00,AAXX 24001 98747 NIL=
98747,2023,01,24,03,00,AAXX 24031 98747 41465 70303 10279 20245 39995 40081 56006 70584 82238 333 82816 84358 85272==
98747,2023,01,24,06,00,AAXX 24061 98747 11468 80309 10280 20242 39969 40060 57021 60001 71684 8397/ 333 81816 88358 82915==
98747,2023,01,24,12,00,AAXX 24121 98747 11460 80405 10250 20239 30003 40089 58029 60011 76184 8462/ 333 10284 58018 84615 88357==
98747,2023,01,24,18,00,AAXX 24181 98747 NIL=
98747,2023,01,25,00,00,AAXX 25001 98747 NIL=
98747,2023,01,25,03,00,AAXX 25031 98747 NIL=
98747,2023,01,25,06,00,AAXX 25061 98747 NIL=
98747,2023,01,25,12,00,AAXX 25121 98747 NIL=
98747,2023,01,25,15,00,AAXX 25151 98747 NIL=
98747,2023,01,25,18,00,AAXX 25181 98747 NIL=
98747,2023,01,26,00,00,AAXX 26001 98747 NIL=
98747,2023,01,26,03,00,AAXX 26031 98747 NIL=
98747,2023,01,26,06,00,AAXX 26061 98747 NIL=
98747,2023,01,26,09,00,AAXX 26091 98747 NIL=
98747,2023,01,26,12,00,AAXX 26121 98747 NIL=
98747,2023,01,26,15,00,AAXX 26151 98747 NIL=
98747,2023,01,26,18,00,AAXX 26181 98747 12460 62301 10238 20231 39985 40071 58017 60001 82870 333 82816 86358==
98747,2023,01,27,00,00,AAXX 27001 98747 NIL=
98747,2023,01,27,03,00,AAXX 27031 98747 NIL=
98747,2023,01,27,06,00,AAXX 27061 98747 NIL=
98747,2023,01,27,12,00,AAXX 27121 98747 NIL=
98747,2023,01,27,15,00,AAXX 27151 98747 NIL=
98747,2023,01,27,18,00,AAXX 27181 98747 NIL=
98747,2023,01,28,00,00,AAXX 28001 98747 NIL=
98747,2023,01,28,03,00,AAXX 28031 98747 NIL=
98747,2023,01,28,06,00,AAXX 28061 98747 NIL=
98747,2023,01,28,09,00,AAXX 28091 98747 NIL=
98747,2023,01,28,12,00,AAXX 28121 98747 NIL=
98747,2023,01,28,15,00,AAXX 28151 98747 41460 80304 10260 20246 39998 40084 51003 78082 8397/ 333 82816 88358 83915==
98747,2023,01,28,18,00,AAXX 28181 98747 NIL=
98747,2023,01,29,00,00,AAXX 29001 98747 11460 83603 10260 20246 30006 40092 52019 60004 71544 8397/ 333 20246 58004 70000 88358 83915==
98747,2023,01,29,03,00,AAXX 29031 98747 41460 60304 10270 20246 30005 40091 58001 70544 82970 333 86358 82915==
98747,2023,01,29,06,00,AAXX 29061 98747 NIL=
98747,2023,01,29,12,00,AAXX 29121 98747 NIL=
98747,2023,01,29,15,00,AAXX 29151 98747 NIL=
98747,2023,01,29,18,00,AAXX 29181 98747 42460 83602 10250 20236 39997 40083 58014 8287/ 333 82816 88358==
98747,2023,01,29,21,00,AAXX 29211 98747 32460 81201 10248 20231 30000 40086 53003 8287/ 333 56999 82816 88358=
98747,2023,01,30,00,00,AAXX 30001 98747 NIL=
98747,2023,01,30,03,00,AAXX 3003/ 98747 NIL=
98747,2023,01,30,06,00,AAXX 30061 98747 NIL=
98747,2023,01,30,12,00,AAXX 30121 98747 NIL=
98747,2023,01,30,15,00,AAXX 30151 98747 NIL=
98747,2023,01,30,18,00,AAXX 30181 98747 42460 41601 10246 20240 30000 40086 58013 82870 333 82816 84358==
98747,2023,01,31,00,00,AAXX 31001 98747 NIL=
98747,2023,01,31,03,00,AAXX 31031 98747 NIL=
98747,2023,01,31,06,00,AAXX 31061 98747 NIL=
98747,2023,01,31,12,00,AAXX 31121 98747 NIL=
98747,2023,01,31,15,00,AAXX 31151 98747 NIL=
98747,2023,01,31,18,00,AAXX 31181 98747 NIL=
98751,2023,01,01,00,00,AAXX 01001 98751 11468 60000 10222 20213 39450 40127 52011 60164 70142 82132 333 20185 59005 70160 82815 83358 85080==
98751,2023,01,01,03,00,AAXX 01031 98751 42468 82201 10250 20222 39449 40124 57001 83977 333 85358 87280 83915==
98751,2023,01,01,06,00,AAXX 01061 98751 11468 80302 10270 20226 39423 40093 58026 60001 78182 83977 333 85358 87280 83918==
98751,2023,01,01,09,00,AAXX 01091 98751 41465 80000 10242 20211 39430 40105 52007 76062 8417/ 333 84815 86358==
98751,2023,01,01,12,00,AAXX 01121 98751 11466 83401 10225 20206 39438 40114 52008 69941 70362 83277 333 10278 59016 83815 84358 87280==
98751,2023,01,01,15,00,AAXX 01151 98751 42468 80202 10230 20204 39447 40119 52009 83277 333 83815 84358 87280==
98751,2023,01,01,18,00,AAXX 01181 98751 42466 80000 10220 20202 39421 40091 58026 83277 333 83818 84358 87280==
98751,2023,01,01,21,00,AAXX 01211 98751 41466 80000 10205 20194 39424 40101 52003 74042 83277 333 83815 84358 87280==
98751,2023,01,02,00,00,AAXX 02001 98751 11470 70601 10254 20203 39436 40107 52012 69944 70142 82156 333 20190 59014 70004 82815 84358 87080==
98751,2023,01,02,03,00,AAXX 02031 98751 41468 83401 10256 20208 39432 40103 58004 72584 82978 333 84358 86280 82915==
98751,2023,01,02,06,00,AAXX 02061 98751 11468 80801 10260 20218 39408 40077 57024 69921 70284 82978 333 84358 86280 82915==
98751,2023,01,02,09,00,AAXX 02091 98751 21460 80000 10232 20220 39417 40094 53009 78082 8297/ 333 5699/ 60027 82915 86358=
98751,2023,01,02,12,00,AAXX 02121 98751 11460 80000 10222 20216 39437 40111 52020 60161 76186 8467/ 333 10268 59001 84715 88358==
98751,2023,01,02,15,00,AAXX 02151 98751 21460 80000 10216 20207 39436 40110 58001 76566 8467/ 333 5699/ 60187 84715 88358=
98751,2023,01,02,18,00,AAXX 02181 98751 11460 80000 10212 20206 39420 40092 57016 60221 76166 8467/ 333 84718 88358==
98751,2023,01,02,21,00,AAXX 02211 98751 21465 80000 10206 20203 39416 40093 55004 70162 82978 333 56999 60037 82815 84358 86280=
98751,2023,01,03,03,00,AAXX 03031 98751 41470 72302 10272 20214 39425 40095 58007 70242 82158 333 82815 84358 86280==
98751,2023,01,03,06,00,AAXX 03061 98751 41470 71801 10264 20231 39402 40073 57023 70242 82158 333 82815 84358 86280==
98751,2023,01,03,12,00,AAXX 03121 98751 41468 70000 10232 20218 39425 40098 52022 70242 82958 333 10275 59012 84358 86280 82915==
98751,2023,01,03,15,00,AAXX 03151 98751 41460 80000 10215 20208 39430 40101 51005 76166 8461/ 333 84715 88457==
98751,2023,01,03,21,00,AAXX 03211 98751 21460 80000 10208 20204 39415 40087 55003 72562 8327/ 333 56999 60017 83815 88358=
98751,2023,01,04,00,00,AAXX 04001 98751 11468 80000 10224 20215 39434 40110 52019 60104 70384 83277 333 20198 58002 70100 83815 85358 87280==
98751,2023,01,04,03,00,AAXX 04031 98751 41468 80000 10266 20222 39430 40101 57004 70382 83277 333 83815 84358 87280==
98751,2023,01,04,06,00,AAXX 04061 98751 11468 81301 10282 20230 39407 40076 58023 60001 70382 83277 333 83818 85358 87280==
98751,2023,01,04,12,00,AAXX 04121 98751 11460 80000 10220 20213 39440 40116 52028 60041 76086 8461/ 333 10290 58015 84715 88457==
98751,2023,01,05,00,00,AAXX 05001 98751 12468 71401 10232 20215 39450 40127 52026 60054 83278 333 20196 58016 70050 83815 83358 86280==
98751,2023,01,05,03,00,AAXX 05031 98751 42468 81903 10272 20227 39443 40115 57007 83278 333 83815 84358 87280==
98751,2023,01,05,06,00,AAXX 05061 98751 11468 80000 10270 20217 39424 40094 58019 60011 70382 83978 333 84358 87280 83918==
98751,2023,01,05,15,00,AAXX 05151 98751 41468 80000 10220 20211 39453 40125 57001 70382 83978 333 85358 87280 83915==
98751,2023,01,05,18,00,AAXX 05181 98751 11468 80000 10214 20205 39436 40107 58017 60001 70382 83277 333 83818 84358 87280==
98751,2023,01,05,21,00,AAXX 05211 98751 31468 50000 10202 20199 39435 40109 57001 74042 82208 333 56909 82815 84280=
98751,2023,01,06,00,00,AAXX 06001 98751 11470 41401 10235 20214 39449 40124 52014 60014 70142 82106 333 20184 59001 70010 82815 83080==
98751,2023,01,06,03,00,AAXX 06031 98751 42470 30000 10298 20191 39444 40114 57005 81102 333 81815 83080==
98751,2023,01,06,06,00,AAXX 06061 98751 31470 51702 10308 20244 39421 40087 58023 70122 83102 333 56909 83818 84080=
98751,2023,01,06,15,00,AAXX 06151 98751 41465 80000 10228 20206 39457 40125 52010 76062 8427/ 333 84815 86358==
98751,2023,01,07,00,00,AAXX 07001 98751 11465 80000 10220 20194 39456 40133 52020 60054 76164 8427/ 333 20195 58007 70050 84815 87358==
98751,2023,01,07,03,00,AAXX 07031 98751 41465 80000 10240 20197 39442 40116 57014 72562 8427/ 333 84815 86358==
98751,2023,01,07,06,00,AAXX 07061 98751 11468 80201 10270 20179 39418 40088 58024 69961 70362 83277 333 83818 86358 87280==
98751,2023,01,07,15,00,AAXX 07151 98751 42468 60000 10210 20196 39441 40117 51007 82270 333 82815 85358==
98751,2023,01,07,18,00,AAXX 07181 98751 42468 60000 10200 20191 39428 40101 57013 82270 333 82815 86358==
98751,2023,01,08,00,00,AAXX 08001 98751 11465 80000 10212 20206 39456 40133 52019 60024 76164 8427/ 333 20191 58000 70020 84815 87358==
98751,2023,01,08,03,00,AAXX 08031 98751 41462 80000 10224 20211 39450 40129 57006 76162 8427/ 333 84815 87358==
98751,2023,01,08,06,00,AAXX 08061 98751 11468 83002 10245 20210 39431 40107 58019 60021 70362 83278 333 83818 85358 87280==
98751,2023,01,08,12,00,AAXX 08121 98751 42468 80000 10218 20203 39449 40128 52021 83277 333 10260 58015 83818 84358 87280==
98751,2023,01,08,15,00,AAXX 08151 98751 42468 60000 10205 20196 39445 40124 58004 82270 333 82815 84358==
98751,2023,01,08,18,00,AAXX 08181 98751 42468 70000 10204 20195 39434 40110 57011 82270 333 82815 87358==
98751,2023,01,09,03,00,AAXX 09031 98751 41470 60501 10276 20218 39438 40109 58009 70142 81156 333 81815 84358 85080==
98751,2023,01,09,06,00,AAXX 09061 98751 41468 60101 10272 20228 39414 40086 57024 70342 81168 333 81818 84358 86280==
98751,2023,01,09,12,00,AAXX 09121 98751 31468 60000 10230 20218 39437 40111 52016 70342 82108 333 10290 56909 59012 82818 85280=
98751,2023,01,09,15,00,AAXX 09151 98751 41468 70000 10226 20214 39435 40104 58002 70342 82168 333 82815 84358 86280==
98751,2023,01,09,18,00,AAXX 09181 98751 31468 50000 10222 20210 39412 40082 57023 70142 81107 333 56909 81818 85280=
98751,2023,01,09,21,00,AAXX 09211 98751 41468 80000 10216 20207 39419 40091 53007 72582 82978 333 84358 87280 82915==
98751,2023,01,10,00,00,AAXX 10001 98751 11465 80000 10218 20203 39433 40109 52014 60014 78082 82978 333 20200 59014 70010 84358 87280 82915==
98751,2023,01,10,03,00,AAXX 10031 98751 41470 70000 10244 20213 39421 40094 58012 70182 82168 333 82815 84358 86280==
98751,2023,01,10,06,00,AAXX 10061 98751 11468 60301 10274 20239 39393 40064 57028 69921 70182 81166 333 81815 84358 86080==
98751,2023,01,10,12,00,AAXX 10121 98751 42468 60000 10226 20211 39422 40097 52019 82106 333 10276 59015 82818 85080==
98751,2023,01,10,15,00,AAXX 10151 98751 42468 80000 10220 20210 39424 40097 51002 8497/ 333 88358 84915==
98751,2023,01,10,18,00,AAXX 10181 98751 42468 80000 10210 20203 39405 40074 57019 82278 333 82815 83358 88275==
98751,2023,01,11,00,00,AAXX 11001 98751 11462 80000 10240 20209 39423 40096 52018 69924 70322 83967 333 20200 56999 59010 70002 83915 84358 87280=
98751,2023,01,11,03,00,AAXX 11031 98751 42468 71902 10270 20211 39417 40087 58006 83266 333 83815 84358 86080==
98751,2023,01,11,06,00,AAXX 11061 98751 42470 72701 10292 20228 39385 40050 57032 83266 333 83815 84358 86080==
98751,2023,01,11,12,00,AAXX 11121 98751 11460 80000 10220 20213 39414 40086 52019 60331 76086 8461/ 333 10305 59008 84715 88457==
98751,2023,01,11,15,00,AAXX 11151 98751 21460 80000 10210 20206 39420 40090 51006 76166 8461/ 333 56999 60097 84715 88457=
98751,2023,01,11,18,00,AAXX 11181 98751 11460 80000 10205 20197 39401 40070 57019 60111 70262 8427/ 333 84815 88358==
98751,2023,01,11,21,00,AAXX 11211 98751 21460 80000 10200 20196 39403 40077 55002 78082 8497/ 333 56999 69927 84915 88358=
98751,2023,01,12,00,00,AAXX 12001 98751 11468 70000 10222 20216 39420 40095 52017 60484 70364 83278 333 20190 56999 59003 70476 83815 84358 86280 555 20040=
98751,2023,01,12,03,00,AAXX 12031 98751 42468 83201 10268 20217 39405 40076 57015 83978 333 85358 87280 83915==
98751,2023,01,12,06,00,AAXX 12061 98751 11465 80202 10262 20226 39388 40058 58017 60001 78082 8397/ 333 86358 83918==
98751,2023,01,12,15,00,AAXX 12151 98751 42468 80000 10226 20214 39411 40081 57002 83277 333 83815 85358 87280==
98751,2023,01,12,18,00,AAXX 12181 98751 11468 80000 10220 20213 39399 40068 58012 60011 72564 83277 333 83818 85358 87280==
98751,2023,01,13,00,00,AAXX 13001 98751 11460 80000 10220 20217 39418 40093 52017 60094 72064 84227 333 20198 59002 70090 84815 86358 87280==
98751,2023,01,13,03,00,AAXX 13031 98751 41468 81501 10265 20228 39405 40074 57013 70354 83278 333 83815 84358 87280==
98751,2023,01,13,12,00,AAXX 13121 98751 42465 70000 10237 20220 39405 40079 52015 83868 333 10285 59008 83815 84358 86280==
98751,2023,01,13,15,00,AAXX 13151 98751 42465 70000 10230 20213 39404 40073 58001 83868 333 83815 84358 86280==
98751,2023,01,13,18,00,AAXX 13181 98751 42468 60000 10220 20205 39395 40063 57009 83206 333 83815 85080==
98751,2023,01,14,00,00,AAXX 14001 98751 11465 80000 10210 20203 39404 40078 52011 69924 78082 8497/ 333 20200 59014 70002 88358 84915==
98751,2023,01,14,03,00,AAXX 14031 98751 41465 81601 10220 20206 39400 40073 58004 74084 8497/ 333 88358 84915==
98751,2023,01,14,12,00,AAXX 14121 98751 11460 80000 10225 20210 39405 40081 52020 60071 74084 8497/ 333 10270 58000 88358 84915==
98751,2023,01,14,15,00,AAXX 14151 98751 41462 70000 10212 20203 39405 40081 54000 70284 82970 333 87358 82915==
98751,2023,01,14,18,00,AAXX 14181 98751 11465 80000 10200 20192 39375 40044 57030 60011 70284 8227/ 333 82815 87358==
98751,2023,01,15,00,00,AAXX 15001 98751 11468 80000 10220 20208 39413 40087 52019 60094 74044 83277 333 20195 58009 70090 83815 84358 87280==
98751,2023,01,15,03,00,AAXX 15031 98751 41470 51502 10280 20213 39403 40072 57010 70142 82238 333 82815 83358 84280==
98751,2023,01,15,06,00,AAXX 15061 98751 42470 51902 10310 20221 39379 40044 58024 82906 333 84080 82918==
98751,2023,01,15,12,00,AAXX 15121 98751 41465 70000 10240 20218 39409 40081 52025 70542 83908 333 10315 86275 83915==
98751,2023,01,15,15,00,AAXX 15151 98751 41465 80000 10230 20216 39413 40080 51004 70542 8497/ 333 88358 84915==
98751,2023,01,15,18,00,AAXX 15181 98751 11465 80000 10220 20211 39404 40068 57009 60051 70298 8497/ 333 88358 84915==
98751,2023,01,16,00,00,AAXX 16001 98751 12468 71301 10234 20223 39430 40103 52024 60054 82178 333 20205 58017 70050 82815 84358 87280==
98751,2023,01,16,03,00,AAXX 16031 98751 41470 42201 10282 20230 39424 40092 58006 70142 82102 333 82815 84080==
98751,2023,01,16,12,00,AAXX 16121 98751 11460 80000 10240 20234 39431 40104 52027 60071 76396 8427/ 333 10315 58022 84815 86358==
98751,2023,01,16,15,00,AAXX 16151 98751 41468 80000 10224 20215 39436 40105 51005 70196 82278 333 82815 84358 87280==
98751,2023,01,16,18,00,AAXX 16181 98751 11468 60000 10218 20209 39423 40089 58013 60161 70196 82106 333 82815 85080==
98751,2023,01,17,00,00,AAXX 17001 98751 12470 60000 10230 20213 39446 40120 52016 60224 82166 333 20196 58016 70220 82815 84358 85080==
98751,2023,01,17,03,00,AAXX 17031 98751 41470 52501 10282 20236 39439 40108 58007 70142 82102 333 82815 84080==
98751,2023,01,17,06,00,AAXX 17061 98751 41470 61302 10294 20235 39414 40081 57025 70342 82966 333 84358 85080 82915==
98751,2023,01,17,12,00,AAXX 17121 98751 11468 60000 10232 20218 39443 40117 52017 60011 70198 82206 333 10305 58012 82815 85080==
98751,2023,01,17,15,00,AAXX 17151 98751 42468 50000 10210 20200 39447 40119 51004 82208 333 82815 83275==
98751,2023,01,17,21,00,AAXX 17211 98751 31468 10000 10195 20188 39435 40111 55001 70101 81100 333 56999 81815=
98751,2023,01,18,00,00,AAXX 18001 98751 12470 50000 10222 20216 39459 40137 52024 60014 82236 333 20190 58013 70010 82815 83358 84080==
98751,2023,01,18,03,00,AAXX 18031 98751 42470 51301 10288 20219 39444 40116 58015 83206 333 83815 84080==
98751,2023,01,18,06,00,AAXX 18061 98751 42470 60000 10300 20217 39414 40081 57030 82966 333 82816 84358 85080 82915==
98751,2023,01,18,12,00,AAXX 18121 98751 11468 50301 10230 20216 39448 40125 52025 69921 70282 82206 333 10310 58005 82815 84080==
98751,2023,01,18,15,00,AAXX 18151 98751 42468 40000 10210 20195 39446 40118 58002 82206 333 82815 83080==
98751,2023,01,18,18,00,AAXX 18181 98751 42468 40000 10200 20192 39427 40095 57019 82206 333 82815 83080==
98751,2023,01,19,00,00,AAXX 19001 98751 12470 20000 10238 20212 39439 40113 52013 69924 82101 333 20185 59020 70002 82815==
98751,2023,01,19,03,00,AAXX 19031 98751 42470 40102 10298 20210 39432 40101 58007 83206 333 83815 83080==
98751,2023,01,19,06,00,AAXX 19061 98751 42470 70901 10305 20230 39409 40076 57023 83266 333 83815 84358 86080==
98751,2023,01,19,12,00,AAXX 19121 98751 42468 40000 10242 20222 39432 40103 52021 82206 333 10315 59016 82815 83080==
98751,2023,01,19,15,00,AAXX 19151 98751 42468 40000 10230 20216 39433 40099 52001 82206 333 82815 83080==
98751,2023,01,19,18,00,AAXX 19181 98751 42468 50000 10220 20205 39419 40085 58014 83206 333 83815 84080==
98751,2023,01,20,00,00,AAXX 20001 98751 42470 60000 10240 20212 39431 40102 52016 82266 333 20195 59008 82815 83358 85080==
98751,2023,01,20,03,00,AAXX 20031 98751 42470 63502 10288 20222 39428 40096 58003 83966 333 84358 85080 83915==
98751,2023,01,20,15,00,AAXX 20151 98751 41460 80000 10222 20204 39428 40096 57001 78082 8497/ 333 86358 84915==
98751,2023,01,20,18,00,AAXX 20181 98751 11460 80000 10214 20205 39415 40082 58013 60011 76062 8427/ 333 84818 86358==
98751,2023,01,21,00,00,AAXX 21001 98751 11468 70000 10232 20212 39428 40101 52011 60024 70364 83276 333 20190 59003 70020 83815 83358 86080==
98751,2023,01,21,03,00,AAXX 21031 98751 41468 81701 10260 20218 39426 40097 57002 78082 83978 333 85358 87280 83915==
98751,2023,01,21,06,00,AAXX 21061 98751 11468 81202 10275 20203 39403 40072 58023 69921 70362 83978 333 83818 85358 87280==
98751,2023,01,21,12,00,AAXX 21121 98751 11465 70000 10212 20202 39430 40105 52020 60041 70282 83970 333 10280 58001 85358 83915==
98751,2023,01,21,15,00,AAXX 21151 98751 41465 80000 10205 20198 39433 40106 51003 70282 8497/ 333 88358 84915==
98751,2023,01,21,18,00,AAXX 21181 98751 11460 80000 10200 20196 39419 40091 57014 60051 76186 8461/ 333 84715 88457==
98751,2023,01,22,00,00,AAXX 22001 98751 11465 80000 10215 20208 39430 40108 52016 60114 72564 83977 333 20191 58002 70110 85358 87280 83915==
98751,2023,01,22,03,00,AAXX 22031 98751 41465 80000 10232 20220 39425 40102 57005 76064 8427/ 333 84815 87358==
98751,2023,01,22,06,00,AAXX 22061 98751 11460 81501 10234 20222 39403 40079 58022 60031 76064 8427/ 333 84818 87358==
98751,2023,01,22,09,00,AAXX 22091 98751 41460 80000 10220 20208 39401 40079 56002 74064 8497/ 333 88358 84915==
98751,2023,01,22,15,00,AAXX 22151 98751 41465 70000 10202 20192 39413 40090 58002 70242 83270 333 83815 87358==
98751,2023,01,22,18,00,AAXX 22181 98751 31465 60000 10200 20192 39400 40076 57013 70222 82260 333 56999 82815 84358=
98751,2023,01,23,00,00,AAXX 23001 98751 11470 80000 10226 20214 39415 40089 52019 60044 70382 82978 333 20185 59015 70040 84358 87280 82915==
98751,2023,01,23,03,00,AAXX 23031 98751 42470 82101 10254 20215 39405 40079 58010 82978 333 84358 87280 82915==
98751,2023,01,23,12,00,AAXX 23121 98751 11465 80000 10220 20214 39409 40083 52020 60051 78086 8397/ 333 10262 59006 86358 83915==
98751,2023,01,23,15,00,AAXX 23151 98751 41465 80000 10216 20210 39414 40086 51005 76186 8327/ 333 83815 86358==
98751,2023,01,23,21,00,AAXX 23211 98751 31468 70000 10204 20198 39397 40072 53003 70122 82108 333 56909 82815 86280=
98751,2023,01,24,00,00,AAXX 24001 98751 11470 73501 10222 20213 39416 40090 52019 60094 70242 82108 333 20185 58001 70090 82815 86280==
98751,2023,01,24,03,00,AAXX 24031 98751 41465 73401 10254 20232 39410 40082 58006 78082 83978 333 84358 86280 83915==
98751,2023,01,24,06,00,AAXX 24061 98751 11468 80201 10280 20228 39386 40054 57024 60011 70282 82978 333 84358 87280 82915==
98751,2023,01,25,00,00,AAXX 25001 98751 12470 80000 10220 20183 39424 40099 52016 60024 83977 333 20190 58008 70020 84358 87280 83915==
98751,2023,01,25,03,00,AAXX 25031 98751 42470 83601 10255 20206 39421 40094 58003 83977 333 84358 87280 83915==
98751,2023,01,25,06,00,AAXX 25061 98751 31470 80000 10270 20207 39392 40060 57029 70322 83977 333 56999 83915 84358 87280=
98751,2023,01,25,12,00,AAXX 25121 98751 42468 60000 10220 20209 39412 40086 52018 82970 333 10280 59006 82815 84358==
98751,2023,01,25,15,00,AAXX 25151 98751 42468 70000 10205 20195 39411 40083 58001 83970 333 87358 83915==
98751,2023,01,25,18,00,AAXX 25181 98751 11460 80000 10200 20196 39401 40072 57010 60011 78182 8497/ 333 88358 84915==
98751,2023,01,26,00,00,AAXX 26001 98751 11465 80000 10206 20197 39417 40094 52017 60074 72584 83977 333 20180 56999 59007 70074 83915 86358 87280 555 20060=
98751,2023,01,26,03,00,AAXX 26031 98751 41468 80000 10250 20213 39413 40087 57003 70342 83978 333 83815 85358 87280==
98751,2023,01,26,06,00,AAXX 26061 98751 42468 81501 10282 20232 39389 40057 58024 83978 333 83818 85358 87280==
98751,2023,01,26,09,00,AAXX 26091 98751 31468 80000 10270 20229 39397 40068 52008 70322 8497/ 333 5699/ 84915 86358=
98751,2023,01,26,15,00,AAXX 26151 98751 42468 80000 10230 20221 39420 40090 51001 83277 333 83815 85358 87280==
98751,2023,01,26,18,00,AAXX 26181 98751 41465 80000 10218 20210 39405 40072 58015 70342 8327/ 333 83818 86358==
98751,2023,01,27,00,00,AAXX 27001 98751 11470 51902 10240 20219 39429 40102 52021 60014 70142 82106 333 20198 58012 70010 82815 84080==
98751,2023,01,27,03,00,AAXX 27031 98751 42468 60000 10284 20224 39417 40085 57012 83208 333 83815 85280==
98751,2023,01,27,06,00,AAXX 27061 98751 31468 71402 10294 20235 39386 40051 58031 70322 83966 333 56999 83915 84358 86080=
98751,2023,01,27,12,00,AAXX 27121 98751 42468 50000 10250 20229 39413 40083 53026 83206 333 10305 59006 83815 84080==
98751,2023,01,27,15,00,AAXX 27151 98751 42468 40000 10230 20216 39412 40079 58001 82206 333 82815 83080==
98751,2023,01,27,18,00,AAXX 27181 98751 42468 50000 10220 20205 39397 40063 57015 83206 333 83815 84080==
98751,2023,01,28,00,00,AAXX 28001 98751 42470 20000 10230 20201 39416 40086 52017 81101 333 20192 59013 81815==
98751,2023,01,28,03,00,AAXX 28031 98751 42470 61802 10295 20216 39401 40065 58015 83206 333 83815 85080==
98751,2023,01,28,09,00,AAXX 28091 98751 31470 60000 10298 20255 39386 40054 52010 70122 83208 333 56909 83815 85280=
98751,2023,01,28,15,00,AAXX 28151 98751 42465 70000 10210 20200 39416 40084 54000 83970 333 87358 83915==
98751,2023,01,29,00,00,AAXX 29001 98751 11466 80000 10210 20200 39422 40099 52020 60064 78084 83977 333 20194 58006 70060 85358 87280 83915==
98751,2023,01,29,03,00,AAXX 29031 98751 41466 80000 10220 20214 39419 40096 57003 76166 8427/ 333 84815 86358==
98751,2023,01,29,12,00,AAXX 29121 98751 11468 40000 10215 20208 39425 40102 52020 69941 74064 82208 333 10235 56909 58012 82818 83080=
98751,2023,01,29,15,00,AAXX 29151 98751 42468 50000 10204 20198 39425 40102 54000 82208 333 82815 84080==
98751,2023,01,29,18,00,AAXX 29181 98751 31468 70000 10202 20195 39412 40089 57013 70222 83270 333 56999 83815 87358=
98751,2023,01,29,21,00,AAXX 29211 98751 21468 70000 10200 20192 39418 40095 55006 70282 82270 333 56999 69967 82815 87358=
98751,2023,01,30,00,00,AAXX 30001 98751 11468 80000 10220 20214 39435 40113 52017 60044 74084 82178 333 20185 58013 70040 82815 85358 87280==
98751,2023,01,30,03,00,AAXX 30031 98751 41468 72101 10246 20226 39431 40107 58004 70184 82178 333 82815 84358 86280==
98751,2023,01,30,12,00,AAXX 30121 98751 31468 70000 10234 20223 39432 40108 52021 70142 81108 333 10265 56909 58007 81815 86280=
98751,2023,01,30,15,00,AAXX 30151 98751 41468 80000 10224 20215 39439 40113 51007 78082 82978 333 85358 87280 82915==
98751,2023,01,31,03,00,AAXX 31031 98751 41470 62001 10266 20225 39433 40104 58006 70142 82256 333 82815 84358 85080==
98751,2023,01,31,15,00,AAXX 31151 98751 41465 80000 10223 20216 39438 40109 51005 72562 8497/ 333 88358 84915==
98751,2023,01,31,18,00,AAXX 31181 98751 11465 60000 10210 20201 39420 40090 57018 69941 70262 83270 333 83815 86358==
98752,2023,01,01,00,00,AAXX 01001 98752 11462 80902 10251 20239 40135 53019 69984 71522 8297/ 333 20233 58000 70008 88358 82915==
98752,2023,01,01,03,00,AAXX 01031 98752 41460 81601 10252 20236 40131 58004 78082 8297/ 333 88358 82915==
98752,2023,01,01,06,00,AAXX 01061 98752 11458 81402 10249 20245 40117 56014 60111 76366 8457/ 333 84615 88358==
98752,2023,01,01,09,00,AAXX 01091 98752 41460 80201 10247 20239 40118 53001 76066 8257/ 333 82615 88358==
98752,2023,01,01,12,00,AAXX 01121 98752 11458 80000 10245 20241 40126 53008 60971 71562 8257/ 333 10262 59004 82615 88358==
98752,2023,01,01,15,00,AAXX 01151 98752 41458 80000 10239 20235 40135 50011 78082 8357/ 333 83615 88358==
98752,2023,01,01,18,00,AAXX 01181 98752 11458 50000 10231 20227 40109 56026 60051 72186 82570 333 82625 85358==
98752,2023,01,01,21,00,AAXX 01211 98752 42458 70000 10229 20225 40105 55004 82270 333 82818 87358==
98752,2023,01,02,00,00,AAXX 02001 98752 11460 70000 10246 20239 40122 52017 60234 71522 82570 333 20225 59013 70230 82615 87358==
98752,2023,01,02,03,00,AAXX 02031 98752 41461 60902 10263 20250 40111 58011 72162 82970 333 86358 82915==
98752,2023,01,02,06,00,AAXX 02061 98752 11461 63202 10282 20250 40085 57026 60021 71586 83970 333 86358 83915==
98752,2023,01,02,09,00,AAXX 02091 98752 21461 72902 10266 20257 40088 56003 72582 83570 333 56990 60047 83615 87358=
98752,2023,01,02,12,00,AAXX 02121 98752 11420 82501 10255 20248 40112 52024 60111 76386 8552/ 333 10290 59014 85615 88457==
98752,2023,01,02,15,00,AAXX 02151 98752 21420 80000 10244 20239 40119 51007 76566 8562/ 333 56999 60287 85715 88457=
98752,2023,01,02,18,00,AAXX 02181 98752 11430 80000 10234 20229 40093 57026 60481 76366 8562/ 333 85715 88457==
98752,2023,01,02,21,00,AAXX 02211 98752 21458 81402 10232 20228 40096 53003 71582 83570 333 56999 69997 83615 88358=
98752,2023,01,03,00,00,AAXX 03001 98752 11462 70801 10241 20234 40116 52020 60334 71682 82570 333 20230 59006 70330 82615 87358==
98752,2023,01,03,03,00,AAXX 03031 98752 41562 80102 10271 20246 40110 58006 71522 8257/ 333 82615 88358==
98752,2023,01,03,06,00,AAXX 03061 98752 41462 83602 10284 20255 40082 56028 71522 8257/ 333 82615 88358==
98752,2023,01,03,12,00,AAXX 03121 98752 11458 80000 10254 20249 40101 53019 60021 72162 8227/ 333 10296 59011 82818 88358==
98752,2023,01,03,15,00,AAXX 03151 98752 42458 81801 10247 20240 40104 50003 8227/ 333 82818 87358==
98752,2023,01,03,21,00,AAXX 03211 98752 21458 80000 10241 20240 40097 53001 76086 8352/ 333 56990 69957 83615 88457=
98752,2023,01,04,00,00,AAXX 04001 98752 11458 81201 10243 20239 40115 52018 60054 76062 8452/ 333 20230 59001 70050 84615 88457==
98752,2023,01,04,03,00,AAXX 04031 98752 41458 80902 10255 20244 40113 58002 76062 8451/ 333 84615 88457==
98752,2023,01,04,06,00,AAXX 04061 98752 11461 81403 10270 20246 40089 57024 69951 71562 8257/ 333 82615 88358==
98752,2023,01,04,12,00,AAXX 04121 98752 11458 71402 10257 20238 40113 52020 60001 71562 82570 333 10284 58012 82615 87358==
98752,2023,01,05,00,00,AAXX 05001 98752 11462 71602 10263 20240 40125 53024 69964 71522 82530 333 20236 58010 70006 82615 87358==
98752,2023,01,05,03,00,AAXX 05031 98752 42462 51202 10313 20259 40117 58008 82231 333 82882 85075==
98752,2023,01,05,06,00,AAXX 05061 98752 41462 50202 10328 20249 40095 56022 71522 83971 333 82615 84358==
98752,2023,01,05,15,00,AAXX 05151 98752 41458 80901 10253 20238 40132 53002 78082 8257/ 333 82615 88358==
98752,2023,01,05,18,00,AAXX 05181 98752 11458 41201 10243 20234 40113 58019 69921 71582 82970 333 84358 82915==
98752,2023,01,05,21,00,AAXX 05211 98752 32459 53601 10242 20230 40110 55003 82270 333 56990 82818 85358=
98752,2023,01,06,00,00,AAXX 06001 98752 11462 30702 10264 20238 40128 52018 69924 70541 81201 333 20235 58003 70002 81818 83075==
98752,2023,01,06,03,00,AAXX 06031 98752 41462 30703 10315 20248 40120 58008 71544 82930 333 83358 81915==
98752,2023,01,06,06,00,AAXX 06061 98752 11458 81802 10276 20247 40104 57016 60101 79584 8492/ 333 56999 84915 88457=
98752,2023,01,06,15,00,AAXX 06151 98752 41456 80000 10248 20243 40139 51012 76062 8452/ 333 84615 88457==
98752,2023,01,07,00,00,AAXX 07001 98752 11458 81201 10237 20235 40143 53015 60344 76066 8357/ 333 20232 58015 70340 83615 88358==
98752,2023,01,07,03,00,AAXX 07031 98752 41458 81601 10267 20248 40127 58016 71562 8257/ 333 82615 88358==
98752,2023,01,07,06,00,AAXX 07061 98752 11458 80901 10277 20257 40102 57025 69921 78062 8357/ 333 83615 88358==
98752,2023,01,07,15,00,AAXX 07151 98752 42458 80000 10247 20243 40117 58002 8227/ 333 82818 88358==
98752,2023,01,07,18,00,AAXX 07181 98752 11456 80000 10245 20243 40109 57008 60041 76186 8352/ 333 83615 88457==
98752,2023,01,08,00,00,AAXX 08001 98752 11456 83401 10242 20237 40144 53024 60104 76166 8452/ 333 20235 58001 70100 84615 88457==
98752,2023,01,08,03,00,AAXX 08031 98752 41456 82702 10235 20231 40142 58002 76166 8452/ 333 84615 88457==
98752,2023,01,08,06,00,AAXX 08061 98752 11460 82703 10259 20242 40119 58023 60111 71562 8457/ 333 84615 88358==
98752,2023,01,08,12,00,AAXX 08121 98752 11458 82702 10249 20242 40135 53018 69961 71582 8257/ 333 10265 58016 82615 88358==
98752,2023,01,08,15,00,AAXX 08151 98752 41458 83402 10253 20244 40132 58003 71522 8357/ 333 83615 88358==
98752,2023,01,08,18,00,AAXX 08181 98752 11456 83202 10251 20242 40115 57017 60061 76186 8457/ 333 84615 88358==
98752,2023,01,09,03,00,AAXX 09031 98752 41420 80000 10244 20242 40125 58005 76166 8452/ 333 84615 88457==
98752,2023,01,09,06,00,AAXX 09061 98752 11430 80000 10251 20247 40103 57022 60071 76066 8357/ 333 83615 88358==
98752,2023,01,09,12,00,AAXX 09121 98752 11450 82701 10247 20243 40118 52015 60041 76062 8452/ 333 10256 56999 59017 84615 88457=
98752,2023,01,09,15,00,AAXX 09151 98752 41440 80000 10243 20239 40113 58005 76166 8462/ 333 84715 88457==
98752,2023,01,09,18,00,AAXX 09181 98752 11420 82703 10241 20237 40093 57020 60191 76566 8562/ 333 56999 85715 88457=
98752,2023,01,09,21,00,AAXX 09211 98752 41440 82702 10238 20236 40094 53001 76166 8462/ 333 84715 88457==
98752,2023,01,10,00,00,AAXX 10001 98752 11450 80000 10235 20233 40116 52022 61014 76186 8562/ 333 20224 59014 71010 85715 88457==
98752,2023,01,10,03,00,AAXX 10031 98752 41450 80000 10243 20241 40109 58007 76166 8452/ 333 84615 88457==
98752,2023,01,10,06,00,AAXX 10061 98752 11456 82801 10252 20244 40078 57019 60061 76066 8457/ 333 84615 88358==
98752,2023,01,10,12,00,AAXX 10121 98752 11458 82803 10247 20236 40101 52017 60031 71562 8357/ 333 10261 59017 83615 88358==
98752,2023,01,10,15,00,AAXX 10151 98752 41458 72701 10241 20234 40093 58008 71562 8257/ 333 82615 87358==
98752,2023,01,10,18,00,AAXX 10181 98752 11440 80000 10239 20235 40077 57016 60011 76062 8452/ 333 84615 88457==
98752,2023,01,11,00,00,AAXX 11001 98752 11460 70000 10245 20236 40096 52018 60134 71562 82570 333 20232 56990 59020 70126 82615 87358 555 20020=
98752,2023,01,11,03,00,AAXX 11031 98752 41460 61403 10298 20252 40089 58007 70544 82270 333 82817 86358==
98752,2023,01,11,06,00,AAXX 11061 98752 11458 83603 10280 20256 40068 57021 69941 76064 8357/ 333 83615 88358==
98752,2023,01,11,12,00,AAXX 11121 98752 11458 80000 10255 20247 40088 52017 60001 70382 8227/ 333 10310 59013 82817 88358==
98752,2023,01,11,15,00,AAXX 11151 98752 21458 80000 10252 20247 40095 51007 76162 8357/ 333 56999 60027 83615 88357=
98752,2023,01,11,18,00,AAXX 11181 98752 11458 81203 10247 20243 40079 57016 60071 72162 8357/ 333 83615 88358==
98752,2023,01,11,21,00,AAXX 11211 98752 21458 82502 10243 20238 40081 53002 71562 8357/ 333 56999 60027 83615 88358=
98752,2023,01,12,00,00,AAXX 12001 98752 11430 82902 10247 20242 40102 53021 60094 72162 8457/ 333 20239 56999 58006 70091 84615 88357 555 20021=
98752,2023,01,12,03,00,AAXX 12031 98752 41450 83201 10255 20243 40093 58009 76162 8462/ 333 84615 88457==
98752,2023,01,12,06,00,AAXX 12061 98752 11440 83404 10266 20256 40071 57022 60031 76062 8457/ 333 84615 88357==
98752,2023,01,12,15,00,AAXX 12151 98752 41440 83202 10246 20244 40087 58004 76166 8462/ 333 84615 88457==
98752,2023,01,12,18,00,AAXX 12181 98752 11457 80000 10244 20242 40071 57016 60031 71562 8257/ 333 82615 88358==
98752,2023,01,13,00,00,AAXX 13001 98752 11430 80000 10249 20245 40094 52020 60124 76042 8562/ 333 20240 59008 70120 85715 88457==
98752,2023,01,13,03,00,AAXX 13031 98752 41459 73403 10267 20247 40086 58008 71562 8457/ 333 84615 88358==
98752,2023,01,13,12,00,AAXX 13121 98752 41458 81902 10250 20242 40082 52008 71522 8357/ 333 10275 59009 83615 88458==
98752,2023,01,13,15,00,AAXX 13151 98752 41459 60000 10244 20237 40085 51003 71522 82570 333 82615 86358==
98752,2023,01,13,18,00,AAXX 13181 98752 41458 70000 10240 20233 40071 58014 71522 82570 333 82615 87358==
98752,2023,01,14,00,00,AAXX 14001 98752 11468 80000 10242 20237 40082 50010 60014 78062 8457/ 333 20234 59012 70010 84615 88358==
98752,2023,01,14,03,00,AAXX 14031 98752 41458 80101 10245 20238 40078 55004 76166 8457/ 333 84615 88358==
98752,2023,01,14,12,00,AAXX 14121 98752 42458 80000 10244 20233 40070 51014 8227/ 333 10270 59012 82818 88358==
98752,2023,01,14,15,00,AAXX 14151 98752 41458 82701 10243 20236 40081 50011 71522 8257/ 333 82615 88358==
98752,2023,01,14,18,00,AAXX 14181 98752 41459 60000 10241 20234 40057 58036 71522 83570 333 83615 86358==
98752,2023,01,15,00,00,AAXX 15001 98752 11462 82701 10263 20250 40085 53014 60054 71522 8257/ 333 20235 58003 70050 82615 88358==
98752,2023,01,15,03,00,AAXX 15031 98752 42462 70000 10284 20255 40083 58002 82270 333 82818 87358==
98752,2023,01,15,06,00,AAXX 15061 98752 41462 83402 10290 20265 40058 57025 71522 8297/ 333 88358 82915==
98752,2023,01,15,12,00,AAXX 15121 98752 42458 40000 10259 20242 40084 53027 82271 333 10308 58014 82818 84358==
98752,2023,01,15,15,00,AAXX 15151 98752 42458 32601 10253 20241 40986 54002 82270 333 82818 83358==
98752,2023,01,15,18,00,AAXX 15181 98752 41458 71901 10253 20244 40079 58007 71522 82570 333 82615 87358==
98752,2023,01,16,00,00,AAXX 16001 98752 41461 50000 10259 20251 40104 53019 70542 82236 333 20241 58019 82818 83358 84075==
98752,2023,01,16,03,00,AAXX 16031 98752 41461 53402 10297 20273 40099 58005 70544 82270 333 82817 86358==
98752,2023,01,16,12,00,AAXX 16121 98752 41458 51401 10261 20248 40102 52022 71342 82930 333 10317 58018 85358 82915==
98752,2023,01,16,15,00,AAXX 16151 98752 41420 83603 10253 20246 40113 51011 79782 8592/ 333 88457 85915==
98752,2023,01,16,18,00,AAXX 16181 98752 11450 81401 10253 20248 40098 58015 60141 76098 8452/ 333 84615 88457==
98752,2023,01,17,00,00,AAXX 17001 98752 11461 51201 10255 20248 40125 52022 60154 70564 82270 333 20242 58021 70150 82817 85358==
98752,2023,01,17,03,00,AAXX 17031 98752 41461 63402 10300 20265 40115 58010 70544 82270 333 82817 86358==
98752,2023,01,17,06,00,AAXX 17061 98752 41459 73502 10297 20276 40094 57021 71794 83970 333 87358 83915==
98752,2023,01,17,12,00,AAXX 17121 98752 11458 60000 10246 20244 40120 52022 60171 71598 83570 333 10316 58018 83615 86358==
98752,2023,01,17,15,00,AAXX 17151 98752 42458 50000 10241 20237 40126 51006 82230 333 82818 85358==
98752,2023,01,17,21,00,AAXX 17211 98752 31458 30000 10235 20233 40113 53002 71511 81230 333 56990 81818 83358=
98752,2023,01,18,00,00,AAXX 18001 98752 11462 30000 10253 20241 40138 52025 60174 70542 81231 333 20230 58013 70170 81818 83075==
98752,2023,01,18,03,00,AAXX 18031 98752 41461 40204 10304 20263 40127 58011 70544 82231 333 82817 84358==
98752,2023,01,18,06,00,AAXX 18061 98752 41461 43202 10316 20265 40096 57031 70544 83901 333 83075 82915==
98752,2023,01,18,12,00,AAXX 18121 98752 11460 30000 10269 20263 40123 52021 69921 70298 82201 333 10320 58003 82818 83075==
98752,2023,01,18,15,00,AAXX 18151 98752 42460 30000 10258 20252 40125 53002 82231 333 82818 83358==
98752,2023,01,18,18,00,AAXX 18181 98752 41458 70000 10245 20241 40108 57017 71511 83570 333 83615 87358==
98752,2023,01,19,00,00,AAXX 19001 98752 11462 30000 10257 20241 40121 52015 69924 70541 81231 333 20237 59017 70002 81818 83075==
98752,2023,01,19,03,00,AAXX 19031 98752 41461 53202 10298 20256 40114 58007 70544 82230 333 82818 85358==
98752,2023,01,19,06,00,AAXX 19061 98752 41460 53402 10308 20274 40087 57027 70544 82370 333 85358 82915==
98752,2023,01,19,12,00,AAXX 19121 98752 41458 60000 10271 20252 40109 52016 70341 82270 333 10315 59014 82818 86358==
98752,2023,01,19,15,00,AAXX 19151 98752 42458 60000 10257 20242 40110 50001 82270 333 82818 86358==
98752,2023,01,19,18,00,AAXX 19181 98752 42460 30000 10245 20234 40095 57015 82230 333 82818 83358==
98752,2023,01,20,00,00,AAXX 20001 98752 11430 81203 10251 20244 40116 52025 69984 76061 8552/ 333 20245 59005 70008 85615 88457==
98752,2023,01,20,03,00,AAXX 20031 98752 41461 61202 10291 20254 40110 58006 71562 83970 333 86358 83915==
98752,2023,01,20,15,00,AAXX 20151 98752 41458 52501 10245 20238 40105 58001 71522 82530 333 82615 85358==
98752,2023,01,20,18,00,AAXX 20181 98752 41458 33601 10239 20232 40088 57017 71511 81530 333 81615 83358==
98752,2023,01,21,00,00,AAXX 21001 98752 11462 61401 10253 20241 40110 53015 60124 71562 82570 333 20232 59006 70120 82615 86358==
98752,2023,01,21,03,00,AAXX 21031 98752 41462 71202 10298 20255 40101 57009 71522 83570 333 83615 87358==
98752,2023,01,21,06,00,AAXX 21061 98752 11462 72702 10295 20265 40078 58023 60011 71582 82570 333 82615 87358==
98752,2023,01,21,12,00,AAXX 21121 98752 11458 80101 10260 20249 40106 53023 60021 71582 8257/ 333 10302 58001 82615 88358==
98752,2023,01,21,15,00,AAXX 21151 98752 41458 71601 10250 20241 40113 51007 71582 82570 333 82615 87358==
98752,2023,01,21,18,00,AAXX 21181 98752 11456 80000 10239 20232 40099 58014 60121 76062 8357/ 333 83615 88357==
98752,2023,01,22,00,00,AAXX 22001 98752 11458 80901 10240 20233 40114 53016 60124 76166 8352/ 333 20230 59004 70120 83615 88457==
98752,2023,01,22,03,00,AAXX 22031 98752 41458 80101 10246 20238 40115 50001 76166 8352/ 333 83615 88457==
98752,2023,01,22,06,00,AAXX 22061 98752 11459 83401 10246 20238 40092 57023 60121 76166 8357/ 333 83615 88358==
98752,2023,01,22,09,00,AAXX 22091 98752 41460 83601 10249 20240 40086 55006 72162 8257/ 333 82615 88358==
98752,2023,01,22,15,00,AAXX 22151 98752 42458 80901 10240 20235 40095 58004 8227/ 333 82818 88358==
98752,2023,01,22,18,00,AAXX 22181 98752 11458 82701 10233 20229 40080 56005 69931 72582 8357/ 333 56990 83615 88358=
98752,2023,01,23,00,00,AAXX 23001 98752 11456 81402 10239 20235 40093 53016 60184 76062 8462/ 333 20230 59021 70180 84615 88457==
98752,2023,01,23,03,00,AAXX 23031 98752 41457 80902 10257 20248 40086 58007 76166 8357/ 333 83615 88357==
98752,2023,01,23,12,00,AAXX 23121 98752 11457 80000 10247 20238 40086 52017 60061 72162 8257/ 333 10271 59013 82615 88358==
98752,2023,01,23,15,00,AAXX 23151 98752 41456 80901 10240 20238 40093 50007 76062 8357/ 333 83615 88357==
98752,2023,01,23,21,00,AAXX 23211 98752 31457 40000 10235 20231 40081 53003 74041 83570 333 56990 83615 84358=
98752,2023,01,24,00,00,AAXX 24001 98752 11458 70000 10238 20233 40101 52020 60094 71541 84570 333 20229 58008 70090 84615 87358==
98752,2023,01,24,03,00,AAXX 24031 98752 41461 63602 10273 20245 40092 58009 71562 82970 333 86358 82915==
98752,2023,01,24,06,00,AAXX 24061 98752 11461 73203 10278 20249 40071 57021 60011 71562 83938 333 83358 87272 83915==
98752,2023,01,25,00,00,AAXX 25001 98752 11460 70000 10242 20232 40110 52018 60074 70542 82278 333 20220 58009 70070 82817 84358 87272==
98752,2023,01,25,03,00,AAXX 25031 98752 41460 71402 10268 20244 40105 58005 70544 82270 333 82818 87358==
98752,2023,01,25,06,00,AAXX 25061 98752 31460 73602 10290 20234 40076 57029 70544 82270 333 56990 82818 87358=
98752,2023,01,25,12,00,AAXX 25121 98752 41458 70000 10256 20248 40096 52016 70242 82270 333 10298 59003 82818 87358==
98752,2023,01,25,15,00,AAXX 25151 98752 41458 81801 10251 20244 40096 50000 76062 8357/ 333 83615 88357==
98752,2023,01,25,18,00,AAXX 25181 98752 11440 80000 10236 20231 40081 58015 60201 76366 8462/ 333 84615 88457==
98752,2023,01,26,00,00,AAXX 26001 98752 11440 80000 10235 20231 40100 52018 60414 76166 8462/ 333 20227 56999 59010 70412 84615 88457 555 20216=
98752,2023,01,26,03,00,AAXX 26031 98752 41450 80000 10245 20240 40095 58005 72162 83570 333 83615 88358==
98752,2023,01,26,06,00,AAXX 26061 98752 11457 70000 10263 20247 40071 57014 69941 71562 83570 333 83615 87358==
98752,2023,01,26,09,00,AAXX 26091 98752 31457 70000 10265 20250 40076 53005 71522 83570 333 56990 83615 87358=
98752,2023,01,26,15,00,AAXX 26151 98752 41458 30901 10239 20234 40095 58001 71511 82530 333 82615 83358==
98752,2023,01,26,18,00,AAXX 26181 98752 42458 30901 10239 20235 40078 57017 81201 333 81818 83075==
98752,2023,01,27,00,00,AAXX 27001 98752 11460 50000 10250 20248 40107 52025 60024 71562 81530 333 20239 58007 70020 81615 85358==
98752,2023,01,27,03,00,AAXX 27031 98752 41460 60902 10290 20261 40094 58013 70544 83370 333 86358 83915==
98752,2023,01,27,06,00,AAXX 27061 98752 31461 53503 10300 20270 40061 57033 71544 82970 333 56990 82915 85358=
98752,2023,01,27,12,00,AAXX 27121 98752 11458 60901 10253 20248 40088 52025 60361 71398 83970 333 10310 59008 86358 83915==
98752,2023,01,27,15,00,AAXX 27151 98752 41458 30901 10247 20243 40090 51002 72581 82530 333 82615 83358==
98752,2023,01,27,18,00,AAXX 27181 98752 11458 40000 10241 20237 40071 57019 60031 72581 82530 333 82615 84358==
98752,2023,01,28,00,00,AAXX 28001 98752 11460 80901 10247 20243 40098 52025 60394 71542 8357/ 333 20228 59009 70390 83615 88358==
98752,2023,01,28,03,00,AAXX 28031 98752 41462 63202 10295 20252 40084 58014 71522 82570 333 82615 86358==
98752,2023,01,28,09,00,AAXX 28091 98752 32462 62702 10294 20260 40065 53009 82270 333 56990 82818 86358=
98752,2023,01,28,15,00,AAXX 28151 98752 42458 42001 10260 20255 40094 50005 82206 333 82818 84075==
98752,2023,01,29,00,00,AAXX 29001 98752 11459 80901 10248 20231 40103 53018 60354 72582 8357/ 333 20237 58005 70350 83615 88358==
98752,2023,01,29,03,00,AAXX 29031 98752 41458 82701 10266 20254 40100 55003 72186 8357/ 333 83615 88358==
98752,2023,01,29,12,00,AAXX 29121 98752 11458 80000 10252 20244 40108 53021 60181 70262 8227/ 333 10275 56990 58019 82818 88358=
98752,2023,01,29,15,00,AAXX 29151 98752 41458 80000 10250 20243 40104 50001 72582 8257/ 333 82615 88358==
98752,2023,01,29,18,00,AAXX 29181 98752 11458 81001 10248 20241 40095 58014 60101 76166 8357/ 333 56999 83615 88358=
98752,2023,01,29,21,00,AAXX 29211 98752 21457 80901 10246 20241 40100 53005 76166 8357/ 333 56990 60107 83615 88358=
98752,2023,01,30,00,00,AAXX 30001 98752 11440 80000 10243 20239 40116 52016 60484 76166 8562/ 333 20235 59013 70480 85715 88457==
98752,2023,01,30,03,00,AAXX 30031 98752 41458 80000 10251 20243 40112 58004 76062 8452/ 333 84615 88457==
98752,2023,01,30,12,00,AAXX 30121 98752 11457 70000 10254 20249 40114 52022 69941 72162 83570 333 10268 56990 58006 83615 87358=
98752,2023,01,30,15,00,AAXX 30151 98752 41458 60000 10247 20243 40114 50000 71562 82578 333 82615 86272==
98752,2023,01,31,03,00,AAXX 31031 98752 41450 83605 10269 20249 40115 58004 78084 8542/ 333 85615 88457==
98752,2023,01,31,15,00,AAXX 31151 98752 41458 50000 10251 20246 40113 51004 71562 82578 333 82615 85272==
98752,2023,01,31,18,00,AAXX 31181 98752 11457 60000 10248 20243 40098 58015 69931 71562 82578 333 82615 83358 85272==
98753,2023,01,01,00,00,AAXX 01001 98753 12462 73602 10257 20227 30107 40128 52024 60004 83671 333 55089 59002 70000 83716 86359==
98753,2023,01,01,03,00,AAXX 01031 98753 41458 83603 10259 20233 30102 40123 58005 76062 8352/ 333 83615 88458==
98753,2023,01,01,06,00,AAXX 01061 98753 11465 70104 10290 20236 30066 40087 57036 69931 70266 83878 333 83615 87359==
98753,2023,01,01,09,00,AAXX 01091 98753 41462 83403 10278 20229 30072 40093 53006 70262 82877 333 82816 85359 88276==
98753,2023,01,01,12,00,AAXX 01121 98753 11462 53603 10260 20232 30090 40111 51018 60001 70262 82801 333 10296 59011 82816 84079==
98753,2023,01,01,15,00,AAXX 01151 98753 42462 63603 10249 20229 30094 40115 50004 81272 333 81816 85079==
98753,2023,01,01,18,00,AAXX 01181 98753 42462 60203 10250 20236 30072 40093 58022 82271 333 82816 85359==
98753,2023,01,01,21,00,AAXX 01211 98753 42460 43503 10244 20230 30073 40094 53001 82271 333 82816 83359==
98753,2023,01,02,00,00,AAXX 02001 98753 12465 43602 10260 20223 30085 40106 52012 69934 81231 333 55017 59022 70003 81816 84359==
98753,2023,01,02,03,00,AAXX 02031 98753 41460 83604 10283 20221 30086 40107 50001 71522 8367/ 333 83716 88359==
98753,2023,01,02,06,00,AAXX 02061 98753 11457 83602 10251 20231 30066 40087 58020 60041 76162 8352/ 333 5699/ 83615 88458=
98753,2023,01,02,09,00,AAXX 02091 98753 21456 80202 10243 20232 30067 40088 53001 76162 8352/ 333 5699/ 60087 83615 88458=
98753,2023,01,02,12,00,AAXX 02121 98753 11456 80102 10241 20232 30086 40107 52019 60141 76166 8382/ 333 10289 59004 83615 88458==
98753,2023,01,02,15,00,AAXX 02151 98753 21456 83602 10240 20231 30090 40111 51004 76066 8382/ 333 5689/ 60017 83615 88458=
98753,2023,01,02,18,00,AAXX 02181 98753 11460 70202 10238 20224 30070 40091 58020 60011 72162 82570 333 82615 87359==
98753,2023,01,02,21,00,AAXX 02211 98753 32460 40201 10234 20222 30068 40089 55002 81231 333 56999 81816 84079=
98753,2023,01,03,00,00,AAXX 03001 98753 12465 73602 10250 20233 30086 40107 53018 60204 82231 333 20234 55015 58001 70200 82816 87359==
98753,2023,01,03,03,00,AAXX 03031 98753 42465 63603 10280 20237 30077 40098 58009 82232 333 82816 86079==
98753,2023,01,03,06,00,AAXX 03061 98753 32465 60504 10300 20243 30048 40069 57029 83938 333 56999 81915 83816 85276=
98753,2023,01,03,12,00,AAXX 03121 98753 11457 80203 10264 20245 30077 40098 53026 60001 76082 8452/ 333 10300 59009 84615 88458==
98753,2023,01,03,15,00,AAXX 03151 98753 41458 83602 10260 20241 30080 40101 50003 76066 8252/ 333 82615 88458==
98753,2023,01,03,18,00,AAXX 03181 98753 11460 80102 10254 20241 30064 40085 58016 60021 70266 82837 333 82816 83359 88276==
98753,2023,01,03,21,00,AAXX 03211 98753 32460 80101 10248 20232 30064 40085 55000 82237 333 56899 82816 83359 88276=
98753,2023,01,04,00,00,AAXX 04001 98753 11462 80204 10259 20241 30088 40109 53024 60024 71522 83577 333 20248 55041 58002 70020 83615 84359 88276==
98753,2023,01,04,03,00,AAXX 04031 98753 42462 70203 10285 20245 30083 40104 58005 83878 333 83816 84359 86276==
98753,2023,01,04,06,00,AAXX 04061 98753 41462 70103 10296 20243 30058 40079 57025 71522 83578 333 83615 84359 86276==
98753,2023,01,04,12,00,AAXX 04121 98753 11460 83602 10260 20239 30091 40112 53025 60021 70262 82277 333 10296 58014 82816 85359 88276==
98753,2023,01,04,18,00,AAXX 04181 98753 42460 80103 10250 20236 30075 40096 58019 82877 333 82816 83359 88276==
98753,2023,01,05,00,00,AAXX 05001 98753 12465 70203 10261 20240 30100 40121 53028 60024 82278 333 20248 55009 58012 70020 82816 85359 87275==
98753,2023,01,05,03,00,AAXX 05031 98753 41465 60404 10290 20242 30095 40116 58005 71522 82878 333 82618 84359 85275==
98753,2023,01,05,06,00,AAXX 05061 98753 32465 70604 10310 20242 30070 40091 58025 83978 333 56999 81915 86275=
98753,2023,01,05,12,00,AAXX 05121 98753 11460 63102 10260 20246 30099 40120 53022 60131 70296 82838 333 10310 58008 82816 85359 85276==
98753,2023,01,05,15,00,AAXX 05151 98753 42460 73201 10260 20246 30103 40124 50004 82838 333 82816 85359 87276==
98753,2023,01,05,18,00,AAXX 05181 98753 32462 70202 10251 20243 30087 40108 58016 82838 333 56999 82816 85359 85079=
98753,2023,01,05,21,00,AAXX 05211 98753 32460 40302 10245 20229 30087 40108 55000 81231 333 56999 81816=
98753,2023,01,06,00,00,AAXX 06001 98753 12465 20202 10262 20239 30103 40124 53016 60134 82871 333 20243 55033 58003 70130 82815==
98753,2023,01,06,03,00,AAXX 06031 98753 42465 33604 10306 20238 30092 40113 58011 82101 333 82818==
98753,2023,01,06,06,00,AAXX 06061 98753 42465 60205 10328 20236 30064 40085 56028 82232 333 82818 85076==
98753,2023,01,06,12,00,AAXX 06121 98753 41462 73604 10271 20236 30096 40117 51029 71322 82938 333 10328 59003 86276 82915==
98753,2023,01,06,15,00,AAXX 06151 98753 41457 80103 10258 20240 30111 40132 53015 76122 8252/ 333 82615 88458==
98753,2023,01,06,18,00,AAXX 06181 98753 11457 83603 10246 20233 30089 40110 58022 60051 76166 8352/ 333 83615 88458==
98753,2023,01,07,03,00,AAXX 07031 98753 41460 83604 10255 20234 30096 40117 58019 72162 83877 333 83618 85358 88275==
98753,2023,01,07,06,00,AAXX 07061 98753 11465 83604 10280 20219 30069 40090 56027 69981 70362 82877 333 82618 85359 88275==
98753,2023,01,07,12,00,AAXX 07121 98753 11460 83603 10258 20233 30087 40108 53016 60001 70262 82277 333 10280 59009 82816 88276==
98753,2023,01,07,15,00,AAXX 07151 98753 41460 83601 10252 20235 30093 40114 52006 72166 82277 333 82816 84359 88276==
98753,2023,01,08,00,00,AAXX 08001 98753 11458 83601 10250 20230 30101 40122 52016 60024 76062 8282/ 333 20240 55000 59014 70020 82616 88458==
98753,2023,01,08,03,00,AAXX 08031 98753 41462 80201 10269 20235 30099 40110 58002 71562 8287/ 333 82616 88359==
98753,2023,01,08,06,00,AAXX 08061 98753 11459 80103 10278 20233 30079 40100 56020 69961 76062 8282/ 333 82616 88458==
98753,2023,01,08,12,00,AAXX 08121 98753 11460 80104 10258 20230 30096 40117 53020 60001 70362 82277 333 10289 58009 82816 85359 88275==
98753,2023,01,08,15,00,AAXX 08151 98753 42462 53603 10248 20230 30095 40115 58002 82272 333 82816 85076==
98753,2023,01,08,18,00,AAXX 08181 98753 42460 53403 10243 20226 30084 40105 57010 82272 333 82816 84076==
98753,2023,01,09,00,00,AAXX 09001 98753 12465 70603 10264 20234 30100 40121 53018 69964 82278 333 20240 55000 59001 70006 82815 84359 86275==
98753,2023,01,09,03,00,AAXX 09031 98753 42465 60205 10290 20240 30091 40112 58009 82278 333 82816 85275==
98753,2023,01,09,06,00,AAXX 09061 98753 42465 80203 10298 20233 30065 40086 57026 82277 333 82816 85359 88275==
98753,2023,01,09,12,00,AAXX 09121 98753 42460 83602 10265 20235 30085 40106 52016 82877 333 10305 59011 82615 85359 88275==
98753,2023,01,09,15,00,AAXX 09151 98753 42460 60102 10255 20231 30081 40102 58004 82278 333 82816 84359==
98753,2023,01,09,18,00,AAXX 09181 98753 42460 73502 10248 20225 30062 40083 57019 82238 333 82816 85359 87276==
98753,2023,01,09,21,00,AAXX 09211 98753 41460 83302 10247 20225 30063 40084 53001 71522 82577 333 82615 85359 88276==
98753,2023,01,10,00,00,AAXX 10001 98753 11462 73303 10260 20235 30081 40102 52018 60004 72582 82878 333 20247 55015 59019 70000 82615 83359 86276==
98753,2023,01,10,03,00,AAXX 10031 98753 42462 73603 10282 20237 30073 40094 58008 82278 333 82816 83359 86276==
98753,2023,01,10,06,00,AAXX 10061 98753 32462 70204 10290 20236 30045 40066 57028 82278 333 56999 82816 83359 86276=
98753,2023,01,10,12,00,AAXX 10121 98753 41462 73601 10262 20232 30073 40094 52019 71322 82978 333 10290 59012 85359 86276 82915==
98753,2023,01,10,15,00,AAXX 10151 98753 42460 73602 10260 20232 30071 40092 58002 82238 333 82816 85359 87276==
98753,2023,01,10,18,00,AAXX 10181 98753 42462 73401 10250 20232 30053 40074 57018 82238 333 82816 85359 87276==
98753,2023,01,11,00,00,AAXX 11001 98753 42462 73301 10259 20240 30079 40100 52025 82878 333 20239 55000 59002 82816 83359 87276==
98753,2023,01,11,03,00,AAXX 11031 98753 42462 70302 10289 20244 30068 40089 58011 82878 333 82816 83359 87276==
98753,2023,01,11,06,00,AAXX 11061 98753 32462 70803 10300 20225 30032 40053 57036 82878 333 56999 82816 84359 87276=
98753,2023,01,11,12,00,AAXX 11121 98753 11457 83103 10262 20239 30063 40084 52022 60001 78022 83977 333 10302 59010 85358 88276 83915==
98753,2023,01,11,15,00,AAXX 11151 98753 21460 83603 10257 20241 30068 40089 52005 70282 83877 333 56199 69907 83816 85359 88276=
98753,2023,01,11,18,00,AAXX 11181 98753 11460 60103 10249 20230 30050 40071 58018 60001 70282 82838 333 82816 84359 85276==
98753,2023,01,11,21,00,AAXX 11211 98753 32460 50000 10238 20224 30050 40071 55000 81231 333 56999 81816 85079=
98753,2023,01,12,00,00,AAXX 12001 98753 12465 73602 10270 20236 30067 40088 53017 60004 82278 333 20238 55003 59012 70000 82816 83359 87275==
98753,2023,01,12,03,00,AAXX 12031 98753 42465 53403 10305 20243 30057 40078 58010 83172 333 83816 84076==
98753,2023,01,12,06,00,AAXX 12061 98753 42465 70406 10317 20244 30031 40052 56026 82278 333 82816 83359 86275==
98753,2023,01,12,12,00,AAXX 12121 98753 11460 80202 10260 20247 30063 40084 53019 69921 72166 82877 333 10318 58000 82816 85359 88276==
98753,2023,01,12,15,00,AAXX 12151 98753 41460 83401 10257 20241 30061 40082 58002 70266 82877 333 82816 85359 88276==
98753,2023,01,12,18,00,AAXX 12181 98753 11462 43401 10251 20236 30044 40065 58017 60001 70166 81831 333 81816 83079==
98753,2023,01,13,00,00,AAXX 13001 98753 12465 40402 10280 20240 30062 40083 51012 69924 81272 333 20243 55088 59005 70002 81816 84076==
98753,2023,01,13,03,00,AAXX 13031 98753 42465 70104 10298 20248 30048 40069 58014 82278 333 82816 86275==
98753,2023,01,13,06,00,AAXX 13061 98753 42465 60304 10314 20250 30023 40044 57025 82278 333 82816 86275==
98753,2023,01,13,12,00,AAXX 13121 98753 11401 83606 10250 20248 30061 40082 52033 60711 79798 8592/ 333 10326 59002 83616 88458 82915==
98753,2023,01,13,15,00,AAXX 13151 98753 41456 83401 10256 20248 30057 40078 58004 76098 8382/ 333 83615 88458==
98753,2023,01,14,00,00,AAXX 14001 98753 11460 80103 10256 20247 30049 40070 50010 61004 76098 8252/ 333 20243 55066 59013 71000 82615 88459==
98753,2023,01,14,03,00,AAXX 14031 98753 41465 80304 10285 20245 30056 40077 53007 70362 83877 333 83815 85359 87275==
98753,2023,01,14,06,00,AAXX 14061 98753 11465 70203 10290 20245 30026 40047 58030 60001 71562 83870 333 83816 87359==
98753,2023,01,14,12,00,AAXX 14121 98753 11460 71601 10270 20257 30048 40069 50015 60011 72162 82278 333 10296 59013 82816 84358 86275==
98753,2023,01,14,15,00,AAXX 14151 98753 41456 70102 10265 20256 30044 40065 58004 76066 83620 333 83616 87459==
98753,2023,01,14,18,00,AAXX 14181 98753 11460 73602 10255 20245 30015 40036 57029 60031 70266 82878 333 82816 86359==
98753,2023,01,15,03,00,AAXX 15031 98753 41465 70401 10291 20242 30051 40072 58010 71522 81238 333 81816 87276==
98753,2023,01,15,12,00,AAXX 15121 98753 42462 62003 10284 20246 30055 40076 53029 82872 333 10320 58007 82816 85358==
98753,2023,01,15,15,00,AAXX 15151 98753 41462 61803 10277 20255 30060 40081 50005 71322 83972 333 83616 85358 81915==
98753,2023,01,15,18,00,AAXX 15181 98753 42460 53202 10270 20257 30048 40069 58012 82872 333 82816 84359==
98753,2023,01,16,00,00,AAXX 16001 98753 42465 30202 10280 20254 30074 40095 51020 81172 333 20260 55067 58013 81815 83359==
98753,2023,01,16,03,00,AAXX 16031 98753 42465 21403 10318 20245 30068 40089 58006 82272 333 82816==
98753,2023,01,16,06,00,AAXX 16061 98753 42465 21503 10328 20234 30046 40067 58022 82202 333 82816==
98753,2023,01,16,12,00,AAXX 16121 98753 41462 41803 10288 20261 30072 40083 51020 71300 82901 333 10330 58017 82915==
98753,2023,01,16,15,00,AAXX 16151 98753 42462 43001 10273 20259 30082 40103 52010 82201 333 82816==
98753,2023,01,16,18,00,AAXX 16181 98753 42462 73402 10267 20251 30069 40090 58013 83271 333 83816 85359==
98753,2023,01,17,00,00,AAXX 17001 98753 42465 60102 10270 20241 30097 40118 53021 82272 333 20250 55102 58023 82816 85075==
98753,2023,01,17,03,00,AAXX 17031 98753 42465 63603 10300 20249 30091 40112 58006 82272 333 82818 85076==
98753,2023,01,17,06,00,AAXX 17061 98753 42465 80603 10300 20245 30068 40089 56023 82277 333 82816 83359 88275==
98753,2023,01,17,12,00,AAXX 17121 98753 42460 70402 10277 20249 30092 40113 52019 82278 333 10300 58020 82816 84359 87276==
98753,2023,01,17,15,00,AAXX 17151 98753 42462 53602 10264 20252 30096 40117 53004 82871 333 82816 83359==
98753,2023,01,17,18,00,AAXX 17181 98753 42462 40202 10260 20246 30081 40102 58015 81801 333 81816 83079==
98753,2023,01,17,21,00,AAXX 17211 98753 32462 40102 10250 20236 30085 40106 53004 82831 333 56999 82816 83079=
98753,2023,01,18,00,00,AAXX 18001 98753 42465 50103 10270 20243 30110 40131 53025 82232 333 20240 55022 58013 82818 84359==
98753,2023,01,18,03,00,AAXX 18031 98753 42465 30304 10304 20251 30096 40117 58014 83101 333 83816==
98753,2023,01,18,06,00,AAXX 18061 98753 41465 50804 10326 20237 30062 40083 57034 71521 84972 333 83816 82915==
98753,2023,01,18,12,00,AAXX 18121 98753 11462 50701 10261 20246 30099 40120 51024 69921 70298 81271 333 10326 58007 81816 84359==
98753,2023,01,18,15,00,AAXX 18151 98753 42462 30401 10258 20247 30091 40112 58008 81201 333 81816==
98753,2023,01,18,18,00,AAXX 18181 98753 42462 33602 10257 20240 30075 40096 58016 81201 333 81816==
98753,2023,01,19,00,00,AAXX 19001 98753 12465 60103 10266 20239 30093 40114 51015 69924 82232 333 20240 55075 59015 70002 82815 85359==
98753,2023,01,19,03,00,AAXX 19031 98753 42465 33505 10312 20238 30085 40106 56008 82272 333 82820==
98753,2023,01,19,06,00,AAXX 19061 98753 32465 60604 10324 20233 30059 40080 56026 82272 333 56999 82820 85359=
98753,2023,01,19,15,00,AAXX 19151 98753 42462 43603 10270 20244 30080 40101 52004 81231 333 81816==
98753,2023,01,19,18,00,AAXX 19181 98753 42462 33601 10260 20239 30067 40088 58013 81201 333 81816==
98753,2023,01,20,03,00,AAXX 20031 98753 42465 50204 10310 20251 30074 40095 58005 83301 333 83079 83915==
98753,2023,01,20,06,00,AAXX 20061 98753 42465 53604 10322 20234 30048 40069 57026 83931 333 83915==
98753,2023,01,20,12,00,AAXX 20121 98753 42462 43603 10276 20219 30074 40095 53028 82871 333 10330 59002 82816 83359==
98753,2023,01,20,15,00,AAXX 20151 98753 42462 43603 10262 20220 30078 40099 51004 82878 333 82816==
98753,2023,01,20,18,00,AAXX 20181 98753 42460 60302 10252 20224 30062 40083 58016 82878 333 82816 85276==
98753,2023,01,21,00,00,AAXX 21001 98753 42465 73602 10260 20246 30078 40099 50015 82272 333 20246 55102 59001 82816 85359 85079==
98753,2023,01,21,03,00,AAXX 21031 98753 42462 80203 10287 20244 30077 40098 58001 82877 333 82816 84359 88276==
98753,2023,01,21,06,00,AAXX 21061 98753 42462 80402 10294 20246 30052 40073 58025 82877 333 82816 84359 88276==
98753,2023,01,21,12,00,AAXX 21121 98753 11456 81503 10261 20239 30078 40099 52021 69961 76166 8282/ 333 10294 58004 82615 88458==
98753,2023,01,21,15,00,AAXX 21151 98753 41460 83301 10256 20242 30086 40107 51008 70262 82877 333 82816 85358 88276==
98753,2023,01,21,18,00,AAXX 21181 98753 11456 80102 10248 20234 30069 40090 58017 69961 76166 8282/ 333 82615 88458==
98753,2023,01,22,00,00,AAXX 22001 98753 11458 80203 10240 20221 30082 40103 53019 60024 76186 8357/ 333 20239 55000 58004 70020 83615 88359==
98753,2023,01,22,03,00,AAXX 22031 98753 41460 83605 10262 20223 30071 40092 58011 71562 8257/ 333 82616 88359==
98753,2023,01,22,06,00,AAXX 22061 98753 11460 80103 10272 20234 30050 40071 56021 69911 76062 82877 333 82616 86359 88276==
98753,2023,01,22,09,00,AAXX 22091 98753 41465 83603 10267 20224 30048 40069 55002 70362 82877 333 82818 85359 88276==
98753,2023,01,22,12,00,AAXX 22121 98753 11460 73603 10258 20222 30064 40085 52016 60001 76062 82878 333 10276 59014 82616 84359 86275==
98753,2023,01,22,15,00,AAXX 22151 98753 41462 83603 10249 20225 30065 40086 50001 70362 82878 333 82616 84359 86275==
98753,2023,01,22,18,00,AAXX 22181 98753 11462 43502 10246 20224 30047 40068 58018 60001 70261 82878 333 82616 83276==
98753,2023,01,23,00,00,AAXX 23001 98753 12465 70204 10265 20235 30063 40084 53021 69914 82878 333 20230 55009 59019 70001 82618 84359 87275==
98753,2023,01,23,03,00,AAXX 23031 98753 42465 70204 10285 20235 30056 40077 58007 83578 333 83618 85359 87275==
98753,2023,01,23,06,00,AAXX 23061 98753 11462 80305 10278 20240 30032 40053 58024 60001 76062 83877 333 83615 84358 88275==
98753,2023,01,23,12,00,AAXX 23121 98753 11458 83602 10243 20232 30062 40083 52020 60181 76066 8382/ 333 10285 59002 83615 88458==
98753,2023,01,23,15,00,AAXX 23151 98753 41456 83601 10240 20233 30067 40088 51005 76166 8382/ 333 83615 88458==
98753,2023,01,23,18,00,AAXX 23181 98753 11460 80202 10241 20229 30044 40065 56023 60101 70362 82877 333 82816 85359 88276==
98753,2023,01,23,21,00,AAXX 23211 98753 21460 83501 10239 20227 30046 40067 50002 70282 82877 333 56999 69947 82816 84359 88276=
98753,2023,01,24,00,00,AAXX 24001 98753 11465 50303 10260 20239 30067 40088 52021 60284 70182 82232 333 20239 55000 58004 70280 82816 84079==
98753,2023,01,24,03,00,AAXX 24031 98753 42465 60104 10290 20243 30060 40081 58007 82232 333 82816 83359==
98753,2023,01,24,06,00,AAXX 24061 98753 42465 70405 10292 20243 30034 40055 57026 83872 333 83615 85359==
98753,2023,01,24,12,00,AAXX 24121 98753 11457 83403 10238 20234 30069 40090 51017 60231 76166 8252/ 333 10300 58007 82615 88458==
98753,2023,01,24,18,00,AAXX 24181 98753 11460 73602 10240 20226 30053 40074 57012 60011 70266 81878 333 81816 85359 87276==
98753,2023,01,25,00,00,AAXX 25001 98753 11462 80102 10248 20216 30077 40098 52018 60244 71582 83878 333 20239 55056 58010 70240 83615 86359 88276==
98753,2023,01,25,03,00,AAXX 25031 98753 41462 83505 10270 20216 30068 40089 58009 71522 83878 333 83615 86359 88276==
98753,2023,01,25,06,00,AAXX 25061 98753 11459 83404 10271 20229 30045 40066 57023 60001 76066 8381/ 333 83615 88458==
98753,2023,01,25,12,00,AAXX 25121 98753 11459 83603 10240 20236 30059 40080 53013 60011 76066 8182/ 333 10271 59010 81816 88458==
98753,2023,01,25,15,00,AAXX 25151 98753 41458 83603 10246 20231 30058 40079 50001 76166 8182/ 333 81816 88458==
98753,2023,01,25,18,00,AAXX 25181 98753 11458 83603 10240 20233 30045 40066 58013 60031 76166 8282/ 333 82816 88458==
98753,2023,01,26,00,00,AAXX 26001 98753 11465 63603 10256 20225 30068 40089 51015 60044 70162 82278 333 20228 55000 59009 70040 82815 83359 85275==
98753,2023,01,26,03,00,AAXX 26031 98753 42465 60304 10290 20236 30064 40085 58005 82878 333 82815 83358 85275==
98753,2023,01,26,06,00,AAXX 26061 98753 41465 70404 10298 20245 30035 40056 57029 71522 82878 333 82615 84358 86275==
98753,2023,01,26,09,00,AAXX 26091 98753 31462 80502 10291 20250 30046 40067 53011 71522 82977 333 56999 82915 85358 88275=
98753,2023,01,26,12,00,AAXX 26121 98753 11460 82102 10260 20254 30070 40091 53024 69941 72166 82877 333 10298 58011 82816 85359 88276==
98753,2023,01,26,15,00,AAXX 26151 98753 41460 82701 10265 20251 30070 40091 50000 72522 82877 333 82816 85359 88276==
98753,2023,01,26,18,00,AAXX 26181 98753 11460 82701 10258 20247 30055 40076 57015 60001 70282 82877 333 82816 85359 88276==
98753,2023,01,27,00,00,AAXX 27001 98753 12465 30402 10270 20248 30079 40100 51024 69944 82101 333 20242 55025 58011 70004 82815 83076==
98753,2023,01,27,03,00,AAXX 27031 98753 42465 50604 10303 20247 30066 40087 58013 82232 333 82816 85076==
98753,2023,01,27,06,00,AAXX 27061 98753 42465 61603 10310 20243 30032 40053 56034 82278 333 82816 83358 85275==
98753,2023,01,27,12,00,AAXX 27121 98753 11462 60701 10270 20243 30060 40081 51022 60001 71382 82932 333 10315 59010 85079 82915==
98753,2023,01,27,15,00,AAXX 27151 98753 41458 80701 10262 20252 30061 40082 50001 78082 8352/ 333 83615 88458==
98753,2023,01,27,18,00,AAXX 27181 98753 11460 60101 10253 20245 30040 40061 58021 60041 70282 81878 333 81816 84359 85276==
98753,2023,01,28,00,00,AAXX 28001 98753 12465 33603 10270 20250 30064 40085 51018 60044 82131 333 20242 55017 59015 70040 82815 83076==
98753,2023,01,28,03,00,AAXX 28031 98753 42465 40204 10310 20251 30051 40072 58013 83102 333 83818==
98753,2023,01,28,06,00,AAXX 28061 98753 42465 60304 10317 20238 30020 40041 56031 82272 333 82818 83359 85076==
98753,2023,01,28,09,00,AAXX 28091 98753 32465 72104 10308 20244 30032 40053 53012 82578 333 56999 82615 84359 86275=
98753,2023,01,28,12,00,AAXX 28121 98753 42462 73001 10273 20242 30063 40084 51031 82878 333 10330 58003 82816 85359 87276==
98753,2023,01,28,15,00,AAXX 28151 98753 42460 83602 10270 20243 30066 40087 50003 82877 333 82816 85359 88276==
98753,2023,01,28,18,00,AAXX 28181 98753 42460 80102 10261 20239 30048 40069 57018 82877 333 82816 85359 88276==
98753,2023,01,29,00,00,AAXX 29001 98753 11462 73601 10260 20227 30073 40094 53024 69924 71562 82873 333 20252 55060 58009 70002 82616 85359==
98753,2023,01,29,03,00,AAXX 29031 98753 41459 83601 10262 20235 30069 40090 58004 76162 8381/ 333 83615 88458==
98753,2023,01,29,06,00,AAXX 29061 98753 11462 73604 10290 20233 30046 40067 56023 69921 71562 82878 333 82616 84359 86276==
98753,2023,01,29,12,00,AAXX 29121 98753 11460 70203 10262 20236 30073 40094 53021 60001 76062 82878 333 10290 58010 82616 85358 87275==
98753,2023,01,29,15,00,AAXX 29151 98753 41460 63402 10252 20243 30076 40097 50003 72162 82278 333 82816 83358 85275==
98753,2023,01,29,18,00,AAXX 29181 98753 11458 83502 10250 20232 30060 40081 58016 69971 76066 82877 333 82616 85358 88275==
98753,2023,01,29,21,00,AAXX 29211 98753 21460 70103 10248 20235 30066 40087 53006 70262 82878 333 56199 69907 82616 87276=
98753,2023,01,30,00,00,AAXX 30001 98753 11465 70203 10260 20237 30086 40107 52020 69994 71522 82878 333 20240 55010 58013 70009 82615 83358 87275==
98753,2023,01,30,03,00,AAXX 30031 98753 42465 60402 10291 20244 30079 40100 58007 82878 333 82618 83359 85275==
98753,2023,01,30,06,00,AAXX 30061 98753 42465 70405 10300 20244 30050 40071 57029 82278 333 82815 83358 86275==
98753,2023,01,30,12,00,AAXX 30121 98753 11460 73502 10258 20250 30085 40106 52024 60021 72166 83878 333 10306 58012 83616 84358 85275==
98753,2023,01,30,15,00,AAXX 30151 98753 42460 73602 10260 20246 30088 40109 50003 83878 333 83615 85358 86275==
98753,2023,01,30,18,00,AAXX 30181 98753 42460 60102 10257 20234 30070 40091 58018 82238 333 82816 84359 86276==
98753,2023,01,31,00,00,AAXX 31001 98753 12465 40503 10265 20232 30094 40115 53026 60024 82231 333 20248 55047 58008 70020 82816 83079==
98753,2023,01,31,03,00,AAXX 31031 98753 32465 50205 10308 20247 30082 40103 58012 83231 333 56899 83816=
98753,2023,01,31,06,00,AAXX 31061 98753 32465 30404 10315 20242 30054 40075 57028 83231 333 56899 83816=
98753,2023,01,31,12,00,AAXX 31121 98753 11460 80701 10261 20255 30080 40101 51027 60001 72522 82877 333 10321 59005 82816 85359 88276==
98753,2023,01,31,15,00,AAXX 31151 98753 32460 80401 10276 20248 30090 40111 51010 83877 333 56999 83816 85359 88276=
98753,2023,01,31,18,00,AAXX 31181 98753 42462 40701 10262 20239 30070 40091 58020 82871 333 82816==
98755,2023,01,01,00,00,AAXX 01001 98755 11458 82701 10240 20229 30126 40130 52024 60014 78022 8352/ 333 20236 58001 70010 83616 88458==
98755,2023,01,01,03,00,AAXX 01031 98755 41458 83202 10254 20235 30122 40126 58004 76182 8352/ 333 83617 88458==
98755,2023,01,01,06,00,AAXX 01061 98755 11456 82702 10255 20235 30101 40105 56021 60161 78186 8352/ 333 83616 88458==
98755,2023,01,01,09,00,AAXX 01091 98755 41458 82701 10242 20232 30101 40105 55000 76186 8352/ 333 83616 88458==
98755,2023,01,01,12,00,AAXX 01121 98755 11465 83001 10243 20236 30118 40122 53017 60061 70262 8287/ 333 10270 58002 82619 88359==
98755,2023,01,01,15,00,AAXX 01151 98755 41458 83002 10246 20241 30108 40112 58010 76082 8252/ 333 82618 88458==
98755,2023,01,01,18,00,AAXX 01181 98755 11465 80000 10241 20234 30092 40096 58016 69981 70286 81870 333 81619 87359==
98755,2023,01,01,21,00,AAXX 01211 98755 42565 73001 10234 20229 30094 40098 53002 81270 333 81820 87359==
98755,2023,01,02,00,00,AAXX 02001 98755 11450 80405 10236 20232 30117 40121 52023 60284 76386 8452/ 333 20232 59009 70280 84617 88457==
98755,2023,01,02,03,00,AAXX 02031 98755 41458 73001 10275 20253 30098 40102 58019 78086 83870 333 81819 83618 87359==
98755,2023,01,02,06,00,AAXX 02061 98755 11458 73601 10274 20256 30069 40073 56029 60061 78086 83570 333 56990 83618 87359=
98755,2023,01,02,09,00,AAXX 02091 98755 21460 73601 10269 20252 30075 40079 53006 71582 83870 333 56990 69947 81819 83618 87359=
98755,2023,01,02,12,00,AAXX 02121 98755 11458 82201 10245 20233 30105 40109 50030 60381 76382 8352/ 333 10290 59013 83616 88457==
98755,2023,01,02,15,00,AAXX 02151 98755 21458 82201 10236 20228 30109 40113 53004 76166 8352/ 333 56990 60227 83616 88458=
98755,2023,01,02,18,00,AAXX 02181 98755 11458 82703 10235 20223 30083 40087 58026 60321 76166 8352/ 333 83616 88458==
98755,2023,01,02,21,00,AAXX 02211 98755 32465 80000 10230 20216 30085 40089 53002 8257/ 333 56990 82619 88359=
98755,2023,01,03,00,00,AAXX 03001 98755 12462 70000 10254 20248 30104 40108 52019 60764 83570 333 20230 59013 70760 83619 87359==
98755,2023,01,03,03,00,AAXX 03031 98755 41460 83402 10275 20248 30096 40100 58008 71522 8357/ 333 83618 88359==
98755,2023,01,03,06,00,AAXX 03061 98755 11457 83402 10253 20245 30077 40081 56019 60041 76186 8352/ 333 56999 83617 88458=
98755,2023,01,03,12,00,AAXX 03121 98755 11456 80705 10251 20244 30097 40101 52019 60061 76186 8352/ 333 10284 59008 83617 88458==
98755,2023,01,03,15,00,AAXX 03151 98755 41456 81403 10248 20240 30097 40101 50000 76366 8352/ 333 83617 88458==
98755,2023,01,03,18,00,AAXX 03181 98755 11457 82501 10248 20243 30078 40082 58019 60101 76166 8252/ 333 82617 88458==
98755,2023,01,03,21,00,AAXX 03211 98755 21457 83001 10241 20237 30086 40090 53008 76166 8252/ 333 56999 60017 82617 88458=
98755,2023,01,04,00,00,AAXX 04001 98755 11458 80000 10245 20241 30107 40111 52021 60244 76166 8452/ 333 20236 58003 70240 84618 88458==
98755,2023,01,04,03,00,AAXX 04031 98755 41462 80000 10260 20233 30104 40108 58003 70262 8357/ 333 83619 88359==
98755,2023,01,04,06,00,AAXX 04061 98755 11462 83602 10270 20243 30086 40090 57018 60001 70262 8357/ 333 83619 88359==
98755,2023,01,04,12,00,AAXX 04121 98755 11462 72701 10252 20243 30106 40110 52019 69921 70182 82532 333 10277 58009 82619 83360==
98755,2023,01,04,18,00,AAXX 04181 98755 11462 72701 10241 20237 30095 40099 58020 60081 70182 81532 333 81619 84360==
98755,2023,01,05,00,00,AAXX 05001 98755 11460 72401 10246 20241 30119 40123 50024 60104 76082 84570 333 20225 58003 70100 82618 87358==
98755,2023,01,05,03,00,AAXX 05031 98755 41465 70701 10272 20254 30113 40117 58006 78086 83278 333 83819 83359 87278==
98755,2023,01,05,06,00,AAXX 05061 98755 11565 50703 10288 20254 30089 40093 56024 60021 70186 83936 333 56999 81920 83821 85080=
98755,2023,01,05,12,00,AAXX 05121 98755 11565 32702 10250 20236 30116 40120 52021 60021 70182 83201 333 10299 58010 83820==
98755,2023,01,05,15,00,AAXX 05151 98755 41460 70000 10248 20232 30124 40128 51008 72522 83270 333 83818 87359==
98755,2023,01,05,18,00,AAXX 05181 98755 11465 30000 10245 20224 30109 40113 58015 60071 70182 81270 333 56990 81819 83359=
98755,2023,01,05,21,00,AAXX 05211 98755 32565 22202 10234 20220 30103 40107 55006 81275 333 56999 81820=
98755,2023,01,06,00,00,AAXX 06001 98755 12565 32501 10257 20244 30118 40122 51015 60114 81205 333 20229 59001 70110 81820 83080==
98755,2023,01,06,03,00,AAXX 06031 98755 41565 63603 10292 20251 30113 40117 58005 70380 83238 333 83820 86279==
98755,2023,01,06,06,00,AAXX 06061 98755 11463 73604 10275 20242 30093 40097 56020 60001 72582 83278 333 83819 87278==
98755,2023,01,06,12,00,AAXX 06121 98755 11465 72702 10258 20245 30114 40118 52014 60011 70182 82270 333 10307 59002 82819 87359==
98755,2023,01,06,15,00,AAXX 06151 98755 41458 82702 10242 20232 30128 40132 51014 76182 8352/ 333 83616 88458==
98755,2023,01,06,18,00,AAXX 06181 98755 11458 82201 10236 20225 30109 40113 58019 60201 76086 8352/ 333 83616 88458==
98755,2023,01,07,03,00,AAXX 07031 98755 41462 80000 10260 20232 30117 40121 58019 70262 8257/ 333 82619 88359==
98755,2023,01,07,06,00,AAXX 07061 98755 11458 83001 10265 20240 30091 40095 57026 60001 78062 8457/ 333 84618 88358==
98755,2023,01,07,12,00,AAXX 07121 98755 11463 80000 10254 20246 30108 40112 53016 60051 70282 82878 333 10275 59006 82619 84359 84278==
98755,2023,01,07,15,00,AAXX 07151 98755 41463 80000 10247 20243 30108 40112 55000 72582 8287/ 333 82619 88359==
98755,2023,01,08,00,00,AAXX 08001 98755 11458 83201 10234 20226 30126 40130 52023 60554 76166 8352/ 333 20235 59010 70550 83616 88458==
98755,2023,01,08,03,00,AAXX 08031 98755 41462 82703 10260 20238 30118 40122 58008 72562 8327/ 333 83819 88359==
98755,2023,01,08,06,00,AAXX 08061 98755 11565 72702 10280 20246 30099 40103 58019 60021 70162 82278 333 82820 87279==
98755,2023,01,08,12,00,AAXX 08121 98755 42465 80000 10253 20235 30120 40124 53019 8227/ 333 10289 58012 82819 88359==
98755,2023,01,08,15,00,AAXX 08151 98755 41465 80000 10242 20232 30118 40122 55002 72186 8287/ 333 82819 88359==
98755,2023,01,08,18,00,AAXX 08181 98755 11565 62501 10237 20230 30098 40102 58020 60021 70186 82270 333 82820 86359==
98755,2023,01,09,00,00,AAXX 09001 98755 11458 82402 10240 20236 30117 40121 52017 60084 76186 8452/ 333 20232 59009 70080 84618 88458==
98755,2023,01,09,03,00,AAXX 09031 98755 41450 82401 10241 20237 30111 40115 58006 76366 8452/ 333 84617 88457==
98755,2023,01,09,06,00,AAXX 09061 98755 11450 80000 10244 20240 30092 40096 57019 60211 76366 8452/ 333 84617 88457==
98755,2023,01,09,12,00,AAXX 09121 98755 11458 83201 10240 20233 30108 40112 53017 60061 76166 8452/ 333 10250 59012 84618 88458==
98755,2023,01,09,15,00,AAXX 09151 98755 41465 80000 10236 20228 30099 40103 55009 70262 8257/ 333 82619 88359==
98755,2023,01,09,18,00,AAXX 09181 98755 11465 82701 10235 20225 30080 40084 56019 60021 70262 8257/ 333 82619 88359==
98755,2023,01,09,21,00,AAXX 09211 98755 42465 82701 10230 20216 30078 40082 55002 8257/ 333 82619 88359==
98755,2023,01,10,00,00,AAXX 10001 98755 12462 83001 10242 20236 30097 40101 52019 60294 8357/ 333 20212 59020 70290 83619 88359==
98755,2023,01,10,03,00,AAXX 10031 98755 42462 83001 10262 20245 30092 40096 58005 8357/ 333 83619 88359==
98755,2023,01,10,06,00,AAXX 10061 98755 32462 83401 10279 20240 30059 40063 57033 8357/ 333 56990 83619 88359=
98755,2023,01,10,12,00,AAXX 10121 98755 11460 82701 10247 20235 30090 40094 52020 69921 72522 8487/ 333 10289 59018 82618 82819 88359==
98755,2023,01,10,15,00,AAXX 10151 98755 41462 80000 10245 20236 30085 40089 58005 70282 8287/ 333 82619 88359==
98755,2023,01,10,18,00,AAXX 10181 98755 11565 72501 10237 20228 30068 40072 57017 60001 70182 81870 333 81620 87360==
98755,2023,01,11,00,00,AAXX 11001 98755 12465 60000 10247 20236 30089 40093 52019 69924 81531 333 20230 59008 70002 81619 84080==
98755,2023,01,11,03,00,AAXX 11031 98755 42465 70402 10278 20248 30082 40086 58007 81232 333 81819 84360==
98755,2023,01,11,06,00,AAXX 11061 98755 32465 73602 10290 20242 30048 40052 57034 81275 333 56999 81819 86360=
98755,2023,01,11,12,00,AAXX 11121 98755 42462 73201 10264 20241 30078 40082 52017 81570 333 10298 59011 81619 87359==
98755,2023,01,11,15,00,AAXX 11151 98755 32462 72701 10246 20240 30081 40085 51003 81570 333 56990 81619 87359=
98755,2023,01,11,18,00,AAXX 11181 98755 42462 80000 10251 20239 30067 40071 58014 8257/ 333 82619 88359==
98755,2023,01,11,21,00,AAXX 11211 98755 32462 80000 10246 20239 30068 40072 53001 8257/ 333 56990 82619 88359=
98755,2023,01,12,00,00,AAXX 12001 98755 42465 62501 10251 20239 30089 40093 53021 82878 333 20234 58000 82619 84359 86279==
98755,2023,01,12,03,00,AAXX 12031 98755 41465 70401 10270 20250 30075 40079 58014 72522 83278 333 83819 85360 87279==
98755,2023,01,12,06,00,AAXX 12061 98755 11565 63404 10296 20237 30047 40051 57028 69981 70182 83278 333 83820 83359 86279==
98755,2023,01,12,12,00,AAXX 12121 98755 41465 83203 10260 20236 30072 40076 52015 71322 8197/ 333 10305 59006 88359 81919==
98755,2023,01,12,15,00,AAXX 12151 98755 41465 82702 10252 20229 30066 40070 58006 71322 8197/ 333 88359 81919==
98755,2023,01,12,18,00,AAXX 12181 98755 42565 70000 10250 20222 30060 40064 58006 81208 333 81820 87279==
98755,2023,01,13,00,00,AAXX 13001 98755 12565 73201 10257 20245 30078 40082 51015 69984 81570 333 20240 59011 70008 81620 87359==
98755,2023,01,13,03,00,AAXX 13031 98755 42565 62502 10291 20250 30065 40069 58013 83208 333 83820 86279==
98755,2023,01,13,06,00,AAXX 13061 98755 42465 73602 10291 20253 30043 40047 57022 82978 333 83359 87279 82919==
98755,2023,01,13,12,00,AAXX 13121 98755 42565 73602 10262 20239 30069 40073 52012 81270 333 10310 59003 81820 87359==
98755,2023,01,13,15,00,AAXX 13151 98755 42565 61802 10260 20233 30072 40076 51003 81270 333 81820 86360==
98755,2023,01,14,00,00,AAXX 14001 98755 11458 80000 10245 20241 30077 40081 52016 60054 76186 8452/ 333 20240 59001 70050 84618 88458==
98755,2023,01,14,03,00,AAXX 14031 98755 41458 80000 10249 20245 30068 40072 58009 76166 8452/ 333 84618 88458==
98755,2023,01,14,06,00,AAXX 14061 98755 11462 83402 10267 20244 30052 40056 57016 60031 71562 8257/ 333 82618 88359==
98755,2023,01,14,12,00,AAXX 14121 98755 42565 70000 10257 20248 30061 40065 53013 81270 333 10280 59008 81820 87359==
98755,2023,01,14,15,00,AAXX 14151 98755 42565 73401 10250 20239 30057 40061 58004 81270 333 81820 87359==
98755,2023,01,14,18,00,AAXX 14181 98755 42565 63401 10245 20234 30036 40040 58021 81270 333 81820 86359==
98755,2023,01,15,03,00,AAXX 15031 98755 42565 71401 10283 20256 30067 40071 58010 81208 333 81820 87279==
98755,2023,01,15,12,00,AAXX 15121 98755 42565 73001 10271 20248 30073 40077 53025 81870 333 10305 58012 81620 87359==
98755,2023,01,15,15,00,AAXX 15151 98755 42565 50000 10260 20248 30076 40080 53003 81270 333 81820 85359==
98755,2023,01,15,18,00,AAXX 15181 98755 42565 50000 10250 20243 30066 40070 58010 81236 333 81820 85080==
98755,2023,01,16,00,00,AAXX 16001 98755 42565 10000 10268 20247 30091 40095 52021 81201 333 20240 58014 81820==
98755,2023,01,16,03,00,AAXX 16031 98755 42565 41203 10290 20251 30087 40091 58003 82231 333 82820==
98755,2023,01,16,06,00,AAXX 16061 98755 42465 40903 10297 20250 30068 40072 57019 81371 333 81919==
98755,2023,01,16,12,00,AAXX 16121 98755 42565 60901 10240 20226 30090 40094 52031 81208 333 10307 58017 81820 86280==
98755,2023,01,16,15,00,AAXX 16151 98755 42565 30000 10240 20226 30099 40103 51009 81201 333 81820 83080==
98755,2023,01,16,18,00,AAXX 16181 98755 42565 32201 10238 20221 30084 40088 58015 81201 333 81820 83080==
98755,2023,01,17,00,00,AAXX 17001 98755 42465 73002 10260 20244 30117 40121 52027 81578 333 20235 58026 81619 84359 87279==
98755,2023,01,17,03,00,AAXX 17031 98755 42565 70902 10288 20257 30112 40116 58005 81278 333 81820 85360 87279==
98755,2023,01,17,06,00,AAXX 17061 98755 42465 70202 10285 20258 30089 40093 57023 81278 333 81819 84359 87279==
98755,2023,01,17,12,00,AAXX 17121 98755 42465 70000 10270 20254 30107 40111 53016 81870 333 10305 58017 81619 87359==
98755,2023,01,17,15,00,AAXX 17151 98755 41465 72401 10260 20252 30114 40118 50007 72522 82270 333 82819 87359==
98755,2023,01,17,18,00,AAXX 17181 98755 11565 53001 10250 20246 30097 40101 57017 69941 70182 81276 333 81820 85080==
98755,2023,01,17,21,00,AAXX 17211 98755 32565 40000 10245 20241 30103 40107 53006 81206 333 56909 81820 84080=
98755,2023,01,18,00,00,AAXX 18001 98755 12565 60000 10266 20253 30126 40130 52023 69944 81271 333 20245 58009 70004 81820 84080==
98755,2023,01,18,03,00,AAXX 18031 98755 42565 60604 10290 20253 30117 40121 58009 82201 333 82820 84080==
98755,2023,01,18,06,00,AAXX 18061 98755 42565 40605 10297 20250 30088 40092 57029 81201 333 81820 83080==
98755,2023,01,18,12,00,AAXX 18121 98755 42565 22701 10272 20250 30116 40120 52022 81201 333 10306 58009 81820==
98755,2023,01,18,15,00,AAXX 18151 98755 42565 30000 10254 20243 30110 40114 58006 81201 333 81820 83080==
98755,2023,01,18,18,00,AAXX 18181 98755 42565 62701 10248 20236 30092 40096 58018 81208 333 81820 86279==
98755,2023,01,19,00,00,AAXX 19001 98755 42565 42401 10263 20257 30110 40114 52014 81206 333 20240 59016 81820 84080==
98755,2023,01,19,03,00,AAXX 19031 98755 42565 43404 10305 20238 30103 40107 58007 83206 333 83820 84080==
98755,2023,01,19,06,00,AAXX 19061 98755 32565 53604 10299 20245 30078 40082 57025 82306 333 56909 82920 85279=
98755,2023,01,19,15,00,AAXX 19151 98755 41462 70000 10258 20250 30098 40102 58003 72522 83570 333 83619 87359==
98755,2023,01,19,18,00,AAXX 19181 98755 11462 72701 10251 20246 30085 40089 57013 60051 70282 83570 333 83619 87359==
98755,2023,01,20,03,00,AAXX 20031 98755 41565 60405 10293 20252 30098 40102 57004 70382 82206 333 82820 86080==
98755,2023,01,20,06,00,AAXX 20061 98755 11462 60205 10300 20242 30077 40081 57021 69961 70582 82906 333 86080 81919==
98755,2023,01,20,12,00,AAXX 20121 98755 11565 62702 10240 20228 30099 40103 52015 60271 70386 81206 333 10306 59002 81820 86080==
98755,2023,01,20,15,00,AAXX 20151 98755 42565 62701 10236 20225 30096 40100 58003 81208 333 81820 86279==
98755,2023,01,20,18,00,AAXX 20181 98755 11565 62702 10236 20221 30081 40085 58015 60021 70282 81208 333 81820 86279==
98755,2023,01,21,00,00,AAXX 21001 98755 11458 73202 10257 20244 30097 40101 52011 60314 78082 83570 333 20233 59005 70310 83618 87358==
98755,2023,01,21,03,00,AAXX 21031 98755 41458 81602 10271 20254 30093 40097 58004 76186 8452/ 333 84618 88458==
98755,2023,01,21,06,00,AAXX 21061 98755 11462 81603 10288 20250 30071 40075 57022 60091 71586 83878 333 82618 88279==
98755,2023,01,21,12,00,AAXX 21121 98755 11465 83601 10253 20241 30098 40102 51024 60141 70282 82870 333 10300 59001 81618 82819 88359==
98755,2023,01,21,15,00,AAXX 21151 98755 41456 81201 10246 20238 30098 40102 50003 78182 8387/ 333 82617 83818 88358==
98755,2023,01,21,18,00,AAXX 21181 98755 11465 83201 10238 20230 30087 40091 58011 60231 70286 8287/ 333 82618 82819 88359==
98755,2023,01,22,00,00,AAXX 22001 98755 11457 82202 10230 20223 30108 40112 52018 60684 76186 8352/ 333 20225 58011 70680 83617 88458==
98755,2023,01,22,03,00,AAXX 22031 98755 41458 83602 10245 20224 30101 40105 58007 76166 8352/ 333 83616 88458==
98755,2023,01,22,06,00,AAXX 22061 98755 11458 83604 10255 20236 30074 40078 57027 60791 76066 8352/ 333 83618 88458==
98755,2023,01,22,09,00,AAXX 22091 98755 41458 83602 10260 20244 30072 40076 55002 78022 8352/ 333 83618 88458==
98755,2023,01,22,12,00,AAXX 22121 98755 11458 80000 10247 20243 30086 40090 53014 60111 76186 8352/ 333 10269 59012 83618 88457==
98755,2023,01,22,15,00,AAXX 22151 98755 41458 82501 10246 20244 30086 40090 50000 76066 8252/ 333 82618 88458==
98755,2023,01,22,18,00,AAXX 22181 98755 11463 80403 10258 20242 30067 40071 56019 60031 72162 8252/ 333 82619 88459==
98755,2023,01,23,00,00,AAXX 23001 98755 11460 70000 10253 20248 30081 40085 52015 60994 72586 82570 333 20243 59027 70990 82618 87359==
98755,2023,01,23,03,00,AAXX 23031 98755 41458 80000 10266 20253 30073 40077 58008 78082 8457/ 333 84618 88358==
98755,2023,01,23,06,00,AAXX 23061 98755 11430 80904 10239 20235 30058 40062 57015 60691 76586 8452/ 333 84616 88456==
98755,2023,01,23,12,00,AAXX 23121 98755 11462 72701 10245 20236 30075 40079 52016 60061 70286 83270 333 10273 59011 83819 87359==
98755,2023,01,23,15,00,AAXX 23151 98755 41462 52702 10239 20227 30081 40085 51006 70182 82270 333 82819 86359==
98755,2023,01,23,18,00,AAXX 23181 98755 11458 82701 10236 20222 30069 40073 58012 60131 78082 8352/ 333 83618 88458==
98755,2023,01,23,21,00,AAXX 23211 98755 21458 83201 10234 20219 30072 40076 53003 78022 8352/ 333 56990 60037 83618 88458=
98755,2023,01,24,00,00,AAXX 24001 98755 11462 73201 10247 20240 30084 40088 52012 60934 70182 82570 333 20225 58003 70930 82619 87359==
98755,2023,01,24,03,00,AAXX 24031 98755 41458 80401 10265 20252 30081 40085 58003 78022 8457/ 333 84518 88358==
98755,2023,01,24,06,00,AAXX 24061 98755 11460 83604 10276 20243 30058 40062 57023 60041 76086 8482/ 333 82618 88458==
98755,2023,01,24,12,00,AAXX 24121 98755 11457 83002 10247 20240 30090 40094 51027 60221 72186 8257/ 333 10287 58015 82619 88359==
98755,2023,01,24,18,00,AAXX 24181 98755 11462 82401 10240 20232 30073 40077 56019 69981 78062 8287/ 333 82618 82819 87358==
98755,2023,01,25,00,00,AAXX 25001 98755 12462 73604 10266 20231 30097 40101 52018 60264 83570 333 20236 58013 70260 82619 87359==
98755,2023,01,25,03,00,AAXX 25031 98755 42462 83606 10289 20225 30091 40095 58006 8357/ 333 83619 88359==
98755,2023,01,25,06,00,AAXX 25061 98755 41460 83605 10288 20223 30064 40068 57027 71522 8257/ 333 82618 88359==
98755,2023,01,25,12,00,AAXX 25121 98755 11458 83605 10262 20232 30082 40086 52017 60021 78022 8352/ 333 10295 59008 83618 88458==
98755,2023,01,25,15,00,AAXX 25151 98755 41456 83205 10245 20227 30083 40087 51001 76186 8352/ 333 83617 88458==
98755,2023,01,25,18,00,AAXX 25181 98755 11456 83201 10240 20226 30060 40064 58023 60231 76266 8352/ 333 83616 88457==
98755,2023,01,26,00,00,AAXX 26001 98755 11458 73001 10234 20229 30088 40092 52018 60404 76166 83570 333 20230 59009 70400 83618 87457==
98755,2023,01,26,03,00,AAXX 26031 98755 41465 72401 10260 20249 30078 40082 58010 70262 82870 333 82619 87359==
98755,2023,01,26,06,00,AAXX 26061 98755 11565 71402 10290 20287 30056 40060 57022 60001 70262 82278 333 82820 87278==
98755,2023,01,26,09,00,AAXX 26091 98755 32565 70403 10275 20251 30068 40072 53012 82878 333 56999 82620 83359 87278=
98755,2023,01,26,12,00,AAXX 26121 98755 42462 80901 10272 20254 30086 40090 52018 8257/ 333 10297 58004 82619 88359==
98755,2023,01,26,15,00,AAXX 26151 98755 42462 80000 10258 20250 30085 40089 58001 8257/ 333 82619 88359==
98755,2023,01,26,18,00,AAXX 26181 98755 11462 70000 10251 20244 30073 40077 57012 60021 70182 82570 333 82619 87359==
98755,2023,01,27,00,00,AAXX 27001 98755 11560 50000 10259 20250 30095 40099 51022 60024 70582 81306 333 20230 58007 70020 85080 81920==
98755,2023,01,27,03,00,AAXX 27031 98755 41461 61401 10300 20260 30082 40086 58013 70542 82278 333 82820 86279==
98755,2023,01,27,06,00,AAXX 27061 98755 41563 40403 10290 20251 30053 40057 57029 70544 81378 333 84278 81920==
98755,2023,01,27,12,00,AAXX 27121 98755 42565 63602 10270 20246 30082 40086 52019 81230 333 10309 59004 81820 86360==
98755,2023,01,27,15,00,AAXX 27151 98755 42565 62702 10260 20240 30079 40083 58003 81270 333 81820 87359==
98755,2023,01,27,18,00,AAXX 27181 98755 42565 62701 10252 20236 30060 40064 58019 81270 333 81820 86359==
98755,2023,01,28,00,00,AAXX 28001 98755 42565 20000 10267 20255 30083 40087 52021 81205 333 20244 59012 81820==
98755,2023,01,28,03,00,AAXX 28031 98755 42565 70704 10290 20248 30070 40074 58013 81208 333 81820 86280==
98755,2023,01,28,06,00,AAXX 28061 98755 42565 50701 10298 20241 30046 40050 56024 81272 333 81820==
98755,2023,01,28,09,00,AAXX 28091 98755 32465 70402 10281 20245 30061 40065 53015 83870 333 56990 82619 87359=
98755,2023,01,28,12,00,AAXX 28121 98755 11465 73001 10256 20240 30087 40091 51026 60041 72522 82270 333 10304 58005 82819 87359==
98755,2023,01,28,15,00,AAXX 28151 98755 42565 62501 10248 20239 30085 40089 57002 82278 333 82820 83359 86279==
98755,2023,01,28,18,00,AAXX 28181 98755 11463 73001 10245 20238 30069 40073 56016 60081 72582 82870 333 81618 82819 87359==
98755,2023,01,29,00,00,AAXX 29001 98755 11458 83202 10258 20240 30092 40096 52022 60344 76086 8297/ 333 20240 58009 70340 88358 82918==
98755,2023,01,29,03,00,AAXX 29031 98755 41458 83201 10265 20246 30081 40085 58011 78066 8352/ 333 83617 88458==
98755,2023,01,29,06,00,AAXX 29061 98755 11462 82701 10260 20245 30068 40072 58013 60261 72586 8257/ 333 82619 88359==
98755,2023,01,29,12,00,AAXX 29121 98755 11463 82901 10249 20247 30092 40096 52022 60221 72186 8257/ 333 10275 58005 82619 88359==
98755,2023,01,29,15,00,AAXX 29151 98755 41458 82001 10246 20244 30091 40095 50001 76166 8352/ 333 83618 88457==
98755,2023,01,29,18,00,AAXX 29181 98755 11458 83402 10240 20239 30081 40085 58010 60281 76382 8352/ 333 83617 88457==
98755,2023,01,29,21,00,AAXX 29211 98755 21458 82401 10242 20240 30090 40094 53009 72166 8257/ 333 56999 60297 82619 88359=
98755,2023,01,30,00,00,AAXX 30001 98755 11458 83601 10244 20240 30100 40104 52010 61254 76166 8452/ 333 20238 58008 71250 84618 88458==
98755,2023,01,30,03,00,AAXX 30031 98755 41458 83602 10250 20248 30102 40106 50002 76166 8452/ 333 84618 88458==
98755,2023,01,30,06,00,AAXX 30061 98755 11458 80000 10258 20253 30079 40083 56023 60101 76166 8452/ 333 84618 88458==
98755,2023,01,30,12,00,AAXX 30121 98755 11462 80000 10255 20242 30107 40111 52024 60021 72566 8357/ 333 10263 58015 83618 88358==
98755,2023,01,30,15,00,AAXX 30151 98755 41465 70000 10250 20236 30108 40112 51001 70182 82270 333 82819 87359==
98755,2023,01,30,18,00,AAXX 30181 98755 11465 72201 10242 20234 30091 40095 58017 60021 70282 82270 333 82820 87359==
98755,2023,01,31,00,00,AAXX 31001 98755 11460 72701 10251 20249 30107 40111 52014 60204 78082 83570 333 20234 58007 70200 83618 87358==
98755,2023,01,31,03,00,AAXX 31031 98755 21460 70405 10280 20251 30102 40106 58005 78082 83570 333 56990 69907 83618 87358=
98755,2023,01,31,06,00,AAXX 31061 98755 11460 70905 10276 20252 30079 40083 57023 69901 78082 83570 333 56990 83618 87358=
98755,2023,01,31,12,00,AAXX 31121 98755 42565 40000 10259 20247 30102 40106 53015 82276 333 10293 59005 82820 84080==
98755,2023,01,31,15,00,AAXX 31151 98755 32565 40000 10252 20247 30107 40111 50005 81336 333 56999 81920 83360 84080=
98755,2023,01,31,18,00,AAXX 31181 98755 11565 50000 10247 20242 30088 40092 57019 60001 70382 82270 333 82820 85360==
98776,2023,01,23,06,00,AAXX 23064 98776 32999 10916 10000 39895 49947 52003 80001 333 81070=
